2009010100 - SBKP 010000Z 05005KT 9999 -TSRA FEW010 FEW040CB SCT070 22/22 Q1015=
2009010101 - SBKP 010100Z 29002KT 9999 -RA FEW010 SCT070 21/21 Q1014 RETS=
2009010102 - SBKP 010200Z 12005KT 9999 SCT025 SCT070 OVC100 21/21 Q1014=
2009010103 - SBKP 010300Z 08002KT 9999 SCT025 SCT070 OVC100 21/21 Q1015=
2009010104 - SBKP 010400Z 10001KT 8000 3000E SCT025 SCT070 OVC100 21/21 Q1014=
2009010105 - SBKP 010500Z 36001KT 7000 3000E BKN005 SCT025 OVC100 21/21 Q1014=
2009010106 - SBKP 010600Z 35006KT 8000 3500E FEW005 SCT020 OVC100 21/21 Q1014=
2009010107 - SBKP 010700Z 35005KT 9999 -RA FEW005 SCT020 OVC100 21/21 Q1014=
2009010108 - SBKP 010800Z 36009KT 9999 FEW005 SCT020 OVC100 21/21 Q1014=
2009010109 - SBKP 010900Z 35006KT 9999 FEW007 SCT020 OVC100 21/21 Q1015=
2009010110 - SBKP 011000Z 36004KT 8000 FEW007 BKN015 OVC100 21/21 Q1015=
2009010111 - SBKP 011100Z 04002KT 8000 FEW006 BKN014 OVC100 21/21 Q1015=
2009010112 - SBKP 011200Z 12004KT 9000 BKN010 OVC100 22/22 Q1015=
2009010113 - SBKP 011300Z 32004KT 9000 SCT010 BKN100 23/22 Q1015=
2009010114 - SBKP 011400Z 29004KT 9999 FEW045 SCT100 25/21 Q1015=
2009010115 - SBKP 011500Z 30004KT 9999 SCT025 BKN100 26/21 Q1015=
2009010116 - SBKP 011600Z 31008KT 9999 SCT030 BKN100 27/20 Q1014=
2009010117 - SBKP 011700Z 31008KT 9999 SCT040 BKN100 27/20 Q1014=
2009010118 - SBKP 011800Z 28005KT 9999 SCT040 BKN100 28/20 Q1013=
2009010119 - SBKP 011900Z 31004KT 9999 SCT040 BKN100 29/20 Q1012=
2009010120 - SBKP 012000Z 29003KT 9999 SCT040 SCT070 BKN100 28/20 Q1012=
2009010121 - SBKP 012100Z 32003KT 9999 FEW045 SCT050 BKN100 27/19 Q1013=
2009010122 - SBKP 012200Z 36005KT 9999 FEW045 SCT050 BKN100 27/20 Q1013=
2009010123 - SBKP 012300Z 34003KT 9999 FEW045 SCT050 BKN100 26/20 Q1014=
2009010200 - SBKP 020000Z 07004KT 9999 FEW045 BKN060 BKN100 26/20 Q1014=
2009010201 - SBKP 020100Z 07002KT 9999 -RA SCT045 SCT080 BKN100 26/20 Q1014=
2009010202 - SBKP 020200Z 14006KT 9999 FEW020 OVC100 23/22 Q1014=
2009010203 - SBKP 020300Z 16004KT 9999 FEW020 OVC100 23/22 Q1013=
2009010204 - SBKP 020400Z 18008KT 9999 -RA FEW020 OVC100 22/22 Q1013=
2009010205 - SBKP 020500Z 14006KT 9999 FEW020 OVC070 22/21 Q1012=
2009010206 - SBKP 020600Z 11008KT 9999 -RA SCT020 OVC070 21/21 Q1012=
2009010207 - SBKP 020700Z 10006KT 9999 -RA BKN020 SCT045 OVC070 20/20 Q1012=
2009010208 - SBKP 020800Z 18012KT 4000 RA BR FEW010 OVC020 20/20 Q1012=
2009010208 - SBKP 020830Z 18008KT 5000 -RA BR SCT006 OVC020 20/20 Q1012 RERA=
2009010209 - SBKP 020900Z 18006KT 3000 -RA BR BKN004 OVC020 20/20 Q1013 RERA=
2009010209 - SBKP 020920Z 12008KT 6000 -RA SCT004 OVC030 20/20 Q1013=
2009010210 - SBKP 021000Z 11007KT 6000 -RA SCT004 BKN025 OVC070 20/20 Q1013=
2009010211 - SBKP 021100Z 09005KT 8000 -RA FEW004 SCT025 OVC080 20/20 Q1013=
2009010212 - SBKP 021200Z 09005KT 9999 FEW004 SCT025 BKN100 22/22 Q1013=
2009010213 - SBKP 021300Z 06005KT 9999 SCT010 24/23 Q1013=
2009010214 - SBKP 021400Z 35006KT 9999 BKN015 24/22 Q1013=
2009010215 - SBKP 021500Z 35008KT 9999 SCT015 FEW040TCU 25/22 Q1012=
2009010215 - SBKP 021510Z 33010KT 3000 SHRA BKN015 FEW040TCU 24/23 Q1012=
2009010215 - SBKP 021525Z 34007KT 9999 VCSH BKN020 24/24 Q1012 RESHRA=
2009010216 - SBKP 021600Z 34012KT 9999 BKN020 25/22 Q1012 RESHRA=
2009010217 - SBKP 021700Z 33012KT 9999 BKN020 25/22 Q1011=
2009010218 - SBKP 021800Z 35013KT 9999 BKN020 26/21 Q1010=
2009010219 - SBKP 021900Z 36011KT 9999 BKN020 25/21 Q1010=
2009010220 - SBKP 022000Z 36010KT 9999 BKN020 25/21 Q1010=
2009010221 - SBKP 022100Z 36008KT 9999 SCT020 24/21 Q1010=
2009010222 - SBKP 022200Z 36004KT 9999 FEW029 SCT090 23/21 Q1010=
2009010223 - SBKP 022300Z 36005KT 9999 FEW030 SCT090 23/22 Q1010=
2009010300 - SBKP 030000Z 04008KT 9999 -RA BKN025 SCT090 22/22 Q1010=
2009010301 - SBKP 030100Z 02007KT 9999 BKN020 SCT090 22/22 Q1010=
2009010302 - SBKP 030200Z 01008KT 9999 FEW010 BKN020 OVC080 22/22 Q1010=
2009010303 - SBKP 030300Z 01008KT 9999 SCT010 BKN015 OVC080 22/22 Q1010=
2009010304 - SBKP 030400Z 36008KT 8000 -RA BKN005 OVC015 21/21 Q1009=
2009010305 - SBKP 030500Z 30004KT 9999 BKN005 OVC015 21/21 Q1009=
2009010306 - SBKP 030600Z 01008KT 9999 BKN006 OVC015 21/21 Q1008=
2009010307 - SBKP 030700Z 01006KT 9999 BKN006 OVC015 21/21 Q1008=
2009010308 - SBKP 030800Z 36008KT 9999 BKN006 BKN100 20/20 Q1008=
2009010309 - SBKP 030900Z 01008KT 8000 BKN006 SCT010 20/20 Q1008=
2009010310 - SBKP 031000Z 35007KT 8000 3000N R15/1900 R33/P2000 BKN006 SCT015 21/21 Q1009=
2009010311 - SBKP 031100Z 35008KT 8000 BKN006 SCT015 21/21 Q1009=
2009010312 - SBKP 031200Z 32009KT 9999 BKN010 SCT080 23/23 Q1009=
2009010313 - SBKP 031300Z 32009KT 9999 BKN011 SCT080 23/23 Q1010=
2009010313 - SBKP 031335Z 33010KT 9999 BKN015 SCT080 24/23 Q1009=
2009010314 - SBKP 031400Z 33011KT 9999 BKN015 SCT080 24/22 Q1009=
2009010315 - SBKP 031500Z 32012KT 9999 BKN020 SCT090 25/21 Q1008=
2009010316 - SBKP 031600Z 30012KT 9999 -RA BKN025 SCT090 25/21 Q1008=
2009010316 - SBKP 031640Z 29017G29KT 9999 -RA BKN025 OVC100 25/20 Q1008=
2009010317 - SBKP 031700Z 29017G27KT 9999 -RA FEW006 BKN025 OVC100 25/21 Q1008=
2009010318 - SBKP 031800Z 32013KT 9999 -RA SCT025 OVC100 24/21 Q1007=
2009010319 - SBKP 031900Z 30009KT 9999 -RA BKN020 OVC100 23/22 Q1006=
2009010320 - SBKP 032000Z 31007KT 9999 BKN020 OVC100 23/22 Q1006=
2009010321 - SBKP 032100Z 31011KT 9999 BKN030 BKN100 24/21 Q1006=
2009010322 - SBKP 032200Z 31007KT 9999 FEW010 FEW025 BKN100 23/21 Q1007=
2009010323 - SBKP 032300Z 36005KT 9999 FEW025 BKN100 22/22 Q1007=
2009010400 - SBKP 040000Z 02006KT 9999 BKN030 SCT100 22/22 Q1007=
2009010401 - SBKP 040100Z 01008KT 9999 -RA FEW008 SCT025 OVC090 21/21 Q1008=
2009010402 - SBKP 040200Z 32006KT 9999 SCT008 SCT025 OVC090 21/21 Q1008=
2009010403 - SBKP 040300Z 25007KT 9999 -RA FEW002 BKN025 OVC090 21/21 Q1008=
2009010404 - SBKP 040400Z 19010KT 9999 BKN015 OVC090 20/20 Q1007=
2009010405 - SBKP 040500Z 18010KT 9999 BKN015 OVC090 19/18 Q1007=
2009010406 - SBKP 040600Z 18010KT 9999 BKN040 18/18 Q1007=
2009010407 - SBKP 040700Z 18007KT 9999 BKN040 18/17 Q1007=
2009010408 - SBKP 040800Z 18007KT 9999 BKN045 18/17 Q1008=
2009010409 - SBKP 040900Z 05001KT 9999 BKN045 18/18 Q1009=
2009010410 - SBKP 041000Z 00000KT 9999 SCT020 BKN045 18/18 Q1010=
2009010411 - SBKP 041100Z 10001KT 9999 -RA FEW010 SCT020 BKN045 19/18 Q1010=
2009010412 - SBKP 041200Z 07003KT 9999 BKN018 BKN045 BKN080 19/18 Q1011=
2009010413 - SBKP 041300Z 11007KT 9999 3000NE -RA SCT007 BKN016 OVC045 19/18 Q1012=
2009010414 - SBKP 041400Z 11006KT 9999 3000E -RA SCT007 BKN016 OVC045 19/18 Q1012=
2009010414 - SBKP 041432Z 12008KT 9999 BKN013 OVC045 20/17 Q1012=
2009010415 - SBKP 041500Z 13009KT 9999 BKN025 BKN045 OVC080 20/16 Q1011=
2009010416 - SBKP 041600Z 15009KT 9999 SCT030 BKN048 OVC080 21/16 Q1011=
2009010417 - SBKP 041700Z 13007KT 9999 FEW012 SCT030 BKN048 20/15 Q1011=
2009010418 - SBKP 041800Z 13007KT 9999 FEW025 BKN049 OVC090 20/16 Q1011=
2009010419 - SBKP 041900Z 14011KT 9999 FEW025 BKN049 OVC090 21/17 Q1010=
2009010420 - SBKP 042000Z 15010KT 9999 BKN030 BKN090 21/17 Q1010=
2009010421 - SBKP 042100Z 15008KT 9999 SCT030 BKN090 20/17 Q1011=
2009010422 - SBKP 042200Z 14008KT 9999 BKN030 BKN090 20/16 Q1011=
2009010423 - SBKP 042300Z 14012KT 9999 SCT030 BKN090 18/17 Q1012=
2009010500 - SBKP 050000Z 16010KT 9999 SCT030 BKN090 18/16 Q1012=
2009010501 - SBKP 050100Z 16008KT 9999 FEW030 SCT090 18/16 Q1013=
2009010502 - SBKP 050200Z 14008KT 9999 BKN030 BKN090 18/16 Q1014=
2009010503 - SBKP 050300Z 12006KT 9999 SCT040 BKN080 17/17 Q1013=
2009010504 - SBKP 050400Z 14006KT 9999 SCT020 BKN080 17/17 Q1013=
2009010505 - SBKP 050500Z 13006KT 9999 SCT020 BKN080 16/16 Q1012=
2009010506 - SBKP 050600Z 13007KT 9999 FEW045 16/16 Q1012=
2009010507 - SBKP 050700Z 15007KT 9999 BKN020 OVC100 17/16 Q1012=
2009010508 - SBKP 050800Z 14006KT 9999 SCT040 BKN100 17/16 Q1012=
2009010509 - SBKP 050900Z 14006KT 9999 BKN020 BKN100 17/16 Q1012=
2009010510 - SBKP 051000Z 14009KT 9999 BKN020 BKN100 17/16 Q1013=
2009010511 - SBKP 051100Z 13012KT 9999 SCT020 BKN100 19/17 Q1013=
2009010512 - SBKP 051200Z 13011KT 9999 BKN023 BKN100 21/17 Q1014=
2009010513 - SBKP 051300Z 14016KT 9999 BKN025 BKN100 21/16 Q1014=
2009010514 - SBKP 051400Z 11011KT 9999 BKN025 BKN045 BKN100 22/17 Q1014=
2009010515 - SBKP 051500Z 12007KT 9999 -RA FEW010 BKN030 BKN048 21/17 Q1014=
2009010516 - SBKP 051600Z 13010KT 9999 BKN030 BKN048 BKN100 22/17 Q1013=
2009010517 - SBKP 051700Z 15013KT 9999 BKN030 BKN050 BKN100 23/17 Q1013=
2009010518 - SBKP 051800Z 16012KT 9999 SCT030 23/17 Q1012=
2009010519 - SBKP 051900Z 14015KT 9999 SCT035 24/17 Q1012=
2009010520 - SBKP 052000Z 13019KT 9999 FEW040 23/16 Q1012=
2009010521 - SBKP 052100Z 15018KT 9999 FEW045 22/16 Q1012=
2009010522 - SBKP 052200Z 13017KT 9999 FEW048 20/16 Q1013=
2009010523 - SBKP 052300Z 14016KT CAVOK 19/16 Q1013=
2009010600 - SBKP 060000Z 13016KT 9999 FEW020 18/15 Q1014=
2009010601 - SBKP 060100Z 12016KT 9999 SCT020 18/15 Q1014=
2009010602 - SBKP 060200Z 13015KT 9999 SCT020 18/15 Q1014=
2009010603 - SBKP 060300Z 13008KT CAVOK 17/15 Q1014=
2009010604 - SBKP 060400Z 12013KT CAVOK 17/15 Q1014=
2009010605 - SBKP 060500Z 12013KT CAVOK 17/15 Q1013=
2009010606 - SBKP 060600Z 12009KT CAVOK 16/16 Q1013=
2009010607 - SBKP 060700Z 13008KT CAVOK 16/16 Q1013=
2009010608 - SBKP 060800Z 11006KT CAVOK 16/16 Q1013=
2009010609 - SBKP 060900Z 12009KT CAVOK 16/16 Q1014=
2009010610 - SBKP 061000Z 12014KT CAVOK 17/16 Q1015=
2009010611 - SBKP 061100Z 11012KT 9999 FEW015 20/16 Q1015=
2009010612 - SBKP 061200Z 12011KT 9999 FEW020 21/17 Q1015=
2009010613 - SBKP 061300Z 11008KT 9999 FEW025 22/16 Q1015=
2009010614 - SBKP 061400Z 15006KT 9999 SCT030 24/16 Q1015=
2009010615 - SBKP 061500Z 15005KT 9999 BKN040 25/16 Q1014=
2009010616 - SBKP 061600Z 21001KT 9999 BKN040 26/15 Q1015=
2009010617 - SBKP 061700Z 16006KT 9999 BKN040 26/15 Q1014=
2009010618 - SBKP 061800Z 21010KT 9999 BKN040 28/16 Q1013=
2009010619 - SBKP 061900Z 15008KT 9999 SCT045 27/16 Q1012=
2009010620 - SBKP 062000Z 16010KT 9999 SCT045 26/16 Q1012=
2009010621 - SBKP 062100Z 14016KT 9999 FEW045 FEW050TCU 24/17 Q1013=
2009010622 - SBKP 062200Z 14016KT 9999 FEW045TCU SCT100 22/17 Q1013=
2009010623 - SBKP 062300Z 11016KT CAVOK 20/16 Q1014=
2009010700 - SBKP 070000Z 14016KT CAVOK 20/17 Q1015=
2009010701 - SBKP 070100Z 19008KT CAVOK 20/16 Q1016=
2009010702 - SBKP 070200Z 15013KT CAVOK 19/17 Q1015=
2009010703 - SBKP 070300Z 13013KT CAVOK 19/17 Q1015=
2009010704 - SBKP 070400Z 14012KT CAVOK 18/17 Q1014=
2009010705 - SBKP 070500Z 13007KT CAVOK 18/17 Q1014=
2009010706 - SBKP 070600Z 13011KT CAVOK 18/17 Q1013=
2009010707 - SBKP 070700Z 14010KT CAVOK 17/17 Q1014=
2009010708 - SBKP 070800Z 14010KT CAVOK 17/17 Q1014=
2009010709 - SBKP 070900Z 14010KT CAVOK 17/17 Q1015=
2009010710 - SBKP 071000Z 12012KT CAVOK 19/18 Q1015=
2009010711 - SBKP 071100Z 12010KT CAVOK 21/18 Q1016=
2009010712 - SBKP 071200Z 11008KT CAVOK 23/17 Q1016=
2009010713 - SBKP 071300Z 14001KT 9999 FEW030 25/17 Q1016=
2009010714 - SBKP 071400Z 27005KT 9999 FEW035 26/17 Q1015=
2009010715 - SBKP 071500Z 27005KT 9999 SCT040 28/17 Q1015=
2009010716 - SBKP 071600Z 21008KT 9999 SCT045 28/16 Q1014=
2009010717 - SBKP 071700Z 24007KT 9999 SCT045 29/15 Q1014=
2009010718 - SBKP 071800Z 28006KT 9999 SCT045 30/12 Q1013=
2009010719 - SBKP 071900Z 26008KT 9999 SCT045 30/12 Q1013=
2009010720 - SBKP 072000Z 25007KT 9999 FEW045 29/13 Q1013=
2009010721 - SBKP 072100Z 26008KT 9999 FEW045 29/13 Q1013=
2009010722 - SBKP 072200Z 14017KT 9999 SCT048 25/18 Q1014=
2009010723 - SBKP 072300Z 14014KT CAVOK 22/18 Q1014=
2009010800 - SBKP 080000Z 11012KT CAVOK 21/19 Q1015=
2009010801 - SBKP 080100Z 11014KT CAVOK 21/19 Q1015=
2009010802 - SBKP 080200Z 13015KT CAVOK 20/19 Q1015=
2009010803 - SBKP 080300Z 13012KT CAVOK 20/18 Q1015=
2009010804 - SBKP 080400Z 13011KT CAVOK 20/18 Q1015=
2009010805 - SBKP 080500Z 14013KT CAVOK 19/19 Q1014=
2009010806 - SBKP 080600Z 13011KT CAVOK 19/19 Q1014=
2009010807 - SBKP 080700Z 11008KT CAVOK 18/18 Q1014=
2009010808 - SBKP 080800Z 12006KT CAVOK 18/18 Q1015=
2009010809 - SBKP 080900Z 13006KT CAVOK 18/18 Q1015=
2009010810 - SBKP 081000Z 11006KT CAVOK 20/19 Q1016=
2009010811 - SBKP 081100Z 08003KT CAVOK 23/19 Q1016=
2009010812 - SBKP 081200Z 36003KT CAVOK 25/18 Q1016=
2009010813 - SBKP 081300Z 32006KT CAVOK 27/18 Q1016=
2009010814 - SBKP 081400Z 35006KT 9999 FEW040 28/17 Q1016=
2009010815 - SBKP 081500Z 31005KT 9999 FEW045 29/16 Q1016=
2009010816 - SBKP 081600Z 28009KT 9999 SCT045 30/15 Q1016=
2009010817 - SBKP 081700Z 29007KT 9999 SCT045 31/12 Q1015=
2009010818 - SBKP 081800Z 22007KT 9999 SCT045 32/12 Q1015=
2009010819 - SBKP 081900Z 24007KT 9999 SCT045 31/12 Q1015=
2009010820 - SBKP 082000Z 23008KT 9999 SCT045 31/13 Q1014=
2009010821 - SBKP 082100Z 22007KT 9999 FEW045 31/12 Q1014=
2009010822 - SBKP 082200Z 21004KT 9999 FEW045 29/13 Q1014=
2009010823 - SBKP 082300Z 12013KT CAVOK 25/19 Q1015=
2009010900 - SBKP 090000Z 12018KT CAVOK 24/18 Q1016=
2009010901 - SBKP 090100Z 10014KT 9000 NSC 22/17 Q1016=
2009010902 - SBKP 090200Z 14014KT CAVOK 21/16 Q1017=
2009010903 - SBKP 090300Z 14012KT CAVOK 21/17 Q1017=
2009010904 - SBKP 090400Z 13012KT CAVOK 20/18 Q1017=
2009010905 - SBKP 090500Z 15011KT CAVOK 19/18 Q1016=
2009010906 - SBKP 090600Z 14012KT CAVOK 19/18 Q1016=
2009010907 - SBKP 090700Z 14013KT CAVOK 19/17 Q1016=
2009010908 - SBKP 090800Z 11006KT CAVOK 19/17 Q1017=
2009010909 - SBKP 090900Z 12005KT CAVOK 19/17 Q1017=
2009010910 - SBKP 091000Z 13008KT 9999 4500E NSC 20/18 Q1018=
2009010911 - SBKP 091100Z 11005KT CAVOK 23/19 Q1018=
2009010912 - SBKP 091200Z 04007KT CAVOK 27/19 Q1018=
2009010913 - SBKP 091300Z 02005KT CAVOK 29/18 Q1018=
2009010914 - SBKP 091400Z 02004KT 9999 SCT045 30/17 Q1018=
2009010915 - SBKP 091500Z 32004KT 9999 BKN045 31/17 Q1018=
2009010916 - SBKP 091600Z 32005KT 9999 SCT045 31/18 Q1018=
2009010917 - SBKP 091700Z 26004KT 9999 SCT045 32/16 Q1018=
2009010918 - SBKP 091800Z 34004KT 9999 SCT045 32/17 Q1016=
2009010919 - SBKP 091900Z 24005KT 9999 SCT045 33/16 Q1015=
2009010920 - SBKP 092000Z 18009KT 9999 BKN045 33/15 Q1014=
2009010920 - SBKP 092040Z 35017KT 5000 -TSRA HZ BKN025 FEW050CB 27/17 Q1016=
2009010921 - SBKP 092100Z 02012KT 7000 -TSRA BKN040 SCT050CB 26/16 Q1017 WS RWY33=
2009010922 - SBKP 092200Z 15010KT 8000 TS SCT040 SCT050CB OVC080 23/19 Q1018=
2009010922 - SBKP 092230Z 15010KT 9999 SCT040 BKN100 23/19 Q1018 RETS=
2009010923 - SBKP 092300Z 13010KT 9999 FEW045 BKN100 23/20 Q1018 RETS=
2009011000 - SBKP 100000Z 14010KT CAVOK 23/20 Q1019=
2009011001 - SBKP 100100Z 13010KT CAVOK 23/20 Q1020=
2009011002 - SBKP 100200Z 12015KT CAVOK 22/20 Q1020=
2009011003 - SBKP 100300Z 13013KT 9999 FEW040 BKN080 22/20 Q1019=
2009011004 - SBKP 100400Z 12008KT 9999 FEW040 BKN070 22/20 Q1020=
2009011005 - SBKP 100500Z 12017KT 9999 TS SCT040 FEW050CB BKN090 21/21 Q1019=
2009011006 - SBKP 100600Z 10008KT 9999 BKN040 FEW050TCU BKN070 BKN100 22/21 Q1019 RETS=
2009011007 - SBKP 100700Z 12009KT 9999 -RA FEW030 SCT040 BKN070 21/21 Q1019=
2009011008 - SBKP 100800Z 09008KT 9999 -RA BKN035 BKN100 20/20 Q1019=
2009011009 - SBKP 100900Z 09002KT 9999 -RA SCT030 BKN040 BKN070 20/20 Q1021=
2009011010 - SBKP 101000Z 08006KT 9999 -RA FEW020 SCT040 BKN100 21/21 Q1021=
2009011011 - SBKP 101100Z 06008KT 9999 -RA FEW015 BKN090 21/21 Q1022=
2009011012 - SBKP 101200Z 06011KT 9999 FEW015 BKN100 23/20 Q1022=
2009011013 - SBKP 101300Z 08011KT CAVOK 25/19 Q1021=
2009011014 - SBKP 101400Z 10006KT CAVOK 27/19 Q1020=
2009011015 - SBKP 101500Z 11006KT CAVOK 28/20 Q1020=
2009011016 - SBKP 101600Z 04008KT 9999 SCT035 SCT100 29/20 Q1020=
2009011017 - SBKP 101700Z 01006KT 9999 SCT035 SCT100 29/20 Q1020=
2009011018 - SBKP 101800Z 01009KT 9999 SCT035 30/21 Q1019=
2009011019 - SBKP 101900Z 05011KT 9999 FEW040TCU SCT045 29/19 Q1018=
2009011020 - SBKP 102000Z 06008KT 9999 SCT045 29/19 Q1017=
2009011021 - SBKP 102100Z 06006KT 9999 FEW045 SCT100 28/20 Q1017=
2009011022 - SBKP 102200Z 06006KT 9999 FEW045 BKN100 28/19 Q1017=
2009011023 - SBKP 102300Z 11005KT CAVOK 26/21 Q1018=
2009011100 - SBKP 110000Z 11006KT CAVOK 25/21 Q1018=
2009011101 - SBKP 110100Z 12007KT CAVOK 24/22 Q1019=
2009011102 - SBKP 110200Z 11007KT 9999 FEW048 SCT070 24/21 Q1019=
2009011103 - SBKP 110300Z 11008KT 9999 BKN048 BKN090 24/21 Q1018=
2009011104 - SBKP 110400Z 12008KT 9999 -TSRA FEW009 BKN035 FEW050CB BKN090 22/21 Q1018=
2009011105 - SBKP 110500Z 06004KT 9999 VCTS BKN044 FEW050CB OVC090 22/22 Q1018=
2009011106 - SBKP 110600Z 14006KT 9999 VCTS SCT044 FEW050CB OVC100 21/21 Q1018=
2009011107 - SBKP 110700Z 13005KT 9999 FEW048 OVC100 22/22 Q1017=
2009011108 - SBKP 110800Z 10005KT 9999 FEW048 BKN100 21/21 Q1017=
2009011109 - SBKP 110900Z 07003KT 9999 SCT030 BKN100 22/20 Q1018=
2009011110 - SBKP 111000Z 10006KT CAVOK 22/20 Q1019=
2009011111 - SBKP 111100Z 24008KT CAVOK 23/21 Q1020=
2009011112 - SBKP 111200Z 26004KT CAVOK 24/20 Q1021=
2009011113 - SBKP 111300Z 26003KT CAVOK 25/20 Q1021=
2009011114 - SBKP 111400Z 31006KT 9999 FEW020 BKN100 26/20 Q1020=
2009011115 - SBKP 111500Z 28006KT 9999 SCT025 BKN100 27/20 Q1020=
2009011116 - SBKP 111600Z 30004KT 9999 SCT035 BKN100 28/19 Q1019=
2009011117 - SBKP 111700Z 01008KT 9999 SCT035 29/18 Q1019=
2009011118 - SBKP 111800Z 35007KT 9999 FEW040 29/19 Q1018=
2009011119 - SBKP 111900Z 35006KT 9999 FEW040 SCT100 29/17 Q1017=
2009011120 - SBKP 112000Z 32005KT 9999 FEW045 BKN100 29/19 Q1017=
2009011121 - SBKP 112100Z 25004KT 9999 FEW048 BKN100 29/19 Q1016=
2009011122 - SBKP 112200Z 22006KT CAVOK 28/20 Q1017=
2009011123 - SBKP 112300Z 22007KT CAVOK 25/22 Q1017=
2009011200 - SBKP 120000Z 28006KT CAVOK 24/22 Q1018=
2009011201 - SBKP 120100Z 22005KT CAVOK 23/22 Q1018=
2009011202 - SBKP 120200Z 20003KT CAVOK 23/22 Q1018=
2009011203 - SBKP 120300Z 19005KT 9999 FEW040 SCT080 BKN100 23/23 Q1018=
2009011204 - SBKP 120400Z 19004KT 9999 FEW040 SCT080 BKN100 23/23 Q1018=
2009011205 - SBKP 120500Z 15005KT 9999 FEW040 BKN100 22/22 Q1017=
2009011206 - SBKP 120600Z 07003KT CAVOK 22/22 Q1016=
2009011207 - SBKP 120700Z 08005KT CAVOK 21/21 Q1016=
2009011208 - SBKP 120800Z 14002KT CAVOK 21/21 Q1016=
2009011209 - SBKP 120900Z 16004KT CAVOK 21/21 Q1017=
2009011210 - SBKP 121000Z 10004KT CAVOK 22/22 Q1018=
2009011211 - SBKP 121100Z 08006KT CAVOK 24/20 Q1018=
2009011212 - SBKP 121200Z 04006KT CAVOK 27/16 Q1019=
2009011213 - SBKP 121300Z 01008KT CAVOK 28/16 Q1019=
2009011214 - SBKP 121400Z 01011KT 9999 FEW025 SCT100 29/16 Q1019=
2009011215 - SBKP 121500Z 01010KT 9999 FEW030 30/17 Q1018=
2009011216 - SBKP 121600Z 31008KT 9999 SCT035 31/18 Q1018=
2009011217 - SBKP 121700Z 30008KT 9999 BKN035 31/17 Q1017=
2009011218 - SBKP 121800Z 34008KT 9999 SCT035 FEW040TCU 31/17 Q1017=
2009011219 - SBKP 121900Z 29009KT 9999 FEW035 FEW040TCU 30/19 Q1017=
2009011220 - SBKP 122000Z 35006KT 9999 FEW045 SCT080 31/19 Q1016=
2009011221 - SBKP 122100Z 02006KT CAVOK 30/18 Q1016=
2009011222 - SBKP 122200Z 00000KT CAVOK 29/20 Q1015=
2009011223 - SBKP 122300Z 02002KT CAVOK 28/19 Q1015=
2009011300 - SBKP 130000Z 12005KT CAVOK 26/20 Q1016=
2009011301 - SBKP 130100Z 12006KT CAVOK 25/20 Q1016=
2009011302 - SBKP 130200Z 12006KT CAVOK 24/21 Q1017=
2009011303 - SBKP 130300Z 12008KT CAVOK 24/20 Q1016=
2009011304 - SBKP 130400Z 11007KT CAVOK 23/20 Q1016=
2009011305 - SBKP 130500Z 11007KT CAVOK 23/20 Q1016=
2009011306 - SBKP 130600Z 11006KT CAVOK 23/20 Q1015=
2009011307 - SBKP 130700Z 10006KT CAVOK 22/20 Q1015=
2009011308 - SBKP 130800Z 10005KT CAVOK 22/20 Q1016=
2009011309 - SBKP 130900Z 09004KT CAVOK 22/21 Q1016=
2009011310 - SBKP 131000Z 09002KT CAVOK 24/21 Q1017=
2009011311 - SBKP 131100Z 07002KT CAVOK 26/20 Q1017=
2009011312 - SBKP 131200Z 03004KT CAVOK 28/18 Q1018=
2009011313 - SBKP 131300Z 34008KT CAVOK 30/18 Q1017=
2009011314 - SBKP 131400Z 33009KT CAVOK 31/13 Q1017=
2009011315 - SBKP 131500Z 33007KT 9999 SCT040 32/18 Q1016=
2009011316 - SBKP 131600Z 32009KT 9999 SCT040 32/18 Q1016=
2009011317 - SBKP 131700Z 29004KT 9999 SCT040 33/16 Q1016=
2009011318 - SBKP 131800Z 04003KT 9999 FEW040 33/16 Q1015=
2009011319 - SBKP 131900Z 33006KT 9999 FEW045 32/17 Q1014=
2009011320 - SBKP 132000Z 36006KT 9999 FEW045 33/16 Q1014=
2009011321 - SBKP 132100Z 28005KT 9999 FEW045 32/18 Q1014=
2009011322 - SBKP 132200Z 21003KT CAVOK 31/17 Q1014=
2009011323 - SBKP 132300Z 12005KT 9999 VCTS FEW040 FEW045CB SCT080 29/19 Q1014=
2009011400 - SBKP 140000Z 18009KT 8000 -TSRA SCT030 FEW040CB BKN080 27/18 Q1015=
2009011401 - SBKP 140100Z 06009KT 9999 TS FEW040CB BKN080 23/21 Q1017=
2009011402 - SBKP 140200Z 08010KT 9999 TS FEW020 FEW040CB BKN070 22/22 Q1017=
2009011403 - SBKP 140300Z 18014KT 7000 -TSRA FEW020 FEW040CB BKN070 22/22Q1017=
2009011404 - SBKP 140400Z 10012KT 9999 TS FEW020 FEW040CB SCT080 22/22 Q1015=
2009011405 - SBKP 140500Z 10008KT 9999 FEW020 SCT080 21/21 Q1015 RETS=
2009011406 - SBKP 140600Z 12005KT CAVOK 21/21 Q1015=
2009011407 - SBKP 140700Z 10004KT CAVOK 21/21 Q1014=
2009011408 - SBKP 140800Z 10003KT CAVOK 21/21 Q1014=
2009011409 - SBKP 140900Z 10005KT CAVOK 20/20 Q1015=
2009011410 - SBKP 141000Z 09003KT CAVOK 21/21 Q1015=
2009011411 - SBKP 141100Z 33002KT CAVOK 23/22 Q1016=
2009011412 - SBKP 141200Z 01008KT CAVOK 26/20 Q1016=
2009011413 - SBKP 141300Z 36008KT CAVOK 28/21 Q1016=
2009011414 - SBKP 141400Z 33009KT CAVOK 30/21 Q1015=
2009011415 - SBKP 141500Z 29008KT 9999 FEW035 31/20 Q1015=
2009011416 - SBKP 141600Z 30007KT 9999 SCT035 32/20 Q1015=
2009011417 - SBKP 141700Z 27008KT 9999 BKN045 FEW050TCU 32/19 Q1013=
2009011418 - SBKP 141800Z 31014G25KT 9999 TS BKN045 FEW050CB 30/20 Q1013=
2009011419 - SBKP 141900Z 01006KT 9999 VCTS BKN045 FEW050CB 27/19 Q1013 RETS=
2009011420 - SBKP 142000Z 36004KT 9999 SCT045 FEW050TCU SCT100 27/19 Q1012=
2009011421 - SBKP 142100Z 30007KT 9999 SCT030 BKN045 BKN070 26/19 Q1013=
2009011421 - SBKP 142116Z 31005KT 9999 TS SCT030 FEW040CB BKN070 BKN100 24/20 Q1013=
2009011422 - SBKP 142200Z 02002KT 9999 -RA SCT030 BKN050 BKN100 24/21 Q1014 RETS=
2009011423 - SBKP 142300Z 07009KT 9999 SCT040 SCT070 BKN090 23/22 Q1014=
2009011500 - SBKP 150000Z 12022G32KT 9999 TS SCT030 FEW040CB BKN050 BKN090 22/21 Q1016=
2009011501 - SBKP 150100Z 09008KT 7000 -RA FEW010 BKN040 BKN090 19/19 Q1017 RETS=
2009011501 - SBKP 150120Z 04010KT 9000 -TSRA SCT040 FEW045CB OVC090 20/19 Q1017=
2009011502 - SBKP 150200Z 04009KT 9999 -TSRA FEW030 FEW045CB OVC080 20/19 Q1017=
2009011503 - SBKP 150300Z 04010KT 9999 -RA FEW020 BKN090 20/20 Q1016 RETS=
2009011504 - SBKP 150400Z 02010KT 9999 FEW020 BKN100 21/20 Q1014=
2009011505 - SBKP 150500Z 13004KT CAVOK 21/20 Q1014=
2009011506 - SBKP 150600Z 34004KT CAVOK 20/20 Q1014=
2009011507 - SBKP 150700Z 21008KT 9999 FEW020 BKN100 20/20 Q1014=
2009011508 - SBKP 150800Z 19006KT 9999 FEW020 SCT100 20/20 Q1014=
2009011509 - SBKP 150900Z 15003KT CAVOK 20/20 Q1014=
2009011510 - SBKP 151000Z 34002KT CAVOK 20/20 Q1015=
2009011511 - SBKP 151100Z 29002KT CAVOK 21/21 Q1016=
2009011512 - SBKP 151200Z 25005KT CAVOK 23/20 Q1016=
2009011513 - SBKP 151300Z 28008KT 9999 SCT025 BKN100 25/20 Q1016=
2009011514 - SBKP 151400Z 29010KT 9999 SCT040 BKN100 25/20 Q1015=
2009011515 - SBKP 151500Z 33010KT 9999 SCT025 BKN100 25/20 Q1014=
2009011516 - SBKP 151600Z 34006KT 9999 SCT035 SCT100 26/20 Q1014=
2009011517 - SBKP 151700Z 31008KT 9999 FEW045 27/20 Q1013=
2009011518 - SBKP 151800Z 33004KT 9999 FEW045 BKN070 27/20 Q1012=
2009011519 - SBKP 151900Z 25003KT 9999 FEW045 BKN070 27/19 Q1011=
2009011520 - SBKP 152000Z 21008KT 9999 FEW045 SCT070 27/17 Q1012=
2009011521 - SBKP 152100Z 22008KT 9999 FEW040 SCT080 27/18 Q1011=
2009011522 - SBKP 152200Z 26004KT 9999 FEW040 SCT080 BKN100 25/18 Q1012=
2009011523 - SBKP 152300Z 20005KT 9999 FEW040 BKN100 25/19 Q1013=
2009011600 - SBKP 160000Z 21005KT CAVOK 24/19 Q1014=
2009011601 - SBKP 160100Z 15002KT CAVOK 24/20 Q1014=
2009011602 - SBKP 160200Z 11006KT CAVOK 23/20 Q1014=
2009011603 - SBKP 160300Z 11004KT CAVOK 22/20 Q1014=
2009011604 - SBKP 160400Z 01004KT CAVOK 22/20 Q1014=
2009011605 - SBKP 160500Z 10004KT CAVOK 21/21 Q1013=
2009011606 - SBKP 160600Z 01008KT CAVOK 22/21 Q1014=
2009011607 - SBKP 160700Z 04004KT CAVOK 22/21 Q1013=
2009011608 - SBKP 160800Z 04006KT CAVOK 21/21 Q1014=
2009011609 - SBKP 160900Z 06004KT CAVOK 21/21 Q1014=
2009011610 - SBKP 161000Z 10003KT CAVOK 22/22 Q1014=
2009011611 - SBKP 161100Z 05007KT 9999 FEW010 BKN100 22/21 Q1016=
2009011612 - SBKP 161200Z 04008KT 9999 FEW015 BKN100 23/21 Q1015=
2009011613 - SBKP 161300Z 02008KT 9999 SCT020 BKN100 25/21 Q1015=
2009011614 - SBKP 161400Z 35006KT 9999 SCT020 BKN100 26/21 Q1015=
2009011615 - SBKP 161500Z 01007KT 9999 SCT025 OVC100 26/20 Q1015=
2009011616 - SBKP 161600Z 36009KT 9999 SCT030 OVC100 27/20 Q1014=
2009011617 - SBKP 161700Z 03007KT 9999 SCT030 BKN100 27/20 Q1014=
2009011618 - SBKP 161800Z 34005KT 9999 SCT040 28/19 Q1013=
2009011619 - SBKP 161900Z 36005KT 9999 SCT040 28/20 Q1012=
2009011620 - SBKP 162000Z 35005KT 9999 SCT040 27/20 Q1011=
2009011621 - SBKP 162100Z 31010G21KT 9999 2000N -RA SCT030 SCT060 24/21 Q1013=
2009011621 - SBKP 162115Z 32015KT 2000 -RA BR SCT010 SCT030 22/21 Q1013=
2009011622 - SBKP 162200Z 08004KT 9999 SCT040 BKN070 22/22 Q1013=
2009011623 - SBKP 162300Z 11005KT 9999 FEW040 BKN090 21/21 Q1014=
2009011700 - SBKP 170000Z 13005KT CAVOK 22/22 Q1014=
2009011701 - SBKP 170100Z 13005KT CAVOK 22/22 Q1015=
2009011702 - SBKP 170200Z 08006KT 9999 -RA SCT020 OVC080 21/21 Q1015=
2009011703 - SBKP 170300Z 10004KT 8000 -RA NSC 21/21 Q1015=
2009011704 - SBKP 170400Z 08006KT 9999 SCT030 OVC080 21/21 Q1015=
2009011705 - SBKP 170500Z 06004KT 9999 SCT035 OVC100 21/21 Q1014=
2009011706 - SBKP 170600Z 06004KT CAVOK 21/21 Q1013=
2009011707 - SBKP 170700Z 06006KT CAVOK 21/21 Q1013=
2009011708 - SBKP 170800Z 04010KT 9999 FEW025 BKN090 21/21 Q1013=
2009011709 - SBKP 170900Z 01009KT 9999 BKN010 BKN090 21/21 Q1013=
2009011710 - SBKP 171000Z 04010KT 9999 BKN010 BKN100 21/21 Q1013=
2009011711 - SBKP 171100Z 03008KT 9999 BKN011 BKN100 22/22 Q1014=
2009011712 - SBKP 171200Z 03012KT 9999 BKN015 BKN100 23/22 Q1015=
2009011713 - SBKP 171300Z 01011KT 9999 BKN015 OVC100 23/22 Q1015=
2009011714 - SBKP 171400Z 01009KT 9999 -RA BKN013 OVC100 23/23 Q1014=
2009011715 - SBKP 171500Z 01011KT 9999 SCT020 BKN100 25/22 Q1014=
2009011716 - SBKP 171600Z 36013KT 9999 SCT025 SCT100 26/21 Q1013=
2009011717 - SBKP 171700Z 34017KT 9999 BKN035 28/21 Q1012=
2009011717 - SBKP 171720Z 34018G41KT 3000 TSRA BKN035 BKN040CB 25/21 Q1013=
2009011717 - SBKP 171740Z 35008KT 9999 TS BKN035 FEW040CB 22/22 Q1012 RERA=
2009011718 - SBKP 171800Z 36004KT 9999 SCT035 BKN100 23/22 Q1011 RETSRA=
2009011718 - SBKP 171835Z 26016KT 9999 TS BKN006 SCT030 FEW050CB 20/17 Q1014 RERA=
2009011718 - SBKP 171840Z 27016KT 4000 -RA OVC012 21/20 Q1014=
2009011719 - SBKP 171900Z 27014KT 4000 -TSRA FEW010 BKN012 FEW040CB BKN100 19/19 Q1013=
2009011720 - SBKP 172000Z 28007KT 6000 -RA SCT020 BKN090 19/19 Q1012 RETS=
2009011721 - SBKP 172100Z 06004KT 9999 FEW035 BKN090 BKN100 19/19 Q1012=
2009011722 - SBKP 172200Z 03006KT 9999 FEW035 SCT080 BKN100 20/20 Q1012=
2009011723 - SBKP 172300Z 04006KT 9999 FEW035 SCT080 BKN100 20/20 Q1012=
2009011800 - SBKP 180000Z 05007KT 9999 FEW035 SCT080 BKN100 20/20 Q1013=
2009011801 - SBKP 180100Z 36005KT 9999 FEW035 SCT080 20/20 Q1013=
2009011802 - SBKP 180200Z 01004KT CAVOK 19/19 Q1014=
2009011803 - SBKP 180300Z 01006KT 9999 SCT045 BKN100 20/20 Q1014=
2009011804 - SBKP 180400Z 01006KT 9999 FEW045 SCT100 19/19 Q1013=
2009011805 - SBKP 180500Z 01006KT 9999 BKN040 BKN100 20/20 Q1013=
2009011806 - SBKP 180600Z 01008KT 9999 FEW006 SCT040 20/20 Q1013=
2009011807 - SBKP 180700Z 01008KT 9999 SCT025 BKN040 20/20 Q1013=
2009011808 - SBKP 180800Z 01006KT 9999 BKN007 BKN020 20/20 Q1013=
2009011809 - SBKP 180900Z 01008KT 8000 OVC005 20/20 Q1013=
2009011810 - SBKP 181000Z 01007KT 6000 BKN007 BKN090 20/20 Q1014=
2009011811 - SBKP 181100Z 36009KT 8000 OVC010 21/21 Q1016=
2009011812 - SBKP 181200Z 35009KT 9999 OVC010 22/22 Q1016=
2009011813 - SBKP 181300Z 32006KT 9999 OVC015 23/22 Q1017=
2009011814 - SBKP 181400Z 35008KT 9999 BKN020 24/22 Q1016=
2009011815 - SBKP 181500Z 35012KT 9999 BKN030 25/22 Q1016=
2009011816 - SBKP 181600Z 30008KT 9999 SCT030 FEW035TCU 26/22 Q1015=
2009011817 - SBKP 181700Z 29007KT 9999 4000NW -SHRA BKN030 FEW035TCU 26/22 Q1014=
2009011818 - SBKP 181800Z 29010KT 9999 BKN028 FEW035TCU 27/22 Q1014=
2009011819 - SBKP 181900Z 27010KT 9999 5000SW -RA BKN028 FEW035TCU 24/23 Q1013=
2009011820 - SBKP 182000Z 29012KT 9999 BKN028 BKN100 24/22 Q1014=
2009011821 - SBKP 182100Z 29007KT 9999 SCT028 BKN100 24/23 Q1014=
2009011822 - SBKP 182200Z 31004KT 9999 FEW030 SCT080 BKN100 23/23 Q1014=
2009011823 - SBKP 182300Z 33003KT 9999 FEW030 SCT080 BKN100 23/23 Q1015=
2009011900 - SBKP 190000Z 35004KT 9999 FEW030 SCT080 22/22 Q1015=
2009011901 - SBKP 190100Z 03003KT 9999 FEW030 SCT080 22/22 Q1015=
2009011902 - SBKP 190200Z 34003KT 9999 SCT015 SCT080 22/22 Q1015=
2009011903 - SBKP 190300Z 33003KT CAVOK 21/21 Q1015=
2009011904 - SBKP 190400Z 01004KT CAVOK 21/21 Q1014=
2009011905 - SBKP 190500Z 03003KT CAVOK 21/21 Q1014=
2009011906 - SBKP 190600Z 36002KT CAVOK 20/20 Q1014=
2009011907 - SBKP 190700Z 02004KT CAVOK 20/20 Q1014=
2009011908 - SBKP 190800Z 01004KT 9999 SCT030 BKN100 20/20 Q1015=
2009011909 - SBKP 190900Z 36004KT 5000 BR BKN040 BKN100 20/20 Q1015=
2009011910 - SBKP 191000Z 02005KT 5000 BR SCT040 BKN100 21/21 Q1015=
2009011911 - SBKP 191100Z 35005KT 4000 BR FEW005 BKN025 BKN100 21/21 Q1016=
2009011912 - SBKP 191200Z 35006KT 6000 SCT012 BKN025 BKN100 23/22 Q1016=
2009011913 - SBKP 191300Z 33005KT 9999 BKN025 SCT100 24/21 Q1016=
2009011914 - SBKP 191400Z 01007KT 9999 BKN025 25/20 Q1015=
2009011915 - SBKP 191500Z 35010KT 9999 SCT030 26/20 Q1015=
2009011916 - SBKP 191600Z 35009KT 9999 SCT030 26/20 Q1014=
2009011917 - SBKP 191700Z 35005KT 9999 SCT030 27/20 Q1013=
2009011918 - SBKP 191800Z 02006KT 9999 SCT030 28/20 Q1012=
2009011919 - SBKP 191900Z 35006KT 9999 SCT030 28/20 Q1012=
2009011920 - SBKP 192000Z 30005KT 9999 SCT030 FEW040TCU 28/20 Q1012=
2009011921 - SBKP 192100Z 31003KT 9999 SCT040 BKN100 27/21 Q1012=
2009011922 - SBKP 192200Z 24005KT 9999 FEW040 BKN100 26/22 Q1012=
2009011923 - SBKP 192300Z 22003KT 9999 FEW040 BKN090 26/21 Q1012=
2009012000 - SBKP 200000Z 31001KT 9999 FEW045 SCT090 25/22 Q1013=
2009012001 - SBKP 200100Z 22005KT 9999 FEW045 SCT080 24/23 Q1013=
2009012002 - SBKP 200200Z 23003KT 9999 SCT045 BKN100 24/24 Q1013=
2009012003 - SBKP 200300Z 20002KT 9999 FEW045 BKN100 23/23 Q1013=
2009012004 - SBKP 200400Z 20001KT 9999 FEW045 BKN090 23/23 Q1012=
2009012005 - SBKP 200500Z 06002KT CAVOK 23/23 Q1012=
2009012006 - SBKP 200600Z 03001KT 9999 SCT040 BKN080 23/23 Q1012=
2009012007 - SBKP 200700Z 04003KT 9999 SCT040 BKN080 23/23 Q1011=
2009012008 - SBKP 200800Z 35002KT 9999 SCT045 BKN080 22/22 Q1012=
2009012009 - SBKP 200900Z 36005KT 9999 FEW010 SCT040 BKN090 22/22 Q1012=
2009012010 - SBKP 201000Z 36005KT 8000 FEW010 BKN040 BKN080 23/23 Q1013=
2009012011 - SBKP 201100Z 36005KT 8000 FEW010 BKN040 BKN080 24/24 Q1013=
2009012012 - SBKP 201200Z 34006KT 9999 FEW012 SCT045 BKN100 24/23 Q1013=
2009012013 - SBKP 201300Z 35008KT 9999 SCT020 SCT045 BKN100 26/22 Q1013=
2009012014 - SBKP 201400Z 31006KT 9999 BKN030 BKN100 27/22 Q1013=
2009012015 - SBKP 201500Z 32007KT 9999 4000SE -RA BKN035 FEW040TCU BKN100 26/23 Q1013=
2009012016 - SBKP 201600Z 28004KT 7000 -RA SCT008 BKN030 BKN100 25/25 Q1012=
2009012016 - SBKP 201625Z 22006KT 9999 8000S TS FEW006 BKN035 FEW040CB BKN100 26/24 Q1012=
2009012016 - SBKP 201640Z 22006KT 9999 TS FEW006 BKN035 FEW040CB BKN100 26/24 Q1012=
2009012017 - SBKP 201700Z 33003KT 8000 -RA FEW006 BKN035 FEW040TCU BKN100 27/23 Q1011 RETS=
2009012018 - SBKP 201800Z 31004KT 9999 SCT030 FEW035TCU 27/24 Q1011=
2009012019 - SBKP 201900Z 12010KT 9999 4000E -RA SCT030 SCT035TCU 26/24 Q1011=
2009012019 - SBKP 201945Z 17014KT 3000 RA SCT030 SCT035TCU 24/24 Q1011=
2009012020 - SBKP 202000Z 14013KT 9999 3000E -RA BKN025 FEW030TCU 24/24 Q1011 RERA=
2009012021 - SBKP 202100Z 17013KT 9999 SCT020 FEW030TCU BKN040 23/22 Q1012=
2009012022 - SBKP 202200Z 17012KT 8000 3000E -RA FEW020 SCT040 OVC080 22/21 Q1013=
2009012023 - SBKP 202300Z 16006KT 9999 -RA FEW025 BKN050 OVC085 22/21 Q1014=
2009012100 - SBKP 210000Z 17004KT 9999 -RA FEW025 BKN050 OVC085 22/21 Q1015=
2009012101 - SBKP 210100Z 12006KT 9999 FEW025 BKN060 OVC090 22/21 Q1015=
2009012102 - SBKP 210200Z 17004KT 9999 FEW030 BKN060 BKN100 22/21 Q1015=
2009012103 - SBKP 210300Z 15007KT 9999 BKN020 BKN100 22/21 Q1014=
2009012104 - SBKP 210400Z 12009KT 9999 BKN025 BKN100 21/20 Q1014=
2009012105 - SBKP 210500Z 14008KT 9999 BKN025 BKN100 21/20 Q1014=
2009012106 - SBKP 210600Z 17005KT 9999 BKN025 BKN100 21/21 Q1013=
2009012107 - SBKP 210700Z 15006KT 9999 BKN025 BKN100 21/21 Q1014=
2009012108 - SBKP 210800Z 17007KT 9999 BKN025 21/20 Q1014=
2009012109 - SBKP 210900Z 16006KT 9999 FEW006 BKN025 BKN090 20/19 Q1014=
2009012110 - SBKP 211000Z 12007KT 9999 SCT015 BKN025 BKN080 21/19 Q1015=
2009012111 - SBKP 211100Z 14010KT 9999 SCT015 BKN025 BKN080 21/19 Q1015=
2009012112 - SBKP 211200Z 13012KT 9999 SCT018 BKN025 BKN080 22/19 Q1016=
2009012113 - SBKP 211300Z 13014KT 9999 SCT020 BKN090 23/19 Q1016=
2009012114 - SBKP 211400Z 12013KT 9999 BKN025 BKN090 24/20 Q1016=
2009012115 - SBKP 211500Z 15013KT 9999 BKN030 BKN090 25/19 Q1016=
2009012116 - SBKP 211600Z 17011KT 9999 BKN040 BKN090 26/19 Q1016=
2009012117 - SBKP 211700Z 14014KT 9999 BKN045 BKN090 26/20 Q1015=
2009012118 - SBKP 211800Z 16018KT 9999 SCT035 BKN048 26/20 Q1015=
2009012119 - SBKP 211900Z 17016KT 9999 SCT035 BKN060 26/20 Q1014=
2009012120 - SBKP 212000Z 15015KT 9999 SCT030 BKN060 25/20 Q1015=
2009012121 - SBKP 212100Z 16016KT 9999 SCT030 OVC070 24/19 Q1015=
2009012122 - SBKP 212200Z 14016KT 9999 SCT020 OVC070 22/19 Q1016=
2009012123 - SBKP 212300Z 16018KT 9999 SCT030 0VC070 22/18 Q1017=
2009012200 - SBKP 220000Z 14016KT 9999 SCT030 OVC080 21/18 Q1018=
2009012201 - SBKP 220100Z 14016KT 9999 SCT025 OVC080 21/17 Q1018=
2009012202 - SBKP 220200Z 13013KT 9999 FEW025 OVC080 19/16 Q1018=
2009012203 - SBKP 220300Z 12008KT 9999 FEW025 OVC085 19/16 Q1018=
2009012204 - SBKP 220400Z 14010KT 9999 FEW025 OVC085 19/16 Q1018=
2009012205 - SBKP 220500Z 16003KT 9999 FEW025 BKN095 19/16 Q1017=
2009012206 - SBKP 220600Z 18003KT 9999 BKN025 BKN100 19/16 Q1017=
2009012207 - SBKP 220700Z 17005KT 9999 BKN025 BKN100 19/16 Q1017=
2009012208 - SBKP 220800Z 16006KT 9999 BKN025 BKN100 19/17 Q1017=
2009012209 - SBKP 220900Z 21003KT 9999 BKN018 BKN100 19/17 Q1018=
2009012210 - SBKP 221000Z 22004KT 9999 BKN018 BKN100 19/17 Q1018=
2009012211 - SBKP 221100Z 19005KT 9999 BKN018 BKN100 20/17 Q1019=
2009012212 - SBKP 221200Z 20005KT 9999 BKN018 OVC100 21/18 Q1019=
2009012213 - SBKP 221300Z 16015KT 9999 BKN018 OVC100 22/18 Q1019=
2009012214 - SBKP 221400Z 15016KT 9999 BKN020 OVC100 23/17 Q1019=
2009012215 - SBKP 221500Z 14014KT 9999 BKN025 OVC100 23/18 Q1019=
2009012216 - SBKP 221600Z 15017KT 9999 SCT030 OVC100 23/17 Q1019=
2009012217 - SBKP 221700Z 16018KT 9999 FEW035 BKN100 24/17 Q1018=
2009012218 - SBKP 221800Z 16021KT 9999 SCT030 BKN060 24/17 Q1017=
2009012219 - SBKP 221900Z 14019KT 9999 SCT030 25/17 Q1017=
2009012220 - SBKP 222000Z 14023KT 9999 SCT030 BKN080 23/17 Q1017=
2009012221 - SBKP 222100Z 14021KT 9999 SCT030 BKN080 22/17 Q1017=
2009012222 - SBKP 222200Z 14021KT 9999 SCT020 BKN080 21/17 Q1018=
2009012223 - SBKP 222300Z 14020KT 9999 BKN025 OVC080 20/16 Q1018=
2009012300 - SBKP 230000Z 14021KT 9999 OVC030 20/16 Q1019=
2009012301 - SBKP 230100Z 14014KT 9999 BKN030 19/16 Q1020=
2009012302 - SBKP 230200Z 13015KT 9999 FEW030 19/16 Q1020=
2009012303 - SBKP 230300Z 14014KT 9999 FEW030 18/16 Q1019=
2009012304 - SBKP 230400Z 14014KT 9999 FEW030 18/16 Q1019=
2009012305 - SBKP 230500Z 13014KT 9999 FEW030 18/17 Q1018=
2009012306 - SBKP 230600Z 16013KT 9999 FEW030 18/16 Q1018=
2009012307 - SBKP 230700Z 15014KT CAVOK 18/16 Q1018=
2009012308 - SBKP 230800Z 16013KT CAVOK 18/16 Q1018=
2009012309 - SBKP 230900Z 15012KT CAVOK 18/16 Q1018=
2009012310 - SBKP 231000Z 15014KT CAVOK 19/16 Q1019=
2009012311 - SBKP 231100Z 14016KT CAVOK 20/16 Q1019=
2009012312 - SBKP 231200Z 15017KT 9999 FEW025 22/17 Q1019=
2009012313 - SBKP 231300Z 14016KT 9999 FEW025 23/17 Q1019=
2009012314 - SBKP 231400Z 13015KT 9999 FEW030 SCT070 25/17 Q1019=
2009012315 - SBKP 231500Z 14015KT 9999 FEW030 BKN070 25/16 Q1019=
2009012316 - SBKP 231600Z 16016KT 9999 FEW030 SCT070 27/17 Q1018=
2009012317 - SBKP 231700Z 15016KT 9999 FEW030 SCT070 27/17 Q1017=
2009012318 - SBKP 231800Z 13016KT 9999 SCT045 27/17 Q1017=
2009012319 - SBKP 231900Z 14020KT 9999 SCT045 26/17 Q1016=
2009012320 - SBKP 232000Z 14021KT 9999 SCT045 25/17 Q1016=
2009012321 - SBKP 232100Z 12021KT 9999 SCT045 23/17 Q1016=
2009012322 - SBKP 232200Z 13020KT CAVOK 22/16 Q1017=
2009012323 - SBKP 232300Z 13015KT CAVOK 21/17 Q1017=
2009012400 - SBKP 240000Z 12015KT CAVOK 20/16 Q1018=
2009012401 - SBKP 240100Z 13014KT CAVOK 20/16 Q1018=
2009012402 - SBKP 240200Z 12013KT CAVOK 19/16 Q1018=
2009012403 - SBKP 240300Z 13015KT CAVOK 19/16 Q1017=
2009012404 - SBKP 240400Z 12010KT CAVOK 19/17 Q1017=
2009012405 - SBKP 240500Z 10009KT CAVOK 19/17 Q1016=
2009012406 - SBKP 240600Z 14009KT CAVOK 19/18 Q1016=
2009012407 - SBKP 240700Z 14013KT CAVOK 19/18 Q1016=
2009012408 - SBKP 240800Z 13010KT CAVOK 19/18 Q1016=
2009012409 - SBKP 240900Z 14010KT CAVOK 19/17 Q1016=
2009012410 - SBKP 241000Z 14008KT CAVOK 20/18 Q1017=
2009012411 - SBKP 241100Z 13009KT CAVOK 21/17 Q1017=
2009012412 - SBKP 241200Z 12009KT CAVOK 23/18 Q1017=
2009012413 - SBKP 241300Z 12007KT CAVOK 25/18 Q1017=
2009012414 - SBKP 241400Z 11008KT 9999 FEW030 SCT060 BKN070 26/18 Q1017=
2009012415 - SBKP 241500Z 11006KT 9999 SCT035 BKN080 27/18 Q1016=
2009012416 - SBKP 241600Z 13006KT 9999 BKN035 BKN080 26/18 Q1016=
2009012417 - SBKP 241700Z 13008KT 9999 BKN035 BKN080 27/19 Q1015=
2009012418 - SBKP 241800Z 12010KT 9999 BKN035 BKN090 27/19 Q1014=
2009012419 - SBKP 241900Z 13010KT 9999 BKN040 BKN090 27/19 Q1014=
2009012420 - SBKP 242000Z 12010KT 9999 BKN040 BKN090 26/19 Q1013=
2009012421 - SBKP 242100Z 13013KT 9999 SCT045 SCT100 26/19 Q1013=
2009012422 - SBKP 242200Z 13016KT 9999 FEW045 BKN090 24/19 Q1014=
2009012423 - SBKP 242300Z 12014KT CAVOK 22/19 Q1014=
2009012500 - SBKP 250000Z 12013KT CAVOK 22/19 Q1015=
2009012501 - SBKP 250100Z 11014KT CAVOK 22/19 Q1015=
2009012502 - SBKP 250200Z 13014KT CAVOK 22/19 Q1015=
2009012503 - SBKP 250300Z 13013KT CAVOK 22/19 Q1015=
2009012504 - SBKP 250400Z 13013KT CAVOK 21/19 Q1014=
2009012505 - SBKP 250500Z 13010KT CAVOK 22/19 Q1014=
2009012506 - SBKP 250600Z 13010KT CAVOK 21/20 Q1014=
2009012507 - SBKP 250700Z 13006KT CAVOK 21/20 Q1014=
2009012508 - SBKP 250800Z 14004KT CAVOK 21/20 Q1015=
2009012509 - SBKP 250900Z 13008KT CAVOK 21/20 Q1015=
2009012510 - SBKP 251000Z 11008KT CAVOK 22/20 Q1015=
2009012511 - SBKP 251100Z 10008KT CAVOK 24/20 Q1015=
2009012512 - SBKP 251200Z 08010KT 9999 SCT020 25/19 Q1016=
2009012513 - SBKP 251300Z 06010KT 9999 BKN030 27/19 Q1016=
2009012514 - SBKP 251400Z 01010KT 9999 BKN040 SCT060 28/19 Q1016=
2009012515 - SBKP 251500Z 04006KT 9999 SCT040 SCT090 28/19 Q1015=
2009012516 - SBKP 251600Z 01008KT 9999 -RA SCT020 BKN040 BKN090 25/21 Q1015=
2009012517 - SBKP 251700Z 34008KT 9999 SCT035 FEW040TCU BKN070 27/20 Q1014=
2009012518 - SBKP 251800Z 30008KT 5000 HZ BKN035 FEW040TCU OVC080 27/21 Q1014=
2009012519 - SBKP 251900Z 30006KT 8000 BKN035 FEW040TCU OVC080 25/21 Q1014=
2009012520 - SBKP 252000Z 09007KT 4000 -RA BR BKN025 FEW040TCU OVC080 22/21 Q1014=
2009012520 - SBKP 252010Z 07005KT 4000 -TSRA BR BKN025 FEW040CB OVC080 21/21 Q1014=
2009012520 - SBKP 252015Z 15006KT 4000 TSRA BKN025 FEW040CB OVC080 20/20 Q1014=
2009012520 - SBKP 252040Z 14003KT 8000 BKN045 OVC100 21/21 Q1014 RETSRA=
2009012521 - SBKP 252100Z 08004KT 8000 BKN045 OVC100 21/21 Q1014 RETSRA=
2009012522 - SBKP 252200Z 13004KT 9000 FEW045 OVC100 21/21 Q1015=
2009012523 - SBKP 252300Z 13004KT 9000 FEW045 OVC100 21/21 Q1015=
2009012500 - SBKP 250000Z 12013KT CAVOK 22/19 Q1015=
2009012501 - SBKP 250100Z 11014KT CAVOK 22/19 Q1015=
2009012502 - SBKP 250200Z 13014KT CAVOK 22/19 Q1015=
2009012503 - SBKP 250300Z 13013KT CAVOK 22/19 Q1015=
2009012504 - SBKP 250400Z 13013KT CAVOK 21/19 Q1014=
2009012505 - SBKP 250500Z 13010KT CAVOK 22/19 Q1014=
2009012506 - SBKP 250600Z 13010KT CAVOK 21/20 Q1014=
2009012507 - SBKP 250700Z 13006KT CAVOK 21/20 Q1014=
2009012508 - SBKP 250800Z 14004KT CAVOK 21/20 Q1015=
2009012509 - SBKP 250900Z 13008KT CAVOK 21/20 Q1015=
2009012510 - SBKP 251000Z 11008KT CAVOK 22/20 Q1015=
2009012511 - SBKP 251100Z 10008KT CAVOK 24/20 Q1015=
2009012512 - SBKP 251200Z 08010KT 9999 SCT020 25/19 Q1016=
2009012513 - SBKP 251300Z 06010KT 9999 BKN030 27/19 Q1016=
2009012514 - SBKP 251400Z 01010KT 9999 BKN040 SCT060 28/19 Q1016=
2009012515 - SBKP 251500Z 04006KT 9999 SCT040 SCT090 28/19 Q1015=
2009012516 - SBKP 251600Z 01008KT 9999 -RA SCT020 BKN040 BKN090 25/21 Q1015=
2009012517 - SBKP 251700Z 34008KT 9999 SCT035 FEW040TCU BKN070 27/20 Q1014=
2009012518 - SBKP 251800Z 30008KT 5000 HZ BKN035 FEW040TCU OVC080 27/21 Q1014=
2009012519 - SBKP 251900Z 30006KT 8000 BKN035 FEW040TCU OVC080 25/21 Q1014=
2009012520 - SBKP 252000Z 09007KT 4000 -RA BR BKN025 FEW040TCU OVC080 22/21 Q1014=
2009012520 - SBKP 252010Z 07005KT 4000 -TSRA BR BKN025 FEW040CB OVC080 21/21 Q1014=
2009012520 - SBKP 252015Z 15006KT 4000 TSRA BKN025 FEW040CB OVC080 20/20 Q1014=
2009012520 - SBKP 252040Z 14003KT 8000 BKN045 OVC100 21/21 Q1014 RETSRA=
2009012521 - SBKP 252100Z 08004KT 8000 BKN045 OVC100 21/21 Q1014 RETSRA=
2009012522 - SBKP 252200Z 13004KT 9000 FEW045 OVC100 21/21 Q1015=
2009012523 - SBKP 252300Z 13004KT 9000 FEW045 OVC100 21/21 Q1015=
2009012600 - SBKP 260000Z 09005KT 9999 -RA FEW008 BKN017 OVC100 21/21 Q1016=
2009012600 - SBKP 260010Z 09006KT 3500 RA BR OVC015 21/21 Q1016=
2009012600 - SBKP 260040Z 09004KT 9000 -RA OVC045 20/20 Q1016 RERA=
2009012701 - SBKP 270100Z 11004KT CAVOK 22/21 Q1017=
2009012702 - SBKP 270200Z 01008KT 9999 SCT030 BKN070 21/20 Q1018=
2009012703 - SBKP 270300Z 05007KT 8000 -RA FEW010 BKN030 OVC070 20/20 Q1018=
2009012704 - SBKP 270400Z 07006KT 9999 -RA FEW015 BKN040 OVC090 21/21 Q1017=
2009012705 - SBKP 270500Z 10003KT 9999 BKN045 OVC100 21/21 Q1016=
2009012706 - SBKP 270600Z 13004KT 9999 FEW040 OVC100 21/21 Q1015=
2009012707 - SBKP 270700Z 12004KT 9999 FEW040 OVC100 21/21 Q1016=
2009012708 - SBKP 270800Z 09003KT 9999 FEW040 BKN100 20/20 Q1016=
2009012709 - SBKP 270900Z 08004KT 9999 FEW040 BKN100 21/21 Q1016=
2009012710 - SBKP 271000Z 11003KT 9999 OVC048 21/21 Q1017=
2009012711 - SBKP 271100Z 34004KT 9999 4500NW -RA FEW010 OVC045 22/22 Q1018=
2009012712 - SBKP 271200Z 01008KT 4000 -RA BR SCT010 SCT020 OVC035 21/21 Q1018=
2009012713 - SBKP 271300Z 04006KT 4000 -RA BR SCT006 SCT010 OVC030 21/21 Q1018=
2009012714 - SBKP 271400Z 06006KT 5000 -RA BR FEW008 SCT010 OVC030 21/21 Q1018=
2009012715 - SBKP 271500Z 04004KT 8000 -RA FEW008 SCT013 OVC030 22/22 Q1018=
2009012716 - SBKP 271600Z 04006KT 9999 -RA SCT013 OVC040 24/24 Q1016=
2009012717 - SBKP 271700Z 01008KT 9999 -RA BKN018 OVC040 24/22 Q1016=
2009012718 - SBKP 271800Z 04006KT 9999 BKN020 OVC070 24/21 Q1015=
2009012719 - SBKP 271900Z 01005KT 9999 SCT020 BKN100 24/21 Q1015=
2009012720 - SBKP 272000Z 36004KT 9999 VCSH SCT020 FEW030TCU BKN100 25/21 Q1014=
2009012721 - SBKP 272100Z 06006KT 5000 -RA BR SCT010 OVC100 23/23 Q1014=
2009012722 - SBKP 272200Z 10005KT 9999 FEW010 BKN090 22/22 Q1015=
2009012723 - SBKP 272300Z 13005KT CAVOK 22/22 Q1015=
2009012800 - SBKP 280000Z 14008KT CAVOK 21/21 Q1016=
2009012801 - SBKP 280100Z 13007KT CAVOK 21/21 Q1016=
2009012802 - SBKP 280200Z 12008KT 9999 -RA SCT045 BKN090 OVC100 21/21 Q1016=
2009012803 - SBKP 280300Z 10007KT 9999 FEW045 SCT070 OVC100 21/21 Q1015=
2009012804 - SBKP 280400Z 11007KT 9999 -RA FEW045 SCT070 OVC100 21/21 Q1015=
2009012805 - SBKP 280500Z 11006KT 9999 -RA FEW045 SCT070 OVC100 21/21 Q1014=
2009012806 - SBKP 280600Z 13003KT 9999 -RA FEW042 SCT070 OVC100 21/21 Q1014=
2009012807 - SBKP 280700Z 10002KT 9999 -RA SCT015 SCT070 OVC100 21/21 Q1014=
2009012808 - SBKP 280800Z 05008KT 9999 -RA FEW005 SCT015 OVC100 21/21 Q1014=
2009012809 - SBKP 280900Z 05006KT 9999 -RA BKN015 OVC090 20/20 Q1015=
2009012810 - SBKP 281000Z 03007KT 5000 -RA BR BKN020 OVC090 21/21 Q1015=
2009012811 - SBKP 281100Z 02009KT 8000 BKN015 OVC090 21/21 Q1016=
2009012812 - SBKP 281200Z 01010KT 5000 -RA BR FEW010 OVC015 22/22 Q1016=
2009012813 - SBKP 281300Z 01010KT 6000 -RA FEW010 OVC015 22/22 Q1017=
2009012814 - SBKP 281400Z 01009KT 5000 -RA BR BKN010 OVC015 21/21 Q1016=
2009012815 - SBKP 281500Z 01012KT 9000 FEW010 OVC017 23/23 Q1016=
2009012816 - SBKP 281600Z 35013KT 9000 FEW015 OVC030 23/22 Q1015=
2009012817 - SBKP 281700Z 36010KT 9000 SCT015 OVC020 23/22 Q1014=
2009012818 - SBKP 281800Z 02011KT 9999 BKN025 24/22 Q1014=
2009012819 - SBKP 281900Z 02008KT 9999 SCT025 BKN100 25/21 Q1013=
2009012820 - SBKP 282000Z 01007KT 9999 SCT030 BKN100 25/21 Q1013=
2009012821 - SBKP 282100Z 03006KT 9999 FEW040 SCT080 25/22 Q1012=
2009012822 - SBKP 282200Z 04006KT CAVOK 25/22 Q1013=
2009012823 - SBKP 282300Z 03005KT CAVOK 24/21 Q1013=
2009012823 - SBKP 282330Z 01015G28KT 6000 -RA SCT015 BKN080 23/21 Q1014=
2009012900 - SBKP 290000Z 01010KT 5000 -RA BR FEW015 OVC080 21/21 Q1014=
2009012901 - SBKP 290100Z 04007KT 9999 FEW015 BKN090 21/21 Q1015=
2009012902 - SBKP 290200Z 03009KT 9999 FEW009 SCT015 BKN090 21/21 Q1016=
2009012903 - SBKP 290300Z 04010KT 9999 -RA BKN013 OVC090 21/21 Q1016=
2009012904 - SBKP 290400Z 04009KT 9999 -RA BKN020 OVC090 20/20 Q1015=
2009012905 - SBKP 290500Z 04007KT 9999 -RA SCT020 OVC090 20/20 Q1014=
2009012906 - SBKP 290600Z 01007KT 9999 -RA FEW020 OVC100 20/20 Q1014=
2009012907 - SBKP 290700Z 02007KT 9999 -RA FEW020 OVC100 20/20 Q1014=
2009012908 - SBKP 290800Z 01006KT 9999 FEW020 OVC100 20/20 Q1014=
2009012909 - SBKP 290900Z 01007KT 9999 FEW020 SCT080 OVC100 20/20 Q1014=
2009012910 - SBKP 291000Z 02006KT 9999 SCT035 SCT080 OVC100 21/21 Q1015=
2009012911 - SBKP 291100Z 36009KT 9999 BKN030 SCT080 OVC100 21/21 Q1015=
2009012912 - SBKP 291200Z 35010KT 9999 FEW015 SCT030 OVC100 22/22 Q1015=
2009012913 - SBKP 291300Z 35011KT 9999 SCT015 SCT040 OVC100 23/23 Q1016=
2009012914 - SBKP 291400Z 35013KT 9999 SCT017 BKN100 24/23 Q1015=
2009012915 - SBKP 291500Z 31004KT 9999 BKN025 BKN100 26/23 Q1014=
2009012916 - SBKP 291600Z 34015KT 9999 9000N VCSH SCT025 FEW050TCU SCT100 27/22 Q1014=
2009012916 - SBKP 291625Z 33018KT 2000 R15/1500 R33/1800 TSRA BR BKN040 SCT050CB BKN100 24/23 Q1014=
2009012916 - SBKP 291640Z 32011KT 4000 -TSRA BR SCT040 FEW050CB BKN100 22/22 Q1014 RERA=
2009012917 - SBKP 291700Z 32011KT 6000 -RA SCT040 BKN100 22/22 Q1014 RETSRA=
2009012918 - SBKP 291800Z 35007KT 9999 -RA FEW010 BKN040 BKN100 22/22 Q1014=
2009012919 - SBKP 291900Z 36007KT 9999 SCT015 BKN045 BKN100 23/23 Q1014=
2009012920 - SBKP 292000Z 35009KT 9999 FEW015 SCT045 24/23 Q1013=
2009012921 - SBKP 292100Z 34007KT 9999 FEW020 SCT045 BKN070 25/23 Q1014=
2009012922 - SBKP 292200Z 34005KT 9999 SCT045 FEW050TCU BKN070 24/23 Q1013=
2009012923 - SBKP 292300Z 02006KT 9999 SCT045 BKN090 23/23 Q1014=
2009013000 - SBKP 300000Z 03005KT 9999 FEW045 BKN090 23/23 Q1015=
2009013001 - SBKP 300100Z 36004KT 9999 SCT045 BKN090 22/22 Q1015=
2009013002 - SBKP 300200Z 02006KT 9999 SCT037 SCT090 22/22 Q1015=
2009013003 - SBKP 300300Z 04004KT 9999 SCT033 SCT090 22/22 Q1014=
2009013004 - SBKP 300400Z 01006KT 9999 SCT033 SCT090 22/22 Q1015=
2009013005 - SBKP 300500Z 02007KT 9999 SCT035 BKN080 22/22 Q1015=
2009013006 - SBKP 300600Z 04008KT 9999 SCT006 SCT035 OVC090 22/22 Q1014=
2009013007 - SBKP 300700Z 02007KT 9999 FEW006 SCT035 OVC090 21/21 Q1014=
2009013008 - SBKP 300800Z 04008KT 9999 SCT035 OVC090 21/21 Q1014=
2009013009 - SBKP 300900Z 04007KT 9999 SCT020 SCT090 21/21 Q1014=
2009013010 - SBKP 301000Z 02006KT 9999 FEW008 BKN090 21/21 Q1015=
2009013011 - SBKP 301100Z 02008KT 9999 SCT010 BKN100 22/22 Q1016=
2009013012 - SBKP 301200Z 01010KT 9999 SCT015 BKN100 23/22 Q1016=
2009013013 - SBKP 301300Z 36011KT 9999 SCT015 SCT040 BKN070 24/22 Q1015=
2009013014 - SBKP 301400Z 33010KT 9999 -RA SCT015 SCT040 BKN070 25/22 Q1016=
2009013015 - SBKP 301500Z 36010KT 9999 -RA BKN018 OVC070 24/23 Q1015=
2009013016 - SBKP 301600Z 32007KT 9999 SCT025 BKN070 25/23 Q1014=
2009013017 - SBKP 301700Z 33006KT 8000 -RA SCT025 FEW030TCU BKN070 26/22 Q1013=
2009013017 - SBKP 301737Z 32007KT 5000 -TSRA BR SCT025 FEW030CB BKN070 23/23 Q1013=
2009013018 - SBKP 301800Z 02005KT 9999 SCT025 FEW030TCU BKN070 24/24 Q1012 RETS=
2009013019 - SBKP 301900Z 02007KT 9999 SCT025 BKN070 27/22 Q1012=
2009013020 - SBKP 302000Z 36011KT 9999 BKN030 FEW040TCU BKN090 27/22 Q1011=
2009013020 - SBKP 302030Z 03014G24KT 6000 -TSRA BKN030 FEW040CB BKN090 25/22 Q1011=
2009013021 - SBKP 302100Z 01017G35KT 9999 -TSRA BKN030 SCT040CB BKN070 23/21 Q1011=
2009013021 - SBKP 302128Z 30003KT 9999 -TSRA BKN010 BKN030 FEW040CB BKN070 22/21 Q1013=
2009013022 - SBKP 302200Z 36004KT 9999 BKN013 BKN030 OVC090 22/22 Q1013 RETS=
2009013023 - SBKP 302300Z 33008KT 9999 -RA BKN011 BKN030 OVC090 22/22 Q1015=
2009013100 - SBKP 310000Z 36006KT 9999 -RA SCT020 SCT030 OVC090 22/22 Q1015=
2009013101 - SBKP 310100Z 02007KT 9999 FEW007 SCT040 OVC100 22/22 Q1015=
2009013102 - SBKP 310200Z 04010KT 9999 TS FEW045CB BKN100 22/22 Q1014=
2009013103 - SBKP 310300Z 04011KT 9999 TS FEW048CB SCT100 22/22 Q1013=
2009013104 - SBKP 310400Z 01010KT 9999 SCT007 SCT090 21/21 Q1013 RETS=
2009013105 - SBKP 310500Z 04006KT CAVOK 21/21 Q1013=
2009013106 - SBKP 310600Z 04006KT CAVOK 21/21 Q1013=
2009013107 - SBKP 310700Z 01006KT CAVOK 20/20 Q1013=
2009013108 - SBKP 310800Z 04006KT CAVOK 20/20 Q1013=
2009013109 - SBKP 310900Z 04006KT CAVOK 21/21 Q1014=
2009013110 - SBKP 311000Z 03008KT CAVOK 21/21 Q1014=
2009013111 - SBKP 311100Z 02007KT 9999 FEW020 SCT100 23/22 Q1015=
2009013112 - SBKP 311200Z 01010KT 9999 SCT020 24/21 Q1015=
2009013113 - SBKP 311300Z 34010KT 9999 BKN025 26/22 Q1015=
2009013114 - SBKP 311400Z 30008KT 9999 BKN025 27/22 Q1015=
2009013115 - SBKP 311500Z 33007KT 9999 BKN030 28/21 Q1014=
2009013116 - SBKP 311600Z 35008KT 9999 BKN035 28/21 Q1014=
2009013117 - SBKP 311700Z 31009KT 9999 SCT040 30/22 Q1013=
2009013118 - SBKP 311800Z 28009KT 9999 BKN040 FEW050TCU 30/21 Q1012=
2009013119 - SBKP 311900Z 28010KT 9999 BKN040 FEW050TCU 31/20 Q1011=
2009013120 - SBKP 312000Z 29011KT 9999 SCT045 FEW050TCU 31/19 Q1011=
2009013121 - SBKP 312100Z 29007KT 9999 FEW045 FEW050TCU 30/19 Q1011=
2009013122 - SBKP 312200Z 29007KT 9999 FEW045 FEW050TCU 27/20 Q1012=
2009013123 - SBKP 312300Z 21010KT 9999 -TSRA FEW045 FEW050CB 25/19 Q1012=
2009020100 - SBKP 010000Z 16005KT 9999 SCT045 SCT070 24/20 Q1013 RETS=
2009020101 - SBKP 010100Z 04004KT 9999 SCT045 SCT070 24/20 Q1013=
2009020102 - SBKP 010200Z 06004KT 9999 FEW045 SCT070 24/21 Q1013=
2009020103 - SBKP 010300Z 04005KT CAVOK 23/22 Q1013=
2009020104 - SBKP 010400Z 01004KT CAVOK 23/21 Q1013=
2009020105 - SBKP 010500Z 01004KT CAVOK 23/22 Q1013=
2009020106 - SBKP 010600Z 04004KT CAVOK 22/22 Q1013=
2009020107 - SBKP 010700Z 00000KT CAVOK 21/21 Q1013=
2009020108 - SBKP 010800Z 06004KT CAVOK 21/21 Q1013=
2009020109 - SBKP 010900Z 08004KT CAVOK 21/21 Q1014=
2009020110 - SBKP 011000Z 03004KT CAVOK 22/22 Q1015=
2009020111 - SBKP 011100Z 36006KT CAVOK 24/22 Q1015=
2009020112 - SBKP 011200Z 01005KT 9999 FEW020 25/22 Q1016=
2009020113 - SBKP 011300Z 34006KT 9999 SCT025 27/21 Q1016=
2009020114 - SBKP 011400Z 28007KT 9999 SCT030 28/20 Q1015=
2009020115 - SBKP 011500Z 29005KT 9999 SCT040 29/21 Q1015=
2009020116 - SBKP 011600Z 25004KT 9999 SCT040 30/19 Q1014=
2009020117 - SBKP 011700Z 26007KT 9999 SCT040 30/18 Q1014=
2009020118 - SBKP 011800Z 26005KT 9999 SCT040 31/19 Q1013=
2009020119 - SBKP 011900Z 22004KT 9999 SCT040 31/17 Q1012=
2009020120 - SBKP 012000Z 21007KT 9999 SCT040 31/17 Q1012=
2009020121 - SBKP 012100Z 22006KT 9999 FEW040 31/16 Q1012=
2009020122 - SBKP 012200Z 23003KT CAVOK 29/17 Q1013=
2009020123 - SBKP 012300Z 12012KT CAVOK 26/20 Q1014=
2009020200 - SBKP 020000Z 12013KT CAVOK 25/19 Q1015=
2009020201 - SBKP 020100Z 11011KT CAVOK 24/19 Q1015=
2009020202 - SBKP 020200Z 11014KT CAVOK 23/18 Q1015=
2009020203 - SBKP 020300Z 11014G24KT CAVOK 23/18 Q1015=
2009020204 - SBKP 020400Z 11013KT CAVOK 22/19 Q1015=
2009020205 - SBKP 020500Z 11013KT CAVOK 21/20 Q1014=
2009020206 - SBKP 020600Z 11014KT CAVOK 21/20 Q1014=
2009020207 - SBKP 020700Z 11013KT CAVOK 21/20 Q1014=
2009020208 - SBKP 020800Z 10006KT CAVOK 21/20 Q1015=
2009020209 - SBKP 020900Z 11008KT CAVOK 21/20 Q1015=
2009020210 - SBKP 021000Z 09008KT CAVOK 22/20 Q1016=
2009020211 - SBKP 021100Z 12011KT CAVOK 22/20 Q1016=
2009020212 - SBKP 021200Z 11009KT CAVOK 23/20 Q1016=
2009020213 - SBKP 021300Z 11008KT 9999 FEW030 SCT080 25/20 Q1017=
2009020214 - SBKP 021400Z 09005KT 9999 FEW030 26/21 Q1017=
2009020215 - SBKP 021500Z 08003KT 9999 FEW030 28/20 Q1017=
2009020216 - SBKP 021600Z 16009KT 9999 FEW030 29/20 Q1016=
2009020217 - SBKP 021700Z 13006KT 9999 FEW030 29/20 Q1015=
2009020218 - SBKP 021800Z 16007KT 9999 FEW030 FEW035TCU 31/19 Q1013=
2009020218 - SBKP 021845Z 17014KT 9999 TS FEW030 FEW035CB 28/18 Q1012=
2009020219 - SBKP 021900Z 14010KT 9999 4000E -TSRA SCT030 FEW035CB 27/18 Q1014=
2009020219 - SBKP 021910Z 05021G33KT 9999 3500NE -TSRA SCT030 FEW035CB 22/19 Q1014=
2009020219 - SBKP 021945Z 06014KT 6000 TSRA SCT030 FEW035CB 21/21 Q1014=
2009020220 - SBKP 022000Z 07012KT 8000 3500E -RA BKN030 OVC100 21/20 Q1014 RETSRA=
2009020221 - SBKP 022100Z 01005KT 8000 -RA SCT025 OVC090 23/21 Q1015=
2009020222 - SBKP 022200Z 36006KT 6000 -TSRA SCT025 FEW030CB OVC090 21/21 Q1016=
2009020223 - SBKP 022300Z 12004KT 9999 -TSRA SCT025 FEW030CB OVC090 21/21 Q1017=
2009020223 - SBKP 022315Z 13007KT 9999 -RA FEW025 OVC100 21/21 Q1017 RETS=
2009020300 - SBKP 030000Z 13007KT 9999 FEW025 OVC100 21/21 Q1017 RETS=
2009020301 - SBKP 030100Z 15008KT CAVOK 21/21 Q1017=
2009020302 - SBKP 030200Z 13006KT 9999 FEW025 BKN090 21/21 Q1017=
2009020303 - SBKP 030300Z 12010KT 9999 FEW025 BKN090 21/21 Q1017=
2009020304 - SBKP 030400Z 09006KT 9999 FEW025 BKN090 21/21 Q1016=
2009020305 - SBKP 030500Z 13002KT 9999 FEW025 BKN090 21/21 Q1016=
2009020306 - SBKP 030600Z 12003KT 9999 FEW025 BKN090 21/21 Q1016=
2009020307 - SBKP 030700Z 13004KT 9999 FEW025 BKN080 21/21 Q1015=
2009020308 - SBKP 030800Z 12004KT 9999 FEW025 SCT080 21/21 Q1015=
2009020309 - SBKP 030900Z 09004KT 8000 FEW025 BKN080 21/21 Q1016=
2009020310 - SBKP 031000Z 13005KT 8000 NSC 21/21 Q1017=
2009020311 - SBKP 031100Z 07003KT CAVOK 23/21 Q1018=
2009020312 - SBKP 031200Z 03006KT 9999 FEW020 SCT100 25/20 Q1018=
2009020313 - SBKP 031300Z 02007KT 9999 FEW020 26/20 Q1019=
2009020314 - SBKP 031400Z 36011KT 9999 SCT025 27/20 Q1018=
2009020315 - SBKP 031500Z 33010KT 9999 SCT030 28/19 Q1018=
2009020316 - SBKP 031600Z 33005KT 9999 SCT030 28/20 Q1017=
2009020317 - SBKP 031700Z 35008KT 9999 VCSH SCT030 FEW040TCU 29/20 Q1017=
2009020318 - SBKP 031800Z 27012KT 9999 VCSH SCT030 FEW040TCU 29/21 Q1016=
2009020318 - SBKP 031820Z 29011KT 9999 TS VCSH SCT030 FEW040CB 30/20 Q1016=
2009020319 - SBKP 031900Z 25008KT 9999 TS VCSH SCT030 FEW040CB 29/20 Q1015=
2009020319 - SBKP 031935Z 27006KT 9999 VCSH SCT035 FEW040TCU 29/20 Q1014 RETS=
2009020320 - SBKP 032000Z 01004KT 9999 VCSH SCT035 FEW040TCU 28/22 Q1014 RETS=
2009020321 - SBKP 032100Z 01002KT 9999 SCT040 FEW045TCU BKN090 28/21 Q1014=
2009020321 - SBKP 032120Z 20008KT 9999 3000SE -TSRA SCT040 FEW045CB BKN090 28/22 Q1015=
2009020322 - SBKP 032200Z 12008KT 9999 2000SE -TSRA BKN035 FEW045CB BKN090 24/20 Q1015=
2009020323 - SBKP 032300Z 11007KT 9999 TS BKN033 FEW045CB BKN090 23/22 Q1016=
2009020323 - SBKP 032305Z 10012G33KT 4000 1500NE TSRA BR BKN030 SCT045CB BKN090 22/19 Q1016=
2009020323 - SBKP 032325Z 14009KT 9999 4000E -TSRA BKN030 SCT045CB OVC090 23/20 Q1016 RERA=
2009020323 - SBKP 032345Z 10010KT 6000 TSRA BKN030 FEW045CB OVC090 21/20 Q1017=
2009020400 - SBKP 040000Z 09010KT 7000 3000E TSRA BKN030 FEW045CB OVC090 20/20 Q1017=
2009020401 - SBKP 040100Z 01014KT 7000 3000NW TSRA BKN025 FEW045CB OVC090 22/22 Q1019=
2009020401 - SBKP 040115Z 33002KT 5000 2000NW TSRA BR BKN007 BKN020 SCT035CB OVC090 21/21 Q1019=
2009020402 - SBKP 040200Z 02006KT 4000 TSRA BR BKN007 BKN020 FEW035CB OVC090 21/21 Q1020=
2009020402 - SBKP 040240Z 02003KT 5000 -TSRA BR SCT008 BKN020 FEW035CB OVC090 21/21 Q1019 RERA=
2009020403 - SBKP 040300Z 05004KT 7000 -TSRA FEW008 BKN020 FEW035CB OVC090 21/21 Q1018 RERA=
2009020404 - SBKP 040400Z 08005KT 9000 -RA FEW010 SCT035 OVC090 20/20 Q1017 RETS=
2009020405 - SBKP 040500Z 07006KT CAVOK 20/20 Q1016=
2009020406 - SBKP 040600Z 10005KT CAVOK 20/20 Q1015=
2009020407 - SBKP 040700Z 12004KT CAVOK 20/20 Q1015=
2009020408 - SBKP 040800Z 09004KT CAVOK 20/20 Q1015=
2009020409 - SBKP 040900Z 06002KT CAVOK 20/20 Q1016=
2009020410 - SBKP 041000Z 35002KT CAVOK 20/20 Q1016=
2009020411 - SBKP 041100Z 36010KT 9999 FEW020 22/22 Q1017=
2009020412 - SBKP 041200Z 35009KT 9999 FEW030 24/21 Q1018=
2009020413 - SBKP 041300Z 33010KT 9999 FEW030 26/22 Q1017=
2009020414 - SBKP 041400Z 33010KT 9999 SCT030 28/22 Q1017=
2009020415 - SBKP 041500Z 32011KT 9999 BKN035 FEW040TCU SCT070 28/22 Q1017=
2009020416 - SBKP 041600Z 31011G29KT 9999 -TSRA BKN030 FEW040CB SCT070 28/21 Q1016=
2009020416 - SBKP 041612Z 27023G40KT 1000 R15/0800 R33/0130 TSRA BR BKN003 BKN030 FEW040CB 23/21 Q1016=
2009020416 - SBKP 041638Z 24008KT 8000 -TSRA FEW003 BKN030 FEW040CB 22/21 Q1017 RERA=
2009020417 - SBKP 041700Z 22014KT 9999 -TSRA FEW010 BKN030 FEW040CB OVC070 21/21 Q1017 RERA=
2009020417 - SBKP 041740Z 18007KT 9999 -RA FEW010 FEW040TCU BKN100 21/21 Q1016 RETS=
2009020418 - SBKP 041800Z 15008KT 9999 FEW010 FEW040TCU 21/21 Q1015 RETS=
2009020419 - SBKP 041900Z 10003KT 9999 FEW010 FEW040TCU 25/22 Q1015=
2009020420 - SBKP 042000Z 01008KT 9999 FEW020 FEW040TCU 25/22 Q1015=
2009020421 - SBKP 042100Z 02012KT 9999 SCT020 BKN100 23/23 Q1016=
2009020422 - SBKP 042200Z 03010KT 9999 FEW020 SCT070 BKN100 22/22 Q1016=
2009020422 - SBKP 042210Z 36007KT 9999 TS FEW020 FEW035CB SCT070 BKN100 22/22 Q1017=
2009020423 - SBKP 042300Z 36006KT 9999 -RA FEW010 SCT070 OVC100 21/21 Q1017 RETS=
2009020500 - SBKP 050000Z 36007KT 9999 FEW030 BKN070 OVC100 21/21 Q1017=
2009020501 - SBKP 050100Z 01004KT 9999 FEW030 BKN100 21/21 Q1017=
2009020502 - SBKP 050200Z 34002KT 9999 FEW030 BKN100 21/21 Q1017=
2009020503 - SBKP 050300Z 33003KT 9999 SCT030 BKN100 21/21 Q1017=
2009020504 - SBKP 050400Z 02004KT 9999 FEW030 BKN100 21/21 Q1016=
2009020504 - SBKP 050425Z 01002KT 9999 BKN010 BKN100 21/21 Q1016=
2009020505 - SBKP 050500Z 24002KT 9000 4000E FEW002 SCT010 21/21 Q1016=
2009020506 - SBKP 050600Z 04004KT 9999 FEW020 BKN070 21/21 Q1014=
2009020507 - SBKP 050700Z 01005KT 8000 FEW007 SCT020 BKN070 20/20 Q1015=
2009020507 - SBKP 050740Z 02005KT 6000 BKN006 SCT020 BKN070 20/20 Q1015=
2009020508 - SBKP 050800Z 34004KT 5000 BR BKN006 SCT020 BKN070 20/20 Q1016=
2009020508 - SBKP 050835Z 36003KT 3000 BR BKN007 SCT040 BKN070 20/20 Q1016=
2009020509 - SBKP 050900Z 36003KT 3000 BR SCT007 BKN070 20/20 Q1016=
2009020510 - SBKP 051000Z 02004KT 3000 BR SCT005 SCT020 21/20 Q1017=
2009020510 - SBKP 051035Z 35004KT 7000 3000SE FEW005 SCT020 21/21 Q1017=
2009020511 - SBKP 051100Z 36004KT 7000 SCT010 SCT020 22/22 Q1017=
2009020512 - SBKP 051200Z 34005KT 9000 SCT025 SCT070 23/22 Q1017=
2009020513 - SBKP 051300Z 27004KT 9000 SCT035 SCT070 25/21 Q1018=
2009020514 - SBKP 051400Z 26005KT 9999 BKN035 26/21 Q1017=
2009020515 - SBKP 051500Z 27006KT 9999 BKN030 27/22 Q1017=
2009020516 - SBKP 051600Z 25009KT 9999 BKN040 28/21 Q1016=
2009020517 - SBKP 051700Z 27008KT 9999 BKN040 28/20 Q1015=
2009020518 - SBKP 051800Z 27008KT 9999 BKN040 29/20 Q1014=
2009020519 - SBKP 051900Z 27009KT 9999 BKN040 29/18 Q1014=
2009020520 - SBKP 052000Z 28006KT 9999 SCT040 FEW045TCU 29/19 Q1013=
2009020521 - SBKP 052100Z 25006KT 9999 FEW040 FEW045TCU 29/19 Q1014=
2009020522 - SBKP 052200Z 12011KT 9999 FEW040 FEW045TCU 23/21 Q1015=
2009020523 - SBKP 052300Z 12014KT 9999 FEW040 SCT080 22/22 Q1015=
2009020600 - SBKP 060000Z 12013KT 9999 FEW040 SCT080 22/22 Q1016=
2009020601 - SBKP 060100Z 12012KT CAVOK 22/22 Q1016=
2009020602 - SBKP 060200Z 11014KT CAVOK 22/22 Q1016=
2009020603 - SBKP 060300Z 11012KT CAVOK 21/21 Q1016=
2009020604 - SBKP 060400Z 11013KT CAVOK 21/21 Q1016=
2009020605 - SBKP 060500Z 11012KT CAVOK 21/21 Q1016=
2009020606 - SBKP 060600Z 12012KT CAVOK 21/21 Q1015=
2009020607 - SBKP 060700Z 11009KT CAVOK 20/20 Q1015=
2009020608 - SBKP 060800Z 07004KT CAVOK 20/20 Q1016=
2009020609 - SBKP 060900Z 14005KT 9000 NSC 20/20 Q1016=
2009020610 - SBKP 061000Z 12007KT 7000 3000E NSC 21/21 Q1017=
2009020611 - SBKP 061100Z 12005KT 7000 NSC 23/21 Q1017=
2009020612 - SBKP 061200Z 07005KT CAVOK 25/21 Q1017=
2009020613 - SBKP 061300Z 36004KT CAVOK 27/21 Q1017=
2009020614 - SBKP 061400Z 32006KT 9999 FEW030 29/19 Q1017=
2009020615 - SBKP 061500Z 29006KT 9999 SCT040 30/19 Q1016=
2009020616 - SBKP 061600Z 27009KT 9999 SCT045 31/18 Q1016=
2009020617 - SBKP 061700Z 27008KT 9999 SCT045 31/18 Q1015=
2009020618 - SBKP 061800Z 23008KT 9999 SCT045 31/18 Q1014=
2009020619 - SBKP 061900Z 25007KT 9999 FEW045 32/18 Q1014=
2009020620 - SBKP 062000Z 32003KT 9999 FEW045 31/17 Q1013=
2009020621 - SBKP 062100Z 28003KT 9999 FEW045 31/17 Q1013=
2009020622 - SBKP 062200Z 21005KT 9999 FEW045 30/18 Q1014=
2009020623 - SBKP 062300Z 35003KT CAVOK 28/19 Q1014=
2009020700 - SBKP 070000Z 02002KT CAVOK 27/21 Q1015=
2009020701 - SBKP 070100Z 10006KT CAVOK 25/21 Q1016=
2009020702 - SBKP 070200Z 11010KT 7000 NSC 24/22 Q1016=
2009020703 - SBKP 070300Z 12011KT 8000 NSC 24/22 Q1015=
2009020704 - SBKP 070400Z 11008KT 8000 NSC 23/21 Q1015=
2009020705 - SBKP 070500Z 12009KT 8000 NSC 22/21 Q1014=
2009020706 - SBKP 070600Z 07005KT 9000 NSC 22/21 Q1013=
2009020707 - SBKP 070700Z 09004KT 9000 NSC 22/21 Q1014=
2009020708 - SBKP 070800Z 08004KT 9000 NSC 21/21 Q1014=
2009020709 - SBKP 070900Z 09004KT 4000 BR NSC 20/20 Q1015=
2009020710 - SBKP 071000Z 07004KT 4000 BR NSC 23/23 Q1016=
2009020710 - SBKP 071030Z 07006KT 7000 3000E NSC 24/22 Q1016=
2009020711 - SBKP 071100Z 05005KT 7000 3000E NSC 24/22 Q1016=
2009020712 - SBKP 071200Z 02006KT 9000 4000E NSC 26/22 Q1016=
2009020713 - SBKP 071300Z 36008KT CAVOK 27/21 Q1017=
2009020714 - SBKP 071400Z 36006KT 9999 FEW020 SCT070 29/22 Q1017=
2009020715 - SBKP 071500Z 34008KT 9999 SCT030 29/22 Q1016=
2009020716 - SBKP 071600Z 34008KT 9999 SCT040 FEW045TCU 31/22 Q1015=
2009020717 - SBKP 071700Z 33008KT 9999 SCT040 FEW045TCU 32/22 Q1014=
2009020718 - SBKP 071800Z 31012KT 9999 TS VCSH BKN040 FEW045CB SCT080 28/20 Q1014=
2009020719 - SBKP 071900Z 26004KT 9999 TS VCSH BKN040 FEW045CB BKN080 27/19 Q1014=
2009020720 - SBKP 072000Z 18012KT 9999 VCSH SCT040 FEW045TCU BKN100 24/21 Q1014 RETS=
2009020721 - SBKP 072100Z 16010KT 9999 -RA SCT040 FEW045TCU BKN100 23/23 Q1014=
2009020722 - SBKP 072200Z 11008KT 9999 -RA SCT040 FEW045TCU BKN100 23/22 Q1014=
2009020723 - SBKP 072300Z 11012KT 9999 FEW040 BKN100 22/22 Q1015=
2009020800 - SBKP 080000Z 12014KT 9999 TS SCT040 FEW045CB BKN100 23/22 Q1015=
2009020801 - SBKP 080100Z 11013KT 9999 SCT045 BKN100 22/22 Q1015 RETS=
2009020802 - SBKP 080200Z 11012KT 9999 FEW002 SCT045 22/22 Q1016=
2009020803 - SBKP 080300Z 22011KT 9999 SCT018 BKN045 BKN080 22/22 Q1017=
2009020804 - SBKP 080400Z 15006KT 9999 FEW045 SCT080 22/22 Q1015=
2009020805 - SBKP 080500Z 12006KT 9999 FEW045 SCT080 22/22 Q1014=
2009020806 - SBKP 080600Z 11006KT CAVOK 21/21 Q1014=
2009020807 - SBKP 080700Z 15005KT CAVOK 21/21 Q1014=
2009020808 - SBKP 080800Z 09007KT CAVOK 21/21 Q1014=
2009020809 - SBKP 080900Z 10004KT 8000 NSC 21/21 Q1014=
2009020810 - SBKP 081000Z 10004KT 8000 3500E NSC 21/21 Q1015=
2009020811 - SBKP 081100Z 08004KT 9000 4000E NSC 24/21 Q1015=
2009020812 - SBKP 081200Z 02006KT CAVOK 26/21 Q1015=
2009020813 - SBKP 081300Z 36006KT CAVOK 28/21 Q1015=
2009020814 - SBKP 081400Z 33007KT 9999 FEW030 SCT100 29/21 Q1015=
2009020815 - SBKP 081500Z 34006KT 9999 FEW035 30/22 Q1015=
2009020816 - SBKP 081600Z 29006KT 9999 SCT035 FEW040TCU 31/21 Q1013=
2009020817 - SBKP 081700Z 23007KT 9999 VCSH SCT035 FEW040TCU 31/21 Q1012=
2009020818 - SBKP 081800Z 25015KT 9999 TS VCSH SCT040 FEW050CB 29/21 Q1013=
2009020819 - SBKP 081900Z 30020G30KT 9999 TS VCSH SCT040 FEW050CB 26/21 Q1013=
2009020820 - SBKP 082000Z 35015KT 9999 VCSH FEW015 SCT040 FEW050TCU 25/21 Q1013 RETS=
2009020820 - SBKP 082025Z 36011KT 3500 -RA BR SCT015 BKN020 FEW035TCU 24/22 Q1013=
2009020821 - SBKP 082100Z 03005KT 2000 -TSRA SCT013 BKN020 FEW035CB 23/23 Q1014=
2009020821 - SBKP 082105Z 11012KT 1200 R15/P2000 R33/P2000 +TSRA SCT010 BKN020 FEW035CB 22/22 Q1014=
2009020822 - SBKP 082200Z 09005KT 4000 -TSRA BR OVC020 /////CB 20/20 Q1014 RERA=
2009020823 - SBKP 082300Z 10006KT 7000 -RA BKN020 OVC100 20/20 Q1014 RETS=
2009020900 - SBKP 090000Z 08004KT 9999 FEW020 OVC100 21/21 Q1015=
2009020901 - SBKP 090100Z 10002KT 9999 FEW015 OVC100 21/21 Q1016=
2009020902 - SBKP 090200Z 11006KT 9999 FEW030 OVC080 21/21 Q1016=
2009020903 - SBKP 090300Z 09002KT 9999 FEW030 OVC080 21/21 Q1015=
2009020904 - SBKP 090400Z 13004KT 9999 FEW040 OVC090 21/21 Q1014=
2009020905 - SBKP 090500Z 13002KT 9999 FEW040 SCT100 21/21 Q1014=
2009020906 - SBKP 090600Z 20005KT 9999 2000NW BCFG FEW040 21/21 Q1014=
2009020907 - SBKP 090700Z 07002KT 9000 2000NW BCFG NSC 21/21 Q1014=
2009020908 - SBKP 090800Z 12003KT 9000 NSC 21/21 Q1014=
2009020909 - SBKP 090900Z 11004KT 9000 3000SE NSC 21/21 Q1014=
2009020910 - SBKP 091000Z 06002KT CAVOK 21/21 Q1015=
2009020911 - SBKP 091100Z 06002KT CAVOK 23/23 Q1016=
2009020912 - SBKP 091200Z 02003KT 9999 FEW020 25/23 Q1016=
2009020913 - SBKP 091300Z 33004KT 9999 BKN020 26/23 Q1016=
2009020914 - SBKP 091400Z 34006KT 9999 BKN020 26/23 Q1016=
2009020915 - SBKP 091500Z 34004KT 9999 SCT020 27/22 Q1015=
2009020916 - SBKP 091600Z 23003KT 9999 SCT030 29/22 Q1014=
2009020917 - SBKP 091700Z 20004KT 9999 SCT030 30/21 Q1013=
2009020918 - SBKP 091800Z 21006KT 9999 FEW030 FEW040TCU 30/22 Q1012=
2009020919 - SBKP 091900Z 25006KT 9999 FEW030 FEW040TCU 31/22 Q1011=
2009020920 - SBKP 092000Z 15016KT 9999 SCT040 FEW050TCU 28/22 Q1011=
2009020920 - SBKP 092005Z 14015KT 9999 TS VCSH SCT040 FEW050CB 27/22 Q1011=
2009020921 - SBKP 092100Z 12015KT 9999 TS VCSH FEW040 FEW050CB SCT100 25/22 Q1012=
2009020921 - SBKP 092135Z 13016KT 9999 FEW045 FEW050TCU SCT100 25/23 Q1013 RETS=
2009020922 - SBKP 092200Z 13015KT 9000 FEW045 FEW050TCU 25/23 Q1013 RETS=
2009020923 - SBKP 092300Z 10005KT 9999 VCTS SCT020 FEW035CB 24/23 Q1014=
2009021000 - SBKP 100000Z 12009KT 9999 FEW020 SCT060 24/23 Q1015=
2009021001 - SBKP 100100Z 13007KT 8000 FEW020 SCT090 24/23 Q1016=
2009021002 - SBKP 100200Z 14006KT 8000 NSC 24/23 Q1016=
2009021003 - SBKP 100300Z 12005KT 8000 NSC 23/23 Q1016=
2009021004 - SBKP 100400Z 13007KT 7000 NSC 23/23 Q1015=
2009021005 - SBKP 100500Z 11003KT 7000 NSC 22/22 Q1014=
2009021006 - SBKP 100600Z 13005KT 7000 SCT040 BKN090 22/22 Q1014=
2009021007 - SBKP 100700Z 11005KT 7000 SCT040 BKN090 22/22 Q1014=
2009021008 - SBKP 100800Z 11009KT 7000 FEW040 BKN090 22/22 Q1014=
2009021009 - SBKP 100900Z 11008KT 7000 NSC 22/22 Q1015=
2009021010 - SBKP 101000Z 11006KT 9999 FEW045 SCT090 22/22 Q1016=
2009021011 - SBKP 101100Z 11007KT 9999 SCT035 23/23 Q1016=
2009021012 - SBKP 101200Z 09005KT 9999 SCT030 25/22 Q1016=
2009021013 - SBKP 101300Z 07004KT 9999 FEW025 SCT100 26/22 Q1017=
2009021014 - SBKP 101400Z 08005KT 9999 SCT030 SCT100 27/21 Q1016=
2009021015 - SBKP 101500Z 32003KT 9999 SCT035 SCT100 29/21 Q1016=
2009021016 - SBKP 101600Z 33002KT 9999 BKN035 SCT100 29/21 Q1015=
2009021016 - SBKP 101632Z 23003KT 9999 2000E -TSRA SCT035 FEW050CB SCT100 29/21 Q1015=
2009021017 - SBKP 101700Z 15012KT 9999 2000E -TSRA SCT035 FEW050CB SCT100 26/23 Q1014=
2009021018 - SBKP 101800Z 04016KT 2000 TSRA BR FEW010 SCT030 SCT040CB 22/22 Q1015=
2009021018 - SBKP 101819Z 01009KT 3000 -TSRA BR SCT030 SCT040CB 22/22 Q1014 RERA=
2009021019 - SBKP 101900Z 36006KT 9999 -TSRA FEW007 SCT030 SCT040CB 23/23 Q1014 RERA=
2009021020 - SBKP 102000Z 17002KT 9999 -TSRA FEW030 SCT050CB BKN100 23/23 Q1014=
2009021021 - SBKP 102100Z 12004KT 9999 VCTS -RA SCT040 FEW050CB BKN100 23/23 Q1014=
2009021022 - SBKP 102200Z 36002KT 9999 -RA FEW020 SCT040 BKN100 23/23 Q1014 RETS=
2009021023 - SBKP 102300Z 03003KT 9999 -RA SCT030 BKN100 23/23 Q1015=
2009021100 - SBKP 110000Z 12006KT 9999 -RA FEW030 BKN100 23/23 Q1015=
2009021101 - SBKP 110100Z 11009KT CAVOK 23/23 Q1015=
2009021102 - SBKP 110200Z 10006KT 9000 NSC 23/23 Q1016=
2009021103 - SBKP 110300Z 12009KT 9000 NSC 23/23 Q1015=
2009021104 - SBKP 110400Z 09003KT 8000 NSC 22/22 Q1015=
2009021105 - SBKP 110500Z 03003KT 7000 NSC 22/22 Q1014=
2009021106 - SBKP 110600Z 10002KT 7000 NSC 22/22 Q1013=
2009021107 - SBKP 110700Z 33004KT 7000 NSC 22/22 Q1013=
2009021108 - SBKP 110800Z 35004KT 6000 NSC 22/22 Q1014=
2009021109 - SBKP 110900Z 01005KT 9000 4000NW NSC 22/22 Q1014=
2009021110 - SBKP 111000Z 02005KT CAVOK 22/22 Q1015=
2009021111 - SBKP 111100Z 36006KT 9999 FEW005 23/23 Q1015=
2009021112 - SBKP 111200Z 36009KT 9999 FEW005 25/24 Q1015=
2009021113 - SBKP 111300Z 34011KT 9999 BKN020 26/23 Q1016=
2009021114 - SBKP 111400Z 35010KT 9999 BKN025 27/23 Q1015=
2009021115 - SBKP 111500Z 33010KT 9999 SCT025 28/23 Q1015=
2009021116 - SBKP 111600Z 33009KT 9999 TS VCSH SCT030 FEW040CB 28/23 Q1014=
2009021116 - SBKP 111626Z 27016G33KT 1000 R15/1000 R33/1500 +TSRA BKN005 BKN030CB 24/23 Q1016=
2009021116 - SBKP 111646Z 21004KT 6000 2400SE -TSRA SCT005 BKN030CB 22/22 Q1015 RERA=
2009021117 - SBKP 111700Z 06003KT 9999 3000SE -TSRA FEW005 SCT030CB 22/22 Q1015 RERA=
2009021118 - SBKP 111800Z 12003KT 9999 TS FEW030 FEW040CB SCT100 22/22 Q1013=
2009021119 - SBKP 111900Z 11004KT 9999 -TSRA FEW030 FEW040CB SCT100 23/23 Q1012=
2009021120 - SBKP 112000Z 04004KT 9999 FEW030 FEW040TCU SCT100 25/25 Q1012 RETS=
2009021121 - SBKP 112100Z 36003KT 9999 SCT040 FEW045TCU 26/25 Q1012=
2009021121 - SBKP 112127Z 36012KT 3000 -TSRA BR FEW004 SCT010 SCT045CB 25/24 Q1012=
2009021122 - SBKP 112200Z 01004KT 3000 -TSRA BR SCT006 SCT020 SCT045CB 24/24 Q1013=
2009021122 - SBKP 112211Z 02010KT 7000 -TSRA FEW006 SCT045CB 23/23 Q1013=
2009021123 - SBKP 112300Z 27006KT 5000 TSRA BR FEW001 BKN045CB 22/22 Q1014=
2009021123 - SBKP 112317Z 29007KT 8000 -TSRA SCT018 BKN045CB OVC100 21/21 Q1014 RERA=
2009021200 - SBKP 120000Z 25002KT 9999 -TSRA FEW006 SCT020 SCT045CB OVC100 21/21 Q1014 RERA=
2009021201 - SBKP 120100Z 07005KT 9999 -RA SCT030 22/22 Q1014 RETS=
2009021202 - SBKP 120200Z 04008KT 9999 -RA NSC 22/22 Q1014=
2009021203 - SBKP 120300Z 04004KT 9999 FEW025 22/22 Q1013=
2009021204 - SBKP 120400Z 01006KT 9999 SCT020 22/22 Q1013=
2009021205 - SBKP 120500Z 04006KT CAVOK 22/22 Q1011=
2009021206 - SBKP 120600Z 01006KT 9999 SCT020 22/22 Q1011=
2009021207 - SBKP 120700Z 01008KT 9999 BKN025 22/22 Q1011=
2009021208 - SBKP 120800Z 35004KT 9999 SCT006 OVC020 21/21 Q1012=
2009021209 - SBKP 120900Z 36004KT 5000 BR FEW006 SCT045 BKN100 21/21 Q1012=
2009021210 - SBKP 121000Z 34003KT 3500 BR FEW010 SCT025 BKN070 22/22 Q1012=
2009021210 - SBKP 121020Z 33003KT 3500 BR FEW005 BKN007 OVC070 22/22 Q1012=
2009021211 - SBKP 121100Z 28003KT 4000 -DZ BR FEW005 BKN007 OVC012 22/22 Q1013=
2009021212 - SBKP 121200Z 27006KT 3500 -DZ BR SCT005 BKN007 OVC011 22/22 Q1013=
2009021212 - SBKP 121240Z 23006KT 6000 SCT008 BKN010 BKN070 23/23 Q1013=
2009021213 - SBKP 121300Z 22006KT 7000 BKN008 BKN013 BKN070 24/24 Q1013=
2009021214 - SBKP 121400Z 19007KT 9999 SCT013 BKN017 BKN070 24/23 Q1013=
2009021215 - SBKP 121500Z 18007KT 9999 VCSH SCT013 BKN018 FEW035TCU OVC075 24/23 Q1012=
2009021215 - SBKP 121540Z 17012KT 2500 -RA BR SCT013 BKN017 OVC075 22/22 Q1012=
2009021216 - SBKP 121600Z 14011KT 8000 3000NE -RA SCT012 BKN017 OVC075 22/22 Q1012=
2009021217 - SBKP 121700Z 14011KT 9999 FEW020 BKN030 BKN070 23/19 Q1012=
2009021218 - SBKP 121800Z 12019KT 9999 FEW010 BKN030 BKN070 24/19 Q1011=
2009021219 - SBKP 121900Z 13012KT 4000 -RA BR FEW009 BKN030 BKN070 21/20 Q1011=
2009021220 - SBKP 122000Z 13018KT 9999 4000E -RA FEW006 BKN030 BKN070 21/20 Q1011=
2009021221 - SBKP 122100Z 12010KT 9999 SCT030 BKN070 BKN080 21/19 Q1011=
2009021222 - SBKP 122200Z 12009KT 9999 SCT030 BKN070 20/19 Q1012=
2009021223 - SBKP 122300Z 12007KT 9999 FEW030 BKN080 20/19 Q1012=
2009021300 - SBKP 130000Z 12012KT 9999 FEW030 BKN090 20/18 Q1013=
2009021301 - SBKP 130100Z 13010KT CAVOK 20/18 Q1014=
2009021302 - SBKP 130200Z 14008KT CAVOK 19/18 Q1014=
2009021303 - SBKP 130300Z 14008KT 9999 SCT045 BKN100 19/18 Q1013=
2009021304 - SBKP 130400Z 14006KT CAVOK 19/18 Q1013=
2009021305 - SBKP 130500Z 15006KT CAVOK 19/19 Q1012=
2009021306 - SBKP 130600Z 16008KT CAVOK 19/18 Q1011=
2009021307 - SBKP 130700Z 16008KT CAVOK 20/18 Q1011=
2009021308 - SBKP 130800Z 14008KT CAVOK 19/19 Q1010=
2009021309 - SBKP 130900Z 14008KT CAVOK 19/19 Q1010=
2009021310 - SBKP 131000Z 13008KT 8000 3500NW -DZ FEW010 SCT030 OVC055 20/19 Q1011=
2009021311 - SBKP 131100Z 12011KT 9000 FEW010 BKN037 OVC100 20/19 Q1012=
2009021312 - SBKP 131200Z 11010KT 9999 FEW010 SCT035 BKN045 20/19 Q1012=
2009021313 - SBKP 131300Z 11007KT 9000 FEW010 SCT035 BKN042 21/19 Q1013=
2009021314 - SBKP 131400Z 12010KT 8000 -DZ FEW010 SCT013 BKN030 21/19 Q1013=
2009021315 - SBKP 131500Z 12012KT 7000 3000NE -RA FEW010 SCT013 BKN025 22/20 Q1012=
2009021316 - SBKP 131600Z 11008KT 9999 FEW010 SCT018 BKN030 21/20 Q1012=
2009021317 - SBKP 131700Z 12015KT 9999 -DZ FEW010 SCT020 BKN035 22/18 Q1011=
2009021318 - SBKP 131800Z 12015KT 9999 SCT010 BKN040 OVC090 23/19 Q1011=
2009021319 - SBKP 131900Z 12015KT 9999 FEW010 BKN040 OVC090 22/19 Q1010=
2009021320 - SBKP 132000Z 17018KT 9999 BKN040 OVC090 22/19 Q1010=
2009021321 - SBKP 132100Z 17019KT 9999 BKN040 OVC080 21/19 Q1010=
2009021322 - SBKP 132200Z 16020KT 9999 BKN040 OVC080 19/18 Q1011=
2009021323 - SBKP 132300Z 15016KT 9999 BKN040 OVC080 19/17 Q1011=
2009021400 - SBKP 140000Z 12015KT 9999 BKN040 OVC080 19/16 Q1012=
2009021401 - SBKP 140100Z 16015KT 9999 BKN040 OVC080 19/16 Q1012=
2009021402 - SBKP 140200Z 14016KT CAVOK 19/16 Q1012=
2009021403 - SBKP 140300Z 14016KT 9999 OVC045 19/15 Q1012=
2009021404 - SBKP 140400Z 13011KT 9999 OVC045 19/15 Q1012=
2009021405 - SBKP 140500Z 14014KT 9999 OVC048 19/16 Q1011=
2009021406 - SBKP 140600Z 14011KT CAVOK 19/16 Q1011=
2009021407 - SBKP 140700Z 13012KT CAVOK 18/16 Q1010=
2009021408 - SBKP 140800Z 14012KT CAVOK 18/16 Q1011=
2009021409 - SBKP 140900Z 13012KT 9999 SCT040 BKN080 18/16 Q1011=
2009021410 - SBKP 141000Z 12014KT 9999 SCT045 BKN080 19/17 Q1012=
2009021411 - SBKP 141100Z 12014KT 9999 BKN034 BKN080 BKN100 20/18 Q1013=
2009021412 - SBKP 141200Z 11012KT 8000 -RA BKN035 BKN070 BKN080 20/18 Q1013=
2009021413 - SBKP 141300Z 12015KT 9999 SCT045 BKN070 21/19 Q1013=
2009021414 - SBKP 141400Z 11011KT 9999 FEW040 BKN090 23/20 Q1013=
2009021415 - SBKP 141500Z 12008KT 9999 BKN028 FEW040TCU SCT080 25/20 Q1012=
2009021416 - SBKP 141600Z 36015KT 2500 -RA BKN006 BKN020 SCT030TCU 22/22 Q1013=
2009021416 - SBKP 141605Z 01012KT 1500 R15/P2000 R33/1500 +TSRA BKN008 BKN020 SCT030CB 21/21 Q1013=
2009021416 - SBKP 141630Z 04005KT 7000 3000E -TSRA BKN010 BKN030 FEW040CB BKN070 21/21 Q1012 RERA=
2009021417 - SBKP 141700Z 10005KT 9000 -RA BKN007 BKN030 FEW040TCU BKN070 21/21 Q1012 RETSRA=
2009021418 - SBKP 141800Z 13004KT 7000 -TSRA FEW010 SCT030 FEW050CB BKN080 22/22 Q1011=
2009021419 - SBKP 141900Z 17003KT 4500 2000N -TSRA BR FEW010 SCT030 FEW050CB BKN080 22/22 Q1011=
2009021419 - SBKP 141915Z 16015KT 3000 -RA BR BKN030 OVC080 21/21 Q1011 RETS=
2009021420 - SBKP 142000Z 16013KT 6000 2500N -RA BKN030 OVC080 21/21 Q1010 RETS=
2009021421 - SBKP 142100Z 16012KT 9000 SCT040 BKN080 21/21 Q1011=
2009021422 - SBKP 142200Z 16012KT 9999 BKN030 BKN080 21/21 Q1012=
2009021423 - SBKP 142300Z 17011KT 9999 SCT040 BKN080 21/21 Q1012=
2009021500 - SBKP 150000Z 17010KT CAVOK 21/21 Q1013=
2009021501 - SBKP 150100Z 15008KT 9999 FEW020 BKN050 BKN090 21/21 Q1014=
2009021502 - SBKP 150200Z 12010KT 9999 SCT045 BKN070 21/21 Q1014=
2009021503 - Mensagem METAR de 'SBKP' para 15/02/2009 as 03(UTC) não localizada na base de dados da REDEMET
2009021504 - SBKP 150400Z 11011KT 9999 SCT030 BKN070 20/20 Q1013=
2009021505 - SBKP 150500Z 10008KT 9999 BKN030 BKN070 20/20 Q1013=
2009021506 - SBKP 150600Z 11010KT 9999 -RA SCT025 BKN030 OVC100 20/20 Q1012=
2009021507 - SBKP 150700Z 09006KT 9999 BKN030 OVC100 20/20 Q1012=
2009021508 - SBKP 150800Z 10005KT 9999 -RA SCT015 BKN030 OVC100 20/20 Q1013=
2009021509 - SBKP 150900Z 12005KT 7000 2500S -RA SCT015 BKN020 OVC100 20/20 Q1013=
2009021510 - SBKP 151000Z 11007KT 9999 2500SE VCSH SCT015 BKN020 OVC100 20/20Q1014=
2009021511 - SBKP 151100Z 07004KT 4000 -RA BR FEW009 BKN015 OVC100 20/20 Q1014=
2009021511 - SBKP 151120Z 10005KT 7000 BKN030 BKN100 21/21 Q1015=
2009021512 - SBKP 151200Z 07005KT 9000 OVC030 22/22 Q1015=
2009021513 - SBKP 151300Z 04004KT 9999 OVC025 22/22 Q1015=
2009021514 - SBKP 151400Z 02007KT 9999 SCT010 BKN040 OVC090 24/22 Q1015=
2009021515 - SBKP 151500Z 01010KT 9000 SCT010 OVC050 23/22 Q1015=
2009021516 - SBKP 151600Z 01008KT 9999 FEW020 OVC060 24/22 Q1014=
2009021517 - SBKP 151700Z 01009KT 9999 SCT025 BKN080 25/22 Q1013=
2009021518 - SBKP 151800Z 01010KT 9999 SCT040 BKN100 26/21 Q1013=
2009021519 - SBKP 151900Z 05006KT 9999 SCT030 SCT100 26/21 Q1013=
2009021520 - SBKP 152000Z 03005KT 9999 VCSH BKN040 SCT100 26/21 Q1013=
2009021521 - SBKP 152100Z 05003KT 9999 SCT040 FEW050TCU BKN100 26/21 Q1012=
2009021522 - SBKP 152200Z 16007KT 9999 3000E -TSRA BKN040 FEW050CB BKN100 24/22 Q1013=
2009021522 - SBKP 152220Z 09009G27KT 2000 R15/1600 R33/1900 TSRA BR SCT006 BKN030 SCT040CB BKN100 23/22 Q1014=
2009021522 - SBKP 152245Z 35007KT 4000 -TSRA BR FEW006 SCT033 SCT050CB OVC080 20/20 Q1015 RERA=
2009021523 - SBKP 152300Z 12003KT 6000 -TSRA FEW006 SCT040 FEW050CB OVC080 20/20 Q1014 RERA=
2009021523 - SBKP 152330Z 12005KT 6000 -RA BKN040 OVC080 20/20 Q1015 RETS=
2009021600 - SBKP 160000Z 12006KT 8000 -RA SCT010 BKN040 OVC080 20/20 Q1015 RETS=
2009021601 - SBKP 160100Z 16007KT 9000 -RA BKN040 OVC080 20/20 Q1015=
2009021602 - SBKP 160200Z 15007KT 9000 -RA SCT040 OVC100 20/20 Q1015=
2009021603 - SBKP 160300Z 10004KT 9999 -RA FEW040 20/20 Q1015=
2009021604 - SBKP 160400Z 11006KT 9999 -RA FEW010 SCT070 20/20 Q1014=
2009021605 - SBKP 160500Z 11004KT 9999 -RA FEW010 SCT070 20/20 Q1014=
2009021606 - SBKP 160600Z 18006KT 9999 -RA FEW010 BKN070 20/20 Q1014=
2009021607 - SBKP 160700Z 14005KT 9999 -RA FEW040 BKN070 20/20 Q1013=
2009021608 - SBKP 160800Z 10005KT 9999 FEW040 BKN070 20/20 Q1014=
2009021609 - SBKP 160900Z 11005KT 9999 FEW040 BKN070 20/20 Q1014=
2009021610 - SBKP 161000Z 07002KT 9999 FEW040 BKN090 21/21 Q1015=
2009021611 - SBKP 161100Z 10003KT 9999 FEW002 BKN090 22/22 Q1015=
2009021612 - SBKP 161200Z 04005KT 9999 FEW040 24/22 Q1016=
2009021613 - SBKP 161300Z 02010KT 9999 FEW040 26/20 Q1016=
2009021614 - SBKP 161400Z 02013KT 9999 SCT035 27/20 Q1016=
2009021615 - SBKP 161500Z 36013KT 9999 SCT040 28/19 Q1016=
2009021616 - SBKP 161600Z 02011KT 9999 SCT040 28/19 Q1016=
2009021617 - SBKP 161700Z 01010KT 9999 SCT040 29/18 Q1015=
2009021618 - SBKP 161800Z 02010KT 9999 SCT040 29/18 Q1014=
2009021619 - SBKP 161900Z 35005KT 9999 FEW040 29/19 Q1013=
2009021620 - SBKP 162000Z 30005KT 9999 FEW040 28/19 Q1013=
2009021621 - SBKP 162100Z 27004KT 9999 FEW040 SCT060 28/20 Q1013=
2009021622 - SBKP 162200Z 23005KT 9999 FEW040 26/21 Q1014=
2009021623 - SBKP 162300Z 19004KT 9999 VCTS FEW040CB SCT060 26/20 Q1015=
2009021700 - SBKP 170000Z 23006KT 9999 FEW040 SCT070 24/22 Q1016 RETS=
2009021701 - SBKP 170100Z 25006KT 9999 FEW040 SCT070 23/22 Q1017=
2009021702 - SBKP 170200Z 21005KT CAVOK 22/22 Q1017=
2009021703 - SBKP 170300Z 24004KT CAVOK 22/22 Q1017=
2009021704 - SBKP 170400Z 19003KT CAVOK 22/22 Q1016=
2009021705 - SBKP 170500Z 12002KT CAVOK 22/22 Q1016=
2009021706 - SBKP 170600Z 28003KT CAVOK 21/21 Q1016=
2009021707 - SBKP 170700Z 31001KT CAVOK 20/20 Q1016=
2009021708 - SBKP 170800Z 13003KT CAVOK 20/20 Q1016=
2009021709 - SBKP 170900Z 11005KT 6000 NSC 20/20 Q1016=
2009021710 - SBKP 171000Z 10004KT 5000 BR NSC 21/21 Q1017=
2009021711 - SBKP 171100Z 06004KT 5000 BR NSC 23/22 Q1018=
2009021712 - SBKP 171200Z 06007KT CAVOK 25/19 Q1018=
2009021713 - SBKP 171300Z 02007KT CAVOK 27/19 Q1018=
2009021714 - SBKP 171400Z 36007KT 9999 FEW040 29/20 Q1018=
2009021715 - SBKP 171500Z 33007KT 9999 SCT040 29/19 Q1018=
2009021716 - SBKP 171600Z 36003KT 9999 SCT040 30/19 Q1017=
2009021717 - SBKP 171700Z 29005KT 9999 SCT040 30/17 Q1016=
2009021718 - SBKP 171800Z 10003KT 9999 SCT040 30/17 Q1015=
2009021719 - SBKP 171900Z 20004KT 9999 FEW040 31/16 Q1014=
2009021720 - SBKP 172000Z 21004KT 9999 FEW040 31/16 Q1014=
2009021721 - SBKP 172100Z 13003KT 9999 FEW040 29/17 Q1014=
2009021722 - SBKP 172200Z 13004KT 9999 FEW035 28/18 Q1015=
2009021723 - SBKP 172300Z 15004KT 9999 FEW035 27/20 Q1015=
2009021800 - SBKP 180000Z 12011KT CAVOK 25/20 Q1016=
2009021801 - SBKP 180100Z 12010KT CAVOK 24/22 Q1016=
2009021802 - SBKP 180200Z 11009KT CAVOK 23/21 Q1016=
2009021803 - SBKP 180300Z 12011KT CAVOK 23/20 Q1016=
2009021804 - SBKP 180400Z 12011KT CAVOK 22/20 Q1016=
2009021805 - SBKP 180500Z 12012KT CAVOK 22/19 Q1015=
2009021806 - SBKP 180600Z 11009KT CAVOK 22/19 Q1015=
2009021807 - SBKP 180700Z 11006KT CAVOK 21/19 Q1015=
2009021808 - SBKP 180800Z 11009KT CAVOK 21/19 Q1016=
2009021809 - SBKP 180900Z 12009KT CAVOK 21/19 Q1016=
2009021810 - SBKP 181000Z 12008KT CAVOK 22/20 Q1017=
2009021811 - SBKP 181100Z 14006KT CAVOK 24/20 Q1017=
2009021812 - SBKP 181200Z 08004KT CAVOK 26/20 Q1018=
2009021813 - SBKP 181300Z 34008KT CAVOK 28/20 Q1018=
2009021814 - SBKP 181400Z 35005KT 9999 SCT030 29/18 Q1018=
2009021815 - SBKP 181500Z 35006KT 9999 SCT040 29/19 Q1018=
2009021816 - SBKP 181600Z 29005KT 9999 SCT040 30/19 Q1017=
2009021817 - SBKP 181700Z 36003KT 9999 BKN040 30/18 Q1016=
2009021818 - SBKP 181800Z 32003KT 9999 SCT040 31/18 Q1016=
2009021819 - SBKP 181900Z 27006KT 9999 FEW040 FEW045TCU 31/19 Q1015=
2009021819 - SBKP 181940Z 26005KT 9999 TS VCSH FEW040 FEW045CB 31/19 Q1015=
2009021820 - SBKP 182000Z 21006KT 9999 TS VCSH FEW040 FEW045CB SCT070 30/19 Q1015=
2009021820 - SBKP 182045Z 12011KT 9999 FEW045TCU SCT060 25/21 Q1015 RETS=
2009021821 - SBKP 182100Z 12009KT 9999 FEW045TCU SCT060 25/21 Q1015 RETS=
2009021822 - SBKP 182200Z 13008KT 9999 FEW045 SCT060 24/22 Q1015=
2009021823 - SBKP 182300Z 12011KT 9999 FEW045 SCT060 BKN095 24/22 Q1016=
2009021900 - SBKP 190000Z 11011KT 9999 FEW040 SCT055 BKN085 24/21 Q1016=
2009021901 - SBKP 190100Z 12014KT CAVOK 23/21 Q1016=
2009021902 - SBKP 190200Z 12014KT CAVOK 23/21 Q1017=
2009021903 - SBKP 190300Z 12013KT CAVOK 22/21 Q1016=
2009021904 - SBKP 190400Z 12012KT CAVOK 22/21 Q1016=
2009021905 - SBKP 190500Z 10013KT CAVOK 22/21 Q1016=
2009021906 - SBKP 190600Z 11011KT CAVOK 21/21 Q1016=
2009021907 - SBKP 190700Z 11013KT CAVOK 21/21 Q1016=
2009021908 - SBKP 190800Z 11009KT CAVOK 20/20 Q1016=
2009021909 - SBKP 190900Z 11009KT 8000 NSC 20/20 Q1017=
2009021910 - SBKP 191000Z 11007KT 7000 NSC 21/21 Q1018=
2009021911 - SBKP 191100Z 14006KT 8000 NSC 24/21 Q1018=
2009021912 - SBKP 191200Z 10008KT 9000 NSC 26/19 Q1019=
2009021913 - SBKP 191300Z 11007KT CAVOK 27/19 Q1019=
2009021914 - SBKP 191400Z 11003KT 9999 FEW033 29/19 Q1019=
2009021915 - SBKP 191500Z 00000KT 9999 SCT040 30/18 Q1018=
2009021916 - SBKP 191600Z 36004KT 9999 SCT040 31/19 Q1017=
2009021917 - SBKP 191700Z 27005KT 9999 SCT040 31/18 Q1016=
2009021918 - SBKP 191800Z 30006KT 9999 SCT040 32/18 Q1016=
2009021919 - SBKP 191900Z 23006KT 9999 SCT040 FEW045TCU 31/18 Q1015=
2009021920 - SBKP 192000Z 25005KT 9999 FEW040 FEW045TCU 31/18 Q1014=
2009021920 - SBKP 192036Z 19006KT 9999 -TSRA FEW040 FEW045CB SCT070 31/18 Q1014=
2009021921 - SBKP 192100Z 03002KT 9999 -TSRA FEW040 FEW045CB SCT090 29/20 Q1015=
2009021922 - SBKP 192200Z 34003KT 9999 VCSH FEW040 FEW045TCU SCT090 27/20 Q1015 RETS=
2009021923 - SBKP 192300Z 16009KT 9999 FEW040 BKN070 27/21 Q1016=
2009021900 - SBKP 190000Z 11011KT 9999 FEW040 SCT055 BKN085 24/21 Q1016=
2009021901 - SBKP 190100Z 12014KT CAVOK 23/21 Q1016=
2009021902 - SBKP 190200Z 12014KT CAVOK 23/21 Q1017=
2009021903 - SBKP 190300Z 12013KT CAVOK 22/21 Q1016=
2009021904 - SBKP 190400Z 12012KT CAVOK 22/21 Q1016=
2009021905 - SBKP 190500Z 10013KT CAVOK 22/21 Q1016=
2009021906 - SBKP 190600Z 11011KT CAVOK 21/21 Q1016=
2009021907 - SBKP 190700Z 11013KT CAVOK 21/21 Q1016=
2009021908 - SBKP 190800Z 11009KT CAVOK 20/20 Q1016=
2009021909 - SBKP 190900Z 11009KT 8000 NSC 20/20 Q1017=
2009021910 - SBKP 191000Z 11007KT 7000 NSC 21/21 Q1018=
2009021911 - SBKP 191100Z 14006KT 8000 NSC 24/21 Q1018=
2009021912 - SBKP 191200Z 10008KT 9000 NSC 26/19 Q1019=
2009021913 - SBKP 191300Z 11007KT CAVOK 27/19 Q1019=
2009021914 - SBKP 191400Z 11003KT 9999 FEW033 29/19 Q1019=
2009021915 - SBKP 191500Z 00000KT 9999 SCT040 30/18 Q1018=
2009021916 - SBKP 191600Z 36004KT 9999 SCT040 31/19 Q1017=
2009021917 - SBKP 191700Z 27005KT 9999 SCT040 31/18 Q1016=
2009021918 - SBKP 191800Z 30006KT 9999 SCT040 32/18 Q1016=
2009021919 - SBKP 191900Z 23006KT 9999 SCT040 FEW045TCU 31/18 Q1015=
2009021920 - SBKP 192000Z 25005KT 9999 FEW040 FEW045TCU 31/18 Q1014=
2009021920 - SBKP 192036Z 19006KT 9999 -TSRA FEW040 FEW045CB SCT070 31/18 Q1014=
2009021921 - SBKP 192100Z 03002KT 9999 -TSRA FEW040 FEW045CB SCT090 29/20 Q1015=
2009021922 - SBKP 192200Z 34003KT 9999 VCSH FEW040 FEW045TCU SCT090 27/20 Q1015 RETS=
2009021923 - SBKP 192300Z 16009KT 9999 FEW040 BKN070 27/21 Q1016=
2009022000 - SBKP 200000Z 12007KT 9999 FEW040 BKN100 25/22 Q1016=
2009022101 - SBKP 210100Z 11009KT CAVOK 25/22 Q1014=
2009022102 - SBKP 210200Z 11009KT CAVOK 24/23 Q1014=
2009022103 - SBKP 210300Z 11008KT 6000 NSC 24/23 Q1013=
2009022104 - SBKP 210400Z 09005KT 6000 NSC 23/23 Q1013=
2009022105 - SBKP 210500Z 10006KT CAVOK 23/23 Q1013=
2009022106 - SBKP 210600Z 11004KT CAVOK 22/22 Q1013=
2009022107 - SBKP 210700Z 12002KT 9999 4000SE NSC 22/22 Q1013=
2009022108 - SBKP 210800Z 13003KT 9999 4000SE NSC 22/22 Q1013=
2009022109 - SBKP 210900Z 10004KT 3000 BR NSC 21/21 Q1013=
2009022110 - SBKP 211000Z 09004KT 3000 BR NSC 22/22 Q1014=
2009022111 - SBKP 211100Z 04004KT 3000 BR NSC 24/22 Q1014=
2009022112 - SBKP 211200Z 05003KT 6000 NSC 27/21 Q1015=
2009022113 - SBKP 211300Z 01004KT 9000 NSC 29/20 Q1015=
2009022114 - SBKP 211400Z 30005KT 9999 FEW030 30/20 Q1014=
2009022115 - SBKP 211500Z 29005KT 9999 SCT040 31/20 Q1014=
2009022116 - SBKP 211600Z 27006KT 9999 SCT045 32/19 Q1013=
2009022117 - SBKP 211700Z 30008KT 9999 SCT045 32/17 Q1013=
2009022118 - SBKP 211800Z 27007KT 9999 FEW045 33/17 Q1012=
2009022119 - SBKP 211900Z 25005KT 9999 FEW045 32/16 Q1011=
2009022120 - SBKP 212000Z 25005KT 9999 FEW045 32/16 Q1011=
2009022121 - SBKP 212100Z 21004KT 9999 FEW045 31/18 Q1012=
2009022122 - SBKP 212200Z 18004KT CAVOK 30/20 Q1012=
2009022123 - SBKP 212300Z 12008KT CAVOK 26/20 Q1013=
2009022200 - SBKP 220000Z 10007KT CAVOK 25/20 Q1013=
2009022201 - SBKP 220100Z 16008KT CAVOK 26/20 Q1014=
2009022202 - SBKP 220200Z 13007KT CAVOK 25/20 Q1015=
2009022203 - SBKP 220300Z 10005KT CAVOK 24/20 Q1015=
2009022204 - SBKP 220400Z 12005KT CAVOK 24/21 Q1015=
2009022205 - SBKP 220500Z 11005KT CAVOK 24/21 Q1014=
2009022206 - SBKP 220600Z 13005KT CAVOK 23/22 Q1014=
2009022207 - SBKP 220700Z 18005KT CAVOK 23/21 Q1014=
2009022208 - SBKP 220800Z 15004KT CAVOK 23/21 Q1014=
2009022209 - SBKP 220900Z 12006KT 4000 BR NSC 22/21 Q1014=
2009022210 - SBKP 221000Z 14006KT 4000 BR NSC 23/22 Q1015=
2009022211 - SBKP 221100Z 10005KT 4000 BR NSC 24/22 Q1016=
2009022212 - SBKP 221200Z 12007KT 6000 NSC 26/22 Q1016=
2009022213 - SBKP 221300Z 11004KT 8000 NSC 28/22 Q1016=
2009022214 - SBKP 221400Z 35003KT CAVOK 30/20 Q1016=
2009022215 - SBKP 221500Z 27004KT 9999 FEW030 30/19 Q1016=
2009022216 - SBKP 221600Z 30005KT 9999 FEW030 31/18 Q1015=
2009022217 - SBKP 221700Z 26006KT 9999 FEW030 32/19 Q1014=
2009022218 - SBKP 221800Z 26005KT 9999 FEW035 32/20 Q1014=
2009022219 - SBKP 221900Z 18002KT 9999 FEW020 SCT045 FEW055TCU BKN080 31/20 Q1013=
2009022220 - SBKP 222000Z 22006KT 9999 VCSH SCT045 FEW055TCU BKN080 32/19 Q1012=
2009022221 - SBKP 222100Z 30017KT 9999 SCT045 FEW055TCU SCT080 26/20 Q1013=
2009022222 - SBKP 222200Z 32004KT 9999 SCT040 FEW055TCU BKN080 25/20 Q1014=
2009022223 - SBKP 222300Z 04007KT 9999 FEW040 SCT080 25/20 Q1014=
2009022300 - SBKP 230000Z 06006KT 9999 FEW040 BKN100 24/21 Q1015=
2009022301 - SBKP 230100Z 08003KT CAVOK 23/21 Q1015=
2009022302 - SBKP 230200Z 12004KT CAVOK 23/21 Q1016=
2009022303 - SBKP 230300Z 07004KT CAVOK 23/21 Q1015=
2009022304 - SBKP 230400Z 13004KT CAVOK 23/21 Q1015=
2009022305 - SBKP 230500Z 01004KT CAVOK 23/22 Q1015=
2009022306 - SBKP 230600Z 01002KT CAVOK 22/22 Q1015=
2009022307 - SBKP 230700Z 11001KT CAVOK 22/22 Q1014=
2009022308 - SBKP 230800Z 11004KT CAVOK 22/22 Q1014=
2009022309 - SBKP 230900Z 10003KT 6000 NSC 22/22 Q1014=
2009022310 - SBKP 231000Z 11003KT 6000 NSC 22/22 Q1015=
2009022311 - SBKP 231100Z 12003KT 8000 NSC 23/21 Q1015=
2009022312 - SBKP 231200Z 04003KT CAVOK 26/21 Q1016=
2009022313 - SBKP 231300Z 33005KT CAVOK 27/21 Q1016=
2009022314 - SBKP 231400Z 34004KT 9999 FEW025 28/21 Q1016=
2009022315 - SBKP 231500Z 32006KT 9999 FEW030 30/20 Q1015=
2009022316 - SBKP 231600Z 36007KT 9999 SCT035 31/21 Q1014=
2009022317 - SBKP 231700Z 33007KT 9999 SCT040 32/20 Q1013=
2009022318 - SBKP 231800Z 30007KT 9999 SCT045 32/19 Q1012=
2009022319 - SBKP 231900Z 36009KT 9999 VCSH SCT045 FEW055TCU BKN080 31/20 Q1012=
2009022320 - SBKP 232000Z 07003KT 9999 -TSRA FEW020 SCT035 FEW050CB BKN080 29/21 Q1012=
2009022321 - SBKP 232100Z 21018G28KT 9999 4000NW -TSRA FEW020 BKN040 SCT050CB BKN080 26/19 Q1012=
2009022322 - SBKP 232200Z 31014KT 8000 -TSRA FEW010 BKN045 BKN050CB 23/21 Q1014=
2009022322 - SBKP 232230Z 04012KT 8000 TSRA FEW020 BKN040 SCT050CB OVC080 22/22 Q1014=
2009022323 - SBKP 232300Z 14013KT 1900 R15/P2000 R33/1600 TSRA BR SCT010 OVC025 /////CB 22/22 Q1015=
2009022400 - SBKP 240000Z 14010KT 9999 -TSRA FEW010 SCT035 FEW045CB OVC100 22/22 Q1015 RERA=
2009022400 - SBKP 240030Z 11007KT 5000 RA BR FEW010 SCT035 OVC100 21/21 Q1015 RETS=
2009022401 - SBKP 240100Z 11008KT 9999 RA FEW010 SCT035 OVC100 21/21 Q1015 RETS=
2009022402 - SBKP 240200Z 11006KT 9999 -RA FEW010 SCT040 OVC100 22/22 Q1015 RERA=
2009022403 - SBKP 240300Z 16008KT 9000 -RA BKN040 OVC100 22/22 Q1015=
2009022404 - SBKP 240400Z 15005KT 9000 BKN040 OVC100 22/22 Q1015=
2009022405 - SBKP 240500Z 28004KT 9000 BKN040 OVC100 22/22 Q1015=
2009022406 - SBKP 240600Z 00000KT 9999 BKN040 OVC100 22/22 Q1013=
2009022407 - SBKP 240700Z 16002KT 9999 SCT040 21/21 Q1013=
2009022408 - SBKP 240800Z 13003KT 9000 BKN040 21/21 Q1013=
2009022409 - SBKP 240900Z 16005KT 9000 BKN040 21/21 Q1013=
2009022410 - SBKP 241000Z 16007KT 9999 BKN040 22/22 Q1014=
2009022411 - SBKP 241100Z 12007KT 9999 FEW040 BKN100 22/22 Q1015=
2009022412 - SBKP 241200Z 11003KT 9999 FEW040 SCT100 23/23 Q1016=
2009022413 - SBKP 241300Z 12006KT 9999 FEW020 SCT100 24/23 Q1016=
2009022414 - SBKP 241400Z 14008KT 9999 FEW020 SCT100 25/23 Q1016=
2009022415 - SBKP 241500Z 13005KT 9999 FEW020 SCT100 26/23 Q1016=
2009022416 - SBKP 241600Z 15004KT 9999 FEW030 27/21 Q1015=
2009022417 - SBKP 241700Z 20004KT 9999 FEW030 28/20 Q1013=
2009022418 - SBKP 241800Z 20007KT 9999 FEW030 28/21 Q1012=
2009022419 - SBKP 241900Z 20006KT 9999 FEW030 FEW045TCU BKN100 28/21 Q1012=
2009022419 - SBKP 241940Z 19018KT 9999 4500E -TSRA BKN040 FEW050CB BKN090 26/22 Q1012=
2009022420 - SBKP 242000Z 12015KT 9000 4000SE -TSRA FEW010 BKN030 FEW045CB BKN090 23/22 Q1012=
2009022421 - SBKP 242100Z 11010KT 9999 FEW040 FEW050TCU BKN100 23/22 Q1012 RETS=
2009022422 - SBKP 242200Z 01007KT 9999 FEW013 SCT020 BKN100 22/21 Q1014=
2009022423 - SBKP 242300Z 36001KT 9999 FEW035 BKN100 22/22 Q1015=
2009022500 - SBKP 250000Z 14010KT CAVOK 23/21 Q1015=
2009022501 - SBKP 250100Z 11007KT CAVOK 22/20 Q1015=
2009022502 - SBKP 250200Z 12006KT CAVOK 22/20 Q1015=
2009022503 - SBKP 250300Z 18006KT CAVOK 22/20 Q1015=
2009022504 - SBKP 250400Z 16004KT CAVOK 22/20 Q1015=
2009022505 - SBKP 250500Z 15004KT 9999 -RA FEW040 OVC090 21/21 Q1015=
2009022506 - SBKP 250600Z 14005KT 9999 SCT030 OVC090 21/21 Q1015=
2009022507 - SBKP 250700Z 16007KT 9999 SCT030 OVC100 21/21 Q1015=
2009022508 - SBKP 250800Z 16009KT 9999 BKN030 21/21 Q1014=
2009022509 - SBKP 250900Z 15007KT 8000 BKN030 21/21 Q1015=
2009022510 - SBKP 251000Z 14007KT 8000 BKN030 21/21 Q1015=
2009022511 - SBKP 251100Z 11008KT 9999 FEW030 SCT100 22/21 Q1016=
2009022512 - SBKP 251200Z 09006KT CAVOK 23/21 Q1017=
2009022513 - SBKP 251300Z 10004KT CAVOK 23/21 Q1018=
2009022514 - SBKP 251400Z 08004KT 9999 FEW020 SCT100 25/21 Q1018=
2009022515 - SBKP 251500Z 06004KT 9999 SCT025 BKN100 25/21 Q1017=
2009022516 - SBKP 251600Z 02001KT 9999 BKN040 27/20 Q1016=
2009022517 - SBKP 251700Z 01003KT 9999 SCT035 FEW040TCU 28/20 Q1016=
2009022517 - SBKP 251737Z 33018G28KT 3000 TSRA BKN035 SCT040CB 20/19 Q1017=
2009022518 - SBKP 251800Z 30005KT 3000 -TSRA FEW002 BKN030 SCT040CB 20/20Q1016 RERA=
2009022519 - SBKP 251900Z 17003KT 4000 -TSRA BR SCT002 BKN030 FEW040CB 20/20 Q1015=
2009022520 - SBKP 252000Z 14007KT 9999 4000W -TSRA FEW012 SCT030 FEW040CB 20/20 Q1015=
2009022521 - SBKP 252100Z 15008KT 9999 VCTS SCT030 SCT040CB 21/21 Q1015 RETS=
2009022522 - SBKP 252200Z 13007KT 9999 VCTS FEW030 SCT040CB 21/21 Q1015=
2009022523 - SBKP 252300Z 10009KT 9999 FEW030 20/20 Q1015=
2009022600 - SBKP 260000Z 11010KT CAVOK 20/20 Q1016=
2009022601 - SBKP 260100Z 11010KT CAVOK 20/20 Q1017=
2009022602 - SBKP 260200Z 09005KT CAVOK 20/20 Q1017=
2009022603 - SBKP 260300Z 16004KT CAVOK 20/20 Q1017=
2009022604 - SBKP 260400Z 17007KT CAVOK 20/20 Q1016=
2009022605 - SBKP 260500Z 16006KT CAVOK 20/20 Q1015=
2009022606 - SBKP 260600Z 12005KT CAVOK 20/20 Q1015=
2009022607 - SBKP 260700Z 16005KT CAVOK 20/20 Q1014=
2009022608 - SBKP 260800Z 14004KT CAVOK 20/20 Q1015=
2009022609 - SBKP 260900Z 14005KT 9000 NSC 20/20 Q1015=
2009022610 - SBKP 261000Z 15005KT 9000 FEW040 BKN080 20/20 Q1016=
2009022611 - SBKP 261100Z 11004KT CAVOK 22/22 Q1016=
2009022612 - SBKP 261200Z 00000KT CAVOK 24/21 Q1017=
2009022613 - SBKP 261300Z 30003KT 9999 FEW020 SCT100 24/22 Q1018=
2009022614 - SBKP 261400Z 34002KT 9999 FEW020 SCT100 25/22 Q1018=
2009022615 - SBKP 261500Z 30005KT 9999 FEW025 26/22 Q1017=
2009022616 - SBKP 261600Z 30005KT 9999 SCT025 FEW040TCU 27/21 Q1016=
2009022617 - SBKP 261700Z 29009KT 9999 SCT025 FEW040TCU 28/22 Q1015=
2009022618 - SBKP 261800Z 28013KT 9999 -RA FEW030 FEW040TCU 27/21 Q1015=
2009022619 - SBKP 261900Z 25006KT 9999 VCTS FEW030 SCT040CB 27/20 Q1014=
2009022620 - SBKP 262000Z 23003KT 9999 VCTS FEW030 FEW040CB 27/19 Q1014=
2009022621 - SBKP 262100Z 22007KT 9999 VCTS FEW030 FEW040CB 27/18 Q1014=
2009022622 - SBKP 262200Z 20005KT 9999 FEW030 25/19 Q1015=
2009022623 - SBKP 262300Z 12008KT 9999 FEW040 24/21 Q1015=
2009022700 - SBKP 270000Z 11005KT 9999 FEW040 23/22 Q1016=
2009022701 - SBKP 270100Z 10005KT CAVOK 22/22 Q1016=
2009022702 - SBKP 270200Z 10005KT CAVOK 22/22 Q1016=
2009022703 - SBKP 270300Z 11004KT CAVOK 22/22 Q1016=
2009022704 - SBKP 270400Z 11004KT CAVOK 22/22 Q1016=
2009022705 - SBKP 270500Z 11006KT CAVOK 21/21 Q1015=
2009022706 - SBKP 270600Z 11004KT CAVOK 21/21 Q1015=
2009022707 - SBKP 270700Z 11004KT CAVOK 21/21 Q1014=
2009022708 - SBKP 270800Z 08003KT CAVOK 21/21 Q1015=
2009022709 - SBKP 270900Z 11004KT CAVOK 21/21 Q1015=
2009022710 - SBKP 271000Z 30004KT CAVOK 21/21 Q1017=
2009022711 - SBKP 271100Z 30004KT 9999 FEW020 SCT100 22/22 Q1017=
2009022712 - SBKP 271200Z 02005KT 9999 FEW020 24/22 Q1017=
2009022713 - SBKP 271300Z 34006KT 9999 FEW020 26/22 Q1018=
2009022714 - SBKP 271400Z 35008KT 9999 FEW030 27/21 Q1018=
2009022715 - SBKP 271500Z 34010KT 9999 SCT035 28/21 Q1017=
2009022716 - SBKP 271600Z 34010KT 9999 SCT035 SCT100 28/22 Q1017=
2009022717 - SBKP 271700Z 33012KT 9999 SCT035 29/21 Q1016=
2009022718 - SBKP 271800Z 34009KT 9999 BKN037 28/21 Q1015=
2009022719 - SBKP 271900Z 27007KT 9999 BKN040 FEW045TCU 29/21 Q1014=
2009022720 - SBKP 272000Z 25007KT 9999 2000N -RA SCT040 FEW045TCU 29/21 Q1014=
2009022721 - SBKP 272100Z 30003KT 9999 4000NE -RA SCT040 FEW045TCU 27/21 Q1014=
2009022722 - SBKP 272200Z 10002KT 9999 FEW040 BKN090 25/22 Q1014=
2009022723 - SBKP 272300Z 20002KT 9999 FEW040 SCT090 26/20 Q1015=
2009022800 - SBKP 280000Z 11003KT CAVOK 25/22 Q1016=
2009022801 - SBKP 280100Z 11006KT CAVOK 23/23 Q1016=
2009022802 - SBKP 280200Z 11005KT CAVOK 23/23 Q1016=
2009022803 - SBKP 280300Z 11006KT CAVOK 22/22 Q1016=
2009022804 - SBKP 280400Z 14004KT CAVOK 22/22 Q1016=
2009022805 - SBKP 280500Z 11006KT CAVOK 22/22 Q1016=
2009022806 - SBKP 280600Z 10004KT CAVOK 21/21 Q1015=
2009022807 - SBKP 280700Z 11006KT CAVOK 21/21 Q1015=
2009022808 - SBKP 280800Z 11006KT CAVOK 21/21 Q1015=
2009022809 - SBKP 280900Z 14006KT CAVOK 21/21 Q1016=
2009022810 - SBKP 281000Z 11004KT CAVOK 22/22 Q1016=
2009022811 - SBKP 281100Z 05002KT 8000 NSC 25/23 Q1017=
2009022812 - SBKP 281200Z 04003KT 9999 FEW040 26/23 Q1017=
2009022813 - SBKP 281300Z 04002KT 9999 FEW040 27/21 Q1018=
2009022814 - SBKP 281400Z 01003KT 9999 FEW040 29/21 Q1017=
2009022815 - SBKP 281500Z 33001KT 9999 FEW040 30/20 Q1017=
2009022816 - SBKP 281600Z 34003KT 9999 FEW045 31/21 Q1016=
2009022817 - SBKP 281700Z 35002KT 9999 SCT045 31/20 Q1015=
2009022818 - SBKP 281800Z 28006KT 9999 FEW045 32/19 Q1014=
2009022819 - SBKP 281900Z 24003KT 9999 SCT045 33/19 Q1014=
2009022820 - SBKP 282000Z 29006KT 9999 SCT045 32/19 Q1014=
2009022821 - SBKP 282100Z 26006KT 9999 FEW045 31/20 Q1014=
2009022822 - SBKP 282200Z 26006KT CAVOK 29/21 Q1014=
2009022823 - SBKP 282300Z 16008KT CAVOK 28/22 Q1015=
2009030100 - SBKP 010000Z 16010KT CAVOK 26/23 Q1016=
2009030101 - SBKP 010100Z 15011KT CAVOK 25/23 Q1016=
2009030102 - SBKP 010200Z 15012KT 9000 NSC 24/24 Q1017=
2009030103 - SBKP 010300Z 11011KT 8000 NSC 24/24 Q1016=
2009030104 - SBKP 010400Z 14012KT 9000 NSC 24/24 Q1016=
2009030105 - SBKP 010500Z 14013KT CAVOK 23/23 Q1015=
2009030106 - SBKP 010600Z 14012KT CAVOK 23/23 Q1015=
2009030107 - SBKP 010700Z 11008KT CAVOK 23/23 Q1015=
2009030108 - SBKP 010800Z 11006KT CAVOK 22/22 Q1016=
2009030109 - SBKP 010900Z 14006KT 5000 BR NSC 22/22 Q1016=
2009030110 - SBKP 011000Z 14006KT 7000 NSC 23/23 Q1017=
2009030111 - SBKP 011100Z 11004KT 7000 NSC 25/24 Q1018=
2009030112 - SBKP 011200Z 04006KT CAVOK 27/23 Q1018=
2009030113 - SBKP 011300Z 01009KT CAVOK 29/21 Q1019=
2009030114 - SBKP 011400Z 01008KT CAVOK 31/20 Q1019=
2009030115 - SBKP 011500Z 34007KT 9999 FEW040 31/21 Q1018=
2009030116 - SBKP 011600Z 35005KT 9999 SCT045 32/21 Q1018=
2009030117 - SBKP 011700Z 32004KT 9999 SCT045 SCT080 32/20 Q1017=
2009030118 - SBKP 011800Z 30006KT 9999 BKN045 33/19 Q1016=
2009030119 - SBKP 011900Z 31002KT 9999 SCT045 33/19 Q1015=
2009030120 - SBKP 012000Z 36004KT 9999 FEW045 33/18 Q1015=
2009030121 - SBKP 012100Z 35005KT 9999 FEW040 32/18 Q1014=
2009030122 - SBKP 012200Z 34003KT 9999 FEW040 30/18 Q1015=
2009030123 - SBKP 012300Z 29003KT 9999 VCTS FEW040CB 30/17 Q1016=
2009030200 - SBKP 020000Z 20002KT 9999 VCTS FEW040CB 27/19 Q1017=
2009030201 - SBKP 020100Z 15005KT 9999 FEW040 27/22 Q1017=
2009030202 - SBKP 020200Z 11009KT 8000 FEW040 25/23 Q1017=
2009030203 - SBKP 020300Z 14010KT 8000 NSC 25/24 Q1017=
2009030204 - SBKP 020400Z 14008KT 8000 NSC 24/24 Q1016=
2009030205 - SBKP 020500Z 11006KT 7000 NSC 24/24 Q1016=
2009030206 - SBKP 020600Z 10004KT CAVOK 24/24 Q1016=
2009030207 - SBKP 020700Z 11004KT CAVOK 23/23 Q1016=
2009030208 - SBKP 020800Z 11006KT CAVOK 23/23 Q1016=
2009030209 - SBKP 020900Z 11006KT 6000 NSC 22/22 Q1016=
2009030210 - SBKP 021000Z 11006KT 7000 NSC 23/23 Q1017=
2009030211 - SBKP 021100Z 08003KT 8000 NSC 25/23 Q1018=
2009030212 - SBKP 021200Z 01007KT CAVOK 28/21 Q1018=
2009030213 - SBKP 021300Z 02007KT CAVOK 29/20 Q1019=
2009030214 - SBKP 021400Z 35007KT CAVOK 31/19 Q1018=
2009030215 - SBKP 021500Z 30006KT 9999 FEW030 31/18 Q1018=
2009030216 - SBKP 021600Z 34006KT 9999 SCT030 32/18 Q1018=
2009030217 - SBKP 021700Z 31007KT 9999 SCT040 33/19 Q1017=
2009030218 - SBKP 021800Z 26007KT 9999 SCT040 33/19 Q1016=
2009030219 - SBKP 021900Z 27008KT 9999 SCT040 33/19 Q1015=
2009030220 - SBKP 022000Z 28005KT 9999 FEW040 33/18 Q1015=
2009030221 - SBKP 022100Z 24007KT 9999 FEW040 32/19 Q1015=
2009030222 - SBKP 022200Z 23004KT 9999 FEW040 30/19 Q1016=
2009030223 - SBKP 022300Z 21006KT 9999 FEW040 30/19 Q1016=
2009030300 - SBKP 030000Z 18005KT 9999 VCTS FEW040CB 29/19 Q1017=
2009030301 - SBKP 030100Z 17003KT 9999 FEW030 28/20 Q1017=
2009030302 - SBKP 030200Z 16004KT 9999 FEW030 28/19 Q1017=
2009030303 - SBKP 030300Z 20010KT CAVOK 27/19 Q1017=
2009030304 - SBKP 030400Z 13008KT CAVOK 24/20 Q1017=
2009030305 - SBKP 030500Z 13008KT CAVOK 24/20 Q1016=
2009030306 - SBKP 030600Z 11006KT CAVOK 23/21 Q1015=
2009030307 - SBKP 030700Z 08006KT CAVOK 23/21 Q1015=
2009030308 - SBKP 030800Z 01002KT CAVOK 23/21 Q1015=
2009030309 - SBKP 030900Z 00000KT CAVOK 22/22 Q1015=
2009030310 - SBKP 031000Z 14004KT CAVOK 22/22 Q1016=
2009030311 - SBKP 031100Z 16003KT CAVOK 24/22 Q1017=
2009030312 - SBKP 031200Z 21003KT CAVOK 26/21 Q1018=
2009030313 - SBKP 031300Z 25003KT CAVOK 29/21 Q1018=
2009030314 - SBKP 031400Z 27005KT 9999 FEW030 30/21 Q1018=
2009030315 - SBKP 031500Z 29006KT 9999 FEW030 31/20 Q1017=
2009030316 - SBKP 031600Z 24006KT 9999 FEW030 33/18 Q1016=
2009030317 - SBKP 031700Z 28008KT 9999 FEW040 33/16 Q1016=
2009030318 - SBKP 031800Z 29007KT 9999 FEW040 33/18 Q1015=
2009030319 - SBKP 031900Z 25008KT 9999 SCT040 BKN300 33/17 Q1015=
2009030320 - SBKP 032000Z 27005KT 9999 FEW040 SCT100 32/17 Q1015=
2009030321 - SBKP 032100Z 25005KT 9999 FEW040 SCT090 32/19 Q1015=
2009030322 - SBKP 032200Z 13006KT 9999 FEW040 SCT090 28/22 Q1015=
2009030323 - SBKP 032300Z 13007KT 9999 FEW040 SCT100 27/22 Q1015=
2009030400 - SBKP 040000Z 14008KT CAVOK 26/22 Q1016=
2009030401 - SBKP 040100Z 14009KT CAVOK 25/23 Q1016=
2009030402 - SBKP 040200Z 13011KT CAVOK 25/23 Q1016=
2009030403 - SBKP 040300Z 13011KT CAVOK 24/23 Q1016=
2009030404 - SBKP 040400Z 14011KT CAVOK 24/23 Q1015=
2009030405 - SBKP 040500Z 13010KT CAVOK 23/22 Q1015=
2009030406 - SBKP 040600Z 13008KT CAVOK 23/22 Q1014=
2009030407 - SBKP 040700Z 11008KT CAVOK 23/22 Q1014=
2009030408 - SBKP 040800Z 14006KT CAVOK 23/22 Q1015=
2009030409 - SBKP 040900Z 14006KT 5000 BR NSC 22/22 Q1015=
2009030410 - SBKP 041000Z 14006KT 5000 BR NSC 23/23 Q1015=
2009030411 - SBKP 041100Z 13006KT 6000 NSC 25/22 Q1016=
2009030412 - SBKP 041200Z 13007KT 8000 NSC 26/22 Q1016=
2009030413 - SBKP 041300Z 15007KT 9999 FEW030 28/22 Q1016=
2009030414 - SBKP 041400Z 19006KT 9999 SCT030 29/21 Q1016=
2009030415 - SBKP 041500Z 23004KT 9999 SCT030 30/21 Q1015=
2009030416 - SBKP 041600Z 17002KT 9999 SCT035 31/21 Q1015=
2009030417 - SBKP 041700Z 20004KT 9999 BKN040 31/21 Q1014=
2009030418 - SBKP 041800Z 28007KT 9999 SCT040 33/20 Q1013=
2009030419 - SBKP 041900Z 28008KT 9999 SCT040 33/20 Q1013=
2009030420 - SBKP 042000Z 17010KT 9999 SCT040 FEW050TCU 30/22 Q1013=
2009030421 - SBKP 042100Z 19009KT 9999 FEW040 29/21 Q1014=
2009030422 - SBKP 042200Z 15009KT 9999 FEW040 27/21 Q1014=
2009030423 - SBKP 042300Z 13009KT 9999 FEW040 SCT070 26/21 Q1014=
2009030500 - SBKP 050000Z 13011KT CAVOK 26/22 Q1015=
2009030501 - SBKP 050100Z 13008KT CAVOK 25/23 Q1016=
2009030502 - SBKP 050200Z 13010KT CAVOK 25/23 Q1015=
2009030503 - SBKP 050300Z 10007KT CAVOK 24/23 Q1015=
2009030504 - SBKP 050400Z 09006KT CAVOK 23/23 Q1014=
2009030505 - SBKP 050500Z 09004KT CAVOK 24/23 Q1014=
2009030506 - SBKP 050600Z 15004KT CAVOK 23/23 Q1014=
2009030507 - SBKP 050700Z 09002KT CAVOK 22/22 Q1013=
2009030508 - SBKP 050800Z 12002KT 8000 NSC 23/23 Q1014=
2009030509 - SBKP 050900Z 09001KT 5000 BR NSC 22/22 Q1014=
2009030510 - SBKP 051000Z 09003KT 8000 NSC 22/22 Q1014=
2009030511 - SBKP 051100Z 11003KT 5000 BR NSC 24/24 Q1015=
2009030512 - SBKP 051200Z 03005KT 6000 NSC 27/23 Q1015=
2009030513 - SBKP 051300Z 01005KT 8000 NSC 28/22 Q1015=
2009030514 - SBKP 051400Z 32004KT 9999 FEW020 29/22 Q1015=
2009030515 - SBKP 051500Z 29005KT 9999 FEW025 31/20 Q1014=
2009030516 - SBKP 051600Z 30006KT 9999 SCT030 32/21 Q1013=
2009030517 - SBKP 051700Z 25006KT 9999 SCT035 33/20 Q1013=
2009030518 - SBKP 051800Z 29008KT 9999 SCT035 33/20 Q1012=
2009030519 - SBKP 051900Z 31006KT 9999 FEW040 33/19 Q1011=
2009030520 - SBKP 052000Z 27007KT 9999 FEW040 33/19 Q1012=
2009030521 - SBKP 052100Z 27006KT CAVOK 31/19 Q1012=
2009030522 - SBKP 052200Z 25004KT CAVOK 31/20 Q1012=
2009030523 - SBKP 052300Z 28004KT CAVOK 30/20 Q1013=
2009030600 - SBKP 060000Z 33002KT CAVOK 29/21 Q1014=
2009030601 - SBKP 060100Z 11002KT CAVOK 27/21 Q1014=
2009030602 - SBKP 060200Z 11005KT CAVOK 26/20 Q1013=
2009030603 - SBKP 060300Z 11005KT CAVOK 24/21 Q1013=
2009030604 - SBKP 060400Z 12005KT CAVOK 24/21 Q1012=
2009030605 - SBKP 060500Z 10006KT CAVOK 23/21 Q1012=
2009030606 - SBKP 060600Z 07003KT CAVOK 23/21 Q1012=
2009030607 - SBKP 060700Z 08003KT CAVOK 22/21 Q1012=
2009030608 - SBKP 060800Z 09006KT CAVOK 21/21 Q1013=
2009030609 - SBKP 060900Z 10006KT CAVOK 21/21 Q1013=
2009030610 - SBKP 061000Z 09005KT CAVOK 21/21 Q1014=
2009030611 - SBKP 061100Z 12003KT 8000 NSC 25/22 Q1015=
2009030612 - SBKP 061200Z 35003KT 8000 NSC 27/22 Q1015=
2009030613 - SBKP 061300Z 32003KT CAVOK 29/20 Q1016=
2009030614 - SBKP 061400Z 26004KT 9999 FEW020 31/18 Q1015=
2009030615 - SBKP 061500Z 25006KT 9999 FEW025 32/17 Q1015=
2009030616 - SBKP 061600Z 26005KT 9999 FEW030 33/18 Q1014=
2009030617 - SBKP 061700Z 27005KT 9999 FEW035 33/19 Q1013=
2009030618 - SBKP 061800Z 27008KT 9999 FEW035 33/16 Q1012=
2009030619 - SBKP 061900Z 28006KT 9999 FEW040 33/17 Q1012=
2009030620 - SBKP 062000Z 31006KT 9999 FEW040 SCT070 34/17 Q1011=
2009030621 - SBKP 062100Z 17012KT 9999 SCT040 SCT070 30/20 Q1012=
2009030622 - SBKP 062200Z 14010KT CAVOK 27/19 Q1013=
2009030623 - SBKP 062300Z 13011KT CAVOK 25/21 Q1013=
2009030700 - SBKP 070000Z 14012KT CAVOK 25/22 Q1014=
2009030701 - SBKP 070100Z 14016KT CAVOK 25/22 Q1014=
2009030702 - SBKP 070200Z 14014KT CAVOK 24/23 Q1015=
2009030703 - SBKP 070300Z 11011KT CAVOK 24/22 Q1014=
2009030704 - SBKP 070400Z 11012KT CAVOK 24/22 Q1014=
2009030705 - SBKP 070500Z 12009KT CAVOK 24/22 Q1014=
2009030706 - SBKP 070600Z 14008KT CAVOK 23/22 Q1013=
2009030707 - SBKP 070700Z 12007KT CAVOK 23/22 Q1013=
2009030708 - SBKP 070800Z 12007KT CAVOK 23/22 Q1013=
2009030709 - SBKP 070900Z 14009KT CAVOK 23/22 Q1014=
2009030710 - SBKP 071000Z 11009KT CAVOK 23/22 Q1014=
2009030711 - SBKP 071100Z 11011KT CAVOK 24/22 Q1015=
2009030712 - SBKP 071200Z 11010KT CAVOK 26/22 Q1016=
2009030713 - SBKP 071300Z 12009KT 9999 FEW020 28/22 Q1016=
2009030714 - SBKP 071400Z 06003KT 9999 SCT030 30/21 Q1016=
2009030715 - SBKP 071500Z 10004KT 9999 BKN040 30/22 Q1016=
2009030716 - SBKP 071600Z 13007KT 9999 BKN042 30/21 Q1015=
2009030717 - SBKP 071700Z 24005KT 9999 BKN042 32/21 Q1014=
2009030718 - SBKP 071800Z 20011KT 9999 SCT042 FEW045TCU 32/22 Q1013=
2009030719 - SBKP 071900Z 21010KT 9999 FEW045 31/22 Q1013=
2009030720 - SBKP 072000Z 18010KT 9999 SCT045 30/22 Q1013=
2009030721 - SBKP 072100Z 14016KT 8000 FEW045TCU 27/21 Q1014=
2009030722 - SBKP 072200Z 14016KT 9000 TS FEW045CB 25/21 Q1015=
2009030723 - SBKP 072300Z 11011KT CAVOK 24/20 Q1016 RETS=
2009030800 - SBKP 080000Z 11014KT CAVOK 23/20 Q1016=
2009030801 - SBKP 080100Z 11011KT CAVOK 22/20 Q1016=
2009030802 - SBKP 080200Z 13010KT CAVOK 22/20 Q1017=
2009030803 - SBKP 080300Z 13011KT CAVOK 22/20 Q1016=
2009030804 - SBKP 080400Z 12005KT CAVOK 22/20 Q1017=
2009030805 - SBKP 080500Z 14008KT CAVOK 21/20 Q1016=
2009030806 - SBKP 080600Z 12007KT CAVOK 21/21 Q1015=
2009030807 - SBKP 080700Z 15006KT CAVOK 20/20 Q1015=
2009030808 - SBKP 080800Z 13006KT CAVOK 20/20 Q1015=
2009030809 - SBKP 080900Z 12006KT CAVOK 20/20 Q1016=
2009030810 - SBKP 081000Z 14007KT CAVOK 21/21 Q1017=
2009030811 - SBKP 081100Z 12006KT CAVOK 23/21 Q1017=
2009030812 - SBKP 081200Z 08004KT CAVOK 25/20 Q1017=
2009030813 - SBKP 081300Z 01004KT CAVOK 27/19 Q1017=
2009030814 - SBKP 081400Z 03007KT CAVOK 28/19 Q1016=
2009030815 - SBKP 081500Z 03007KT 9999 FEW030 30/19 Q1015=
2009030816 - SBKP 081600Z 01009KT 9999 FEW030 31/19 Q1014=
2009030817 - SBKP 081700Z 36007KT 9999 SCT030 31/19 Q1014=
2009030818 - SBKP 081800Z 06005KT 9999 SCT045 31/19 Q1013=
2009030819 - SBKP 081900Z 04006KT 9999 SCT045 32/18 Q1012=
2009030820 - SBKP 082000Z 31006KT 9999 SCT045 31/18 Q1011=
2009030821 - SBKP 082100Z 01004KT 9999 FEW040 30/19 Q1011=
2009030822 - SBKP 082235Z 14004KT 9999 TS FEW040CB 29/20 Q1012=
2009030823 - SBKP 082300Z 11006KT 9999 TS FEW040CB 28/20 Q1012=
2009030900 - SBKP 090000Z 10004KT 9999 TS FEW040CB 27/20 Q1014=
2009030901 - SBKP 090100Z 16004KT CAVOK 27/21 Q1014 RETS=
2009030902 - SBKP 090200Z 11004KT 9999 TS FEW040CB 25/21 Q1014=
2009030903 - SBKP 090300Z 21006KT 9999 TS FEW030 FEW040CB BKN070 25/22 Q1014=
2009030904 - SBKP 090400Z 24013KT 9999 -TSRA FEW040CB SCT070 OVC100 23/21 Q1015=
2009030905 - SBKP 090500Z 21016KT 9999 TS FEW020 FEW040CB OVC100 21/20 Q1014=
2009030906 - SBKP 090600Z 12007KT 9999 FEW020 OVC100 21/20 Q1013 RETS=
2009030907 - SBKP 090700Z 15004KT CAVOK 21/20 Q1015=
2009030908 - SBKP 090800Z 14004KT 9999 -RA NSC 21/21 Q1014-=
2009030909 - SBKP 090900Z 10002KT 9999 SCT040 OVC100 21/21 Q1015=
2009030910 - SBKP 091000Z 13005KT 9999 FEW040 BKN100 21/21 Q1014=
2009030911 - SBKP 091100Z 09007KT CAVOK 23/21 Q1014=
2009030912 - SBKP 091200Z 06005KT 9999 FEW040 BKN100 25/21 Q1015=
2009030913 - SBKP 091300Z 01007KT 9999 FEW045 BKN100 27/21 Q1015=
2009030914 - SBKP 091400Z 02009KT 9999 FEW035 BKN100 28/20 Q1015=
2009030915 - SBKP 091500Z 02007KT 9999 FEW035 BKN100 28/21 Q1015=
2009030916 - SBKP 091600Z 36004KT 9999 FEW035 BKN100 28/22 Q1015=
2009030917 - SBKP 091700Z 31005KT 9999 FEW035 SCT100 29/21 Q1014=
2009030918 - SBKP 091800Z 32005KT 9999 FEW035 SCT100 29/21 Q1013=
2009030919 - SBKP 091900Z 26008KT 9999 FEW035 SCT100 29/20 Q1012=
2009030920 - SBKP 092000Z 24006KT 9999 FEW045 BKN100 28/20 Q1012=
2009030921 - SBKP 092100Z 03015KT 9999 BKN035 FEW045TCU BKN100 25/19 Q1014=
2009030922 - SBKP 092200Z 05009KT 9999 BKN035 FEW045TCU BKN100 24/20 Q1014=
2009030923 - SBKP 092300Z 04008KT 9999 BKN045 BKN100 23/20 Q1015=
2009030923 - SBKP 092325Z 36011KT 9999 TS BKN045 FEW050CB BKN100 22/20 Q1016=
2009031000 - SBKP 100000Z 35009KT 9999 TS BKN040 FEW050CB BKN100 22/21 Q1017=
2009031001 - SBKP 100100Z 01011KT 9999 -TSRA FEW008 BKN040 FEW050CB OVC100 21/21 Q1018=
2009031002 - SBKP 100200Z 01008KT 9999 SCT008 BKN045 OVC100 21/21 Q1017 RETS=
2009031003 - SBKP 100300Z 04008KT 9999 SCT009 SCT040 OVC100 21/21 Q1016=
2009031004 - SBKP 100400Z 13004KT 9999 FEW010 BKN100 21/21 Q1016=
2009031005 - SBKP 100500Z 18004KT 9999 FEW040 BKN100 21/21 Q1015=
2009031006 - SBKP 100600Z 17003KT CAVOK 21/21 Q1014=
2009031007 - SBKP 100700Z 10002KT 9999 FEW010 BKN100 21/21 Q1015=
2009031008 - SBKP 100800Z 15003KT CAVOK 21/21 Q1015=
2009031009 - SBKP 100900Z 14004KT CAVOK 20/20 Q1015=
2009031010 - SBKP 101000Z 17004KT CAVOK 21/21 Q1016=
2009031011 - SBKP 101100Z 14003KT CAVOK 22/21 Q1017=
2009031012 - SBKP 101200Z 16002KT CAVOK 24/21 Q1017=
2009031013 - SBKP 101300Z 21004KT CAVOK 25/21 Q1017=
2009031014 - SBKP 101400Z 07003KT 9999 FEW035 SCT100 26/19 Q1017=
2009031015 - SBKP 101500Z 18003KT 9999 FEW035 SCT100 27/19 Q1016=
2009031016 - SBKP 101600Z 18003KT 9999 FEW035 SCT100 29/19 Q1015=
2009031017 - SBKP 101700Z 24004KT 9999 FEW040 SCT100 29/18 Q1014=
2009031018 - SBKP 101800Z 17004KT 9999 FEW048 SCT100 29/18 Q1013=
2009031019 - SBKP 101900Z 19007KT 9999 FEW048 SCT100 30/18 Q1013=
2009031020 - SBKP 102000Z 22008KT 9999 FEW045 SCT100 29/18 Q1012=
2009031021 - SBKP 102100Z 23006KT 9999 FEW045 FEW050TCU SCT100 28/19 Q1013=
2009031022 - SBKP 102200Z 20005KT CAVOK 27/20 Q1013=
2009031023 - SBKP 102300Z 11009KT 9999 SCT045 SCT100 25/21 Q1014=
2009031100 - SBKP 110000Z 10010KT 9999 BKN045 OVC100 24/21 Q1015=
2009031101 - SBKP 110100Z 11012KT 9999 BKN045 OVC100 24/21 Q1015=
2009031102 - SBKP 110200Z 10011KT 9999 BKN045 BKN100 24/21 Q1016=
2009031103 - SBKP 110300Z 11008KT 9999 BKN040 BKN090 23/21 Q1015=
2009031104 - SBKP 110400Z 10009KT 9999 BKN040 BKN090 22/21 Q1015=
2009031105 - SBKP 110500Z 11005KT 9999 BKN040 BKN090 22/20 Q1014=
2009031106 - SBKP 110600Z 12004KT 9999 BKN040 BKN080 22/21 Q1014=
2009031107 - SBKP 110700Z 04002KT 9999 BKN040 BKN070 22/21 Q1014=
2009031108 - SBKP 110800Z 36004KT 9999 BKN040 BKN070 OVC100 22/22 Q1015=
2009031109 - SBKP 110900Z 02005KT 8000 -RA SCT040 BKN070 OVC100 22/22 Q1015=
2009031110 - SBKP 111000Z 32001KT 9999 -RA SCT030 SCT070 OVC100 22/22 Q1016=
2009031111 - SBKP 111100Z 28004KT 7000 -RA FEW010 SCT025 OVC100 21/21 Q1017=
2009031112 - SBKP 111200Z 25003KT 5000 2000W -RA BR FEW010 SCT020 OVC100 22/22 Q1017=
2009031113 - SBKP 111300Z 25005KT 5000 -RA BR SCT006 SCT014 OVC100 22/22 Q1018=
2009031113 - SBKP 111330Z 25005KT 3000 -RA BR SCT004 BKN012 OVC100 21/21 Q1018=
2009031114 - SBKP 111400Z 22003KT 4000 -RA BR SCT004 SCT012 OVC100 21/21 Q1018=
2009031115 - SBKP 111500Z 11002KT 9000 4000NW -RA FEW005 SCT015 OVC100 22/22 Q1017=
2009031116 - SBKP 111600Z 11003KT 8000 -RA FEW010 SCT020 OVC100 23/23 Q1016=
2009031117 - SBKP 111700Z 12002KT 9999 -RA SCT020 OVC100 24/23 Q1015=
2009031118 - SBKP 111800Z 09004KT 9999 FEW025 BKN100 25/23 Q1014=
2009031119 - SBKP 111900Z 09005KT CAVOK 26/22 Q1013=
2009031120 - SBKP 112000Z 07006KT 9999 FEW025 SCT100 26/22 Q1013=
2009031121 - SBKP 112100Z 07003KT 9999 FEW030 26/22 Q1013=
2009031122 - SBKP 112200Z 12005KT 9999 FEW030 SCT100 25/22 Q1013=
2009031123 - SBKP 112300Z 11006KT 9999 VCTS FEW030CB BKN100 24/23 Q1013=
2009031123 - SBKP 112352Z 12006KT 9999 -TSRA FEW025 FEW030CB BKN100 23/23 Q1014=
2009031200 - SBKP 120000Z 12006KT 9999 -TSRA FEW025 FEW030CB BKN080 23/23 Q1014=
2009031200 - SBKP 120030Z 30015G32KT 2000 +TSRA BR FEW009 BKN025 SCT030CB BKN080 21/21 Q1016=
2009031201 - SBKP 120100Z 31010KT 5000 TSRA BR SCT006 BKN025 SCT030CB BKN080 20/20 Q1016 RERA=
2009031202 - SBKP 120200Z 10004KT 9000 -RA SCT025 BKN090 20/20 Q1016 RETSRA=
2009031203 - SBKP 120300Z 14003KT 9999 -RA SCT025 BKN080 20/20 Q1016=
2009031204 - SBKP 120400Z 11004KT 9999 SCT025 BKN070 20/20 Q1015=
2009031205 - SBKP 120500Z 10004KT 9999 SCT025 BKN070 20/20 Q1014=
2009031206 - SBKP 120600Z 10002KT 9999 -RA SCT025 BKN070 OVC100 21/21 Q1014=
2009031207 - SBKP 120700Z 09002KT 9999 SCT025 BKN070 OVC100 21/21 Q1014=
2009031208 - SBKP 120800Z 10004KT 9999 SCT025 BKN070 BKN100 21/21 Q1014=
2009031209 - SBKP 120900Z 05004KT 9999 SCT025 BKN070 BKN100 21/21 Q1014=
2009031210 - SBKP 121000Z 02005KT 9999 FEW025 BKN070 21/21 Q1014=
2009031211 - SBKP 121100Z 01006KT 9999 FEW025 BKN060 22/22 Q1015=
2009031212 - SBKP 121200Z 33006KT 9999 FEW025 BKN060 23/23 Q1016=
2009031213 - SBKP 121300Z 35010KT 9999 SCT018 BKN060 25/22 Q1015=
2009031214 - SBKP 121400Z 35010KT 9999 SCT020 SCT070 26/22 Q1015=
2009031215 - SBKP 121500Z 33011KT 9999 FEW025 SCT080 27/20 Q1014=
2009031216 - SBKP 121600Z 31012KT 9999 SCT030 SCT090 28/20 Q1014=
2009031217 - SBKP 121700Z 33011KT 9999 SCT038 SCT100 29/21 Q1013=
2009031218 - SBKP 121800Z 32009KT 9999 BKN042 SCT100 29/20 Q1012=
2009031219 - SBKP 121900Z 29009KT 9999 SCT040 29/20 Q1011=
2009031220 - SBKP 122000Z 29009KT 9999 SCT045 29/20 Q1011=
2009031221 - SBKP 122100Z 27004KT 9999 FEW045 28/21 Q1011=
2009031222 - SBKP 122200Z 25004KT 9999 VCTS FEW045 FEW050CB BKN100 27/21 Q1011=
2009031223 - SBKP 122300Z 21005KT 9999 VCTS FEW045 FEW050CB BKN100 27/21 Q1012=
2009031223 - SBKP 122340Z 18004KT 9999 TS FEW045 FEW050CB SCT100 26/21 Q1012=
2009031300 - SBKP 130000Z 18004KT 9999 TS FEW045 FEW050CB BKN070 26/22 Q1013=
2009031300 - SBKP 130040Z 16004KT 9999 FEW045 BKN070 26/22 Q1012 RETS=
2009031301 - SBKP 130100Z 08005KT 9999 FEW043 BKN080 25/22 Q1013 RETS=
2009031302 - SBKP 130200Z 08003KT 9999 BKN034 BKN080 24/22 Q1013=
2009031303 - SBKP 130300Z 07003KT 9999 VCTS SCT030 FEW035CB BKN080 23/22 Q1012=
2009031303 - SBKP 130320Z 32007KT 3000 TSRA BR FEW012 SCT020 FEW035CB BKN080 23/23 Q1013=
2009031303 - SBKP 130338Z 33008KT 1500 R15/1600 R33/P2000 +TSRA BR SCT020 SCT035CB BKN080 22/22 Q1013=
2009031304 - SBKP 130400Z 32007KT 2000 +TSRA BR BKN003 SCT020 FEW035CB OVC090 22/22 Q1013=
2009031304 - SBKP 130438Z 34006KT 5000 TSRA BR SCT003 SCT020 FEW035CB OVC090 20/20 Q1013 RERA=
2009031305 - SBKP 130500Z 34009KT 7000 -TSRA FEW003 SCT020 FEW035CB OVC090 20/20 Q1012 RERA=
2009031305 - SBKP 130535Z 03008KT 8000 -RA FEW006 SCT020 BKN090 20/20 Q1013 RETS=
2009031306 - SBKP 130600Z 01008KT 9000 BKN006 SCT020 BKN090 20/20 Q1013 RETS=
2009031307 - SBKP 130700Z 03005KT 9999 FEW006 SCT025 BKN080 20/20 Q1012=
2009031308 - SBKP 130800Z 04006KT 9999 FEW007 SCT025 BKN080 20/20 Q1011=
2009031309 - SBKP 130900Z 05005KT 9999 SCT030 BKN080 21/21 Q1011=
2009031310 - SBKP 131000Z 36006KT 9999 SCT035 BKN080 21/21 Q1012=
2009031311 - SBKP 131100Z 35006KT 9999 FEW010 BKN040 BKN080 21/21 Q1013=
2009031312 - SBKP 131200Z 01007KT 9999 SCT006 BKN040 BKN080 22/22 Q1014=
2009031312 - SBKP 131215Z 35007KT 9999 BKN006 BKN040 BKN080 22/22 Q1014=
2009031313 - SBKP 131300Z 35008KT 9999 BKN007 BKN040 BKN080 23/23 Q1013=
2009031313 - SBKP 131340Z 35008KT 9999 BKN012 BKN040 BKN080 24/24 Q1013=
2009031314 - SBKP 131400Z 35009KT 9999 BKN015 BKN040 BKN080 25/24 Q1014=
2009031315 - SBKP 131500Z 33008KT 9999 SCT018 FEW025TCU BKN085 25/23 Q1013=
2009031316 - SBKP 131600Z 34005KT 9999 BKN020 FEW025TCU BKN085 26/23 Q1012=
2009031316 - SBKP 131640Z 29012KT 9999 4000NE -TSRA SCT022 FEW027CB BKN085 26/23 Q1012=
2009031317 - SBKP 131700Z 32010KT 9999 4500E -TSRA SCT022 FEW027CB BKN085 26/24 Q1012=
2009031317 - SBKP 131730Z 30012KT 9999 SCT025 FEW030TCU SCT085 27/23 Q1011 RETS=
2009031318 - SBKP 131800Z 29012KT 9999 -RA SCT025 FEW030TCU SCT085 26/23 Q1011 RETS=
2009031319 - SBKP 131900Z 35011KT 9999 VCSH FEW025 FEW030TCU 26/21 Q1011=
2009031320 - SBKP 132000Z 29004KT 9999 FEW030 SCT070 25/22 Q1011=
2009031321 - SBKP 132100Z 27004KT 9999 VCSH FEW040TCU SCT070 25/22 Q1011=
2009031321 - SBKP 132115Z 31006KT 9999 4000N -SHRA SCT040TCU BKN070 24/23 Q1011=
2009031321 - SBKP 132140Z 31006KT 9999 SCT040 BKN070 23/23 Q1011=
2009031322 - SBKP 132200Z 34004KT 9999 FEW040 BKN070 23/23 Q1012=
2009031323 - SBKP 132300Z 01003KT 9999 FEW040 BKN100 23/23 Q1012=
2009031400 - SBKP 140000Z 35002KT 9999 SCT035 BKN100 22/22 Q1012=
2009031400 - SBKP 140015Z 28007KT 3000 RA BR BKN010 OVC100 22/22 Q1013=
2009031401 - SBKP 140100Z 23007KT 9999 SCT008 BKN100 21/21 Q1013 RERA=
2009031402 - SBKP 140200Z 10003KT 9999 FEW008 BKN100 21/21 Q1013=
2009031403 - SBKP 140300Z 35004KT 9999 FEW002 BKN100 21/21 Q1013=
2009031403 - SBKP 140310Z 34004KT 9999 BKN002 BKN100 21/21 Q1013=
2009031404 - SBKP 140400Z 36003KT 9999 OVC003 21/21 Q1013=
2009031405 - SBKP 140500Z 32003KT 9999 OVC003 21/21 Q1012=
2009031406 - SBKP 140600Z 36003KT 9000 BKN003 BKN100 21/21 Q1012=
2009031407 - SBKP 140700Z 35002KT 9000 SCT003 BKN100 21/21 Q1012=
2009031408 - SBKP 140800Z 32003KT 9999 SCT003 BKN100 21/21 Q1012=
2009031409 - SBKP 140900Z 05003KT 9999 FEW004 SCT030 BKN100 21/21 Q1012=
2009031410 - SBKP 141000Z 34002KT 5000 BR SCT008 SCT100 21/21 Q1013=
2009031411 - SBKP 141100Z 31001KT 5000 BR SCT004 SCT015 BKN100 22/22 Q1013=
2009031412 - SBKP 141200Z 30003KT 5000 BR BKN013 23/23 Q1014=
2009031413 - SBKP 141300Z 27002KT 9000 FEW015 BKN030 BKN080 23/23 Q1014=
2009031414 - SBKP 141400Z 29005KT 9999 FEW015 BKN030 OVC090 25/22 Q1014=
2009031415 - SBKP 141500Z 28008KT 9999 BKN040 BKN100 26/23 Q1014=
2009031416 - SBKP 141600Z 27007KT 9999 SCT040 BKN100 26/22 Q1014=
2009031417 - SBKP 141700Z 28007KT 9999 SCT030 27/22 Q1013=
2009031418 - SBKP 141800Z 27006KT 9999 SCT045 28/21 Q1012=
2009031419 - SBKP 141900Z 30006KT 9999 SCT045 28/20 Q1011=
2009031420 - SBKP 142000Z 31006KT 9999 FEW045 28/20 Q1012=
2009031421 - SBKP 142100Z 30005KT 9999 FEW045 27/20 Q1012=
2009031422 - SBKP 142200Z 32003KT CAVOK 26/20 Q1012=
2009031423 - SBKP 142300Z 36002KT CAVOK 25/20 Q1013=
2009031500 - SBKP 150000Z 03006KT CAVOK 25/22 Q1014=
2009031501 - SBKP 150100Z 04004KT CAVOK 24/22 Q1014=
2009031502 - SBKP 150200Z 03005KT CAVOK 23/22 Q1014=
2009031503 - SBKP 150300Z 02005KT CAVOK 23/22 Q1014=
2009031504 - SBKP 150400Z 03004KT CAVOK 23/21 Q1013=
2009031505 - SBKP 150500Z 07003KT CAVOK 22/21 Q1013=
2009031506 - SBKP 150600Z 15002KT CAVOK 22/22 Q1013=
2009031507 - SBKP 150700Z 06003KT CAVOK 21/21 Q1013=
2009031508 - SBKP 150800Z 12004KT CAVOK 21/21 Q1013=
2009031509 - SBKP 150900Z 11003KT 9999 SCT014 BKN110 21/21 Q1014=
2009031510 - SBKP 151000Z 08003KT 9999 FEW015 BKN100 21/21 Q1015=
2009031511 - SBKP 151100Z 04002KT 9999 FEW015 BKN100 22/22 Q1016=
2009031512 - SBKP 151200Z 32003KT 9000 SCT011 BKN100 23/22 Q1017=
2009031513 - SBKP 151300Z 34004KT 9999 SCT015 BKN100 24/22 Q1017=
2009031514 - SBKP 151400Z 31003KT 9999 SCT045 BKN100 25/21 Q1017=
2009031515 - SBKP 151500Z 31004KT 9999 SCT045 BKN100 26/21 Q1016=
2009031516 - SBKP 151600Z 36005KT 9999 SCT045 SCT100 27/18 Q1016=
2009031517 - SBKP 151700Z 33004KT 9999 SCT045 28/20 Q1015=
2009031518 - SBKP 151800Z 31005KT 9999 SCT045 SCT090 28/19 Q1014=
2009031519 - SBKP 151900Z 28005KT 9999 4000SE SCT035 FEW040TCU SCT090 27/20 Q1014=
2009031520 - SBKP 152000Z 34008KT 9999 FEW035 FEW040TCU 25/21 Q1014=
2009031521 - SBKP 152100Z 02008KT 9999 SCT035 24/21 Q1014=
2009031522 - SBKP 152200Z 02006KT 9999 FEW025 FEW030TCU 24/22 Q1015=
2009031523 - SBKP 152300Z 11008KT 9999 FEW020 SCT045 22/20 Q1016=
2009031600 - SBKP 160000Z 10006KT 9999 FEW030 SCT090 22/21 Q1016=
2009031601 - SBKP 160100Z 09005KT 9999 FEW030 21/20 Q1016=
2009031602 - SBKP 160200Z 14005KT 9999 SCT035 21/21 Q1017=
2009031603 - SBKP 160300Z 15008KT 9999 FEW035 20/20 Q1016=
2009031604 - SBKP 160400Z 12005KT CAVOK 20/20 Q1016=
2009031605 - SBKP 160500Z 12004KT CAVOK 20/20 Q1015=
2009031606 - SBKP 160600Z 15006KT CAVOK 19/19 Q1015=
2009031607 - SBKP 160700Z 15006KT CAVOK 19/19 Q1015=
2009031608 - SBKP 160800Z 14006KT CAVOK 19/19 Q1014=
2009031609 - SBKP 160900Z 17006KT CAVOK 19/19 Q1015=
2009031610 - SBKP 161000Z 18004KT 5000 BR NSC 19/19 Q1015=
2009031611 - SBKP 161100Z 14008KT 9000 NSC 21/21 Q1016=
2009031612 - SBKP 161200Z 12011KT 8000 NSC 21/20 Q1017=
2009031613 - SBKP 161300Z 12009KT CAVOK 23/20 Q1017=
2009031614 - SBKP 161400Z 10006KT CAVOK 25/19 Q1017=
2009031615 - SBKP 161500Z 12007KT 9999 FEW045 27/18 Q1016=
2009031616 - SBKP 161600Z 12005KT 9999 SCT045 28/14 Q1015=
2009031617 - SBKP 161700Z 11005KT 9999 SCT045 29/13 Q1014=
2009031618 - SBKP 161800Z 10003KT 9999 FEW045 29/13 Q1014=
2009031619 - SBKP 161900Z 15003KT 9999 FEW040 30/13 Q1014=
2009031620 - SBKP 162000Z 16008KT 9999 FEW035 30/12 Q1014=
2009031621 - SBKP 162100Z 14008KT 9999 FEW035 29/15 Q1014=
2009031622 - SBKP 162200Z 13009KT CAVOK 26/16 Q1014=
2009031623 - SBKP 162300Z 12012KT CAVOK 24/19 Q1015=
2009031600 - SBKP 160000Z 10006KT 9999 FEW030 SCT090 22/21 Q1016=
2009031601 - SBKP 160100Z 09005KT 9999 FEW030 21/20 Q1016=
2009031602 - SBKP 160200Z 14005KT 9999 SCT035 21/21 Q1017=
2009031603 - SBKP 160300Z 15008KT 9999 FEW035 20/20 Q1016=
2009031604 - SBKP 160400Z 12005KT CAVOK 20/20 Q1016=
2009031605 - SBKP 160500Z 12004KT CAVOK 20/20 Q1015=
2009031606 - SBKP 160600Z 15006KT CAVOK 19/19 Q1015=
2009031607 - SBKP 160700Z 15006KT CAVOK 19/19 Q1015=
2009031608 - SBKP 160800Z 14006KT CAVOK 19/19 Q1014=
2009031609 - SBKP 160900Z 17006KT CAVOK 19/19 Q1015=
2009031610 - SBKP 161000Z 18004KT 5000 BR NSC 19/19 Q1015=
2009031611 - SBKP 161100Z 14008KT 9000 NSC 21/21 Q1016=
2009031612 - SBKP 161200Z 12011KT 8000 NSC 21/20 Q1017=
2009031613 - SBKP 161300Z 12009KT CAVOK 23/20 Q1017=
2009031614 - SBKP 161400Z 10006KT CAVOK 25/19 Q1017=
2009031615 - SBKP 161500Z 12007KT 9999 FEW045 27/18 Q1016=
2009031616 - SBKP 161600Z 12005KT 9999 SCT045 28/14 Q1015=
2009031617 - SBKP 161700Z 11005KT 9999 SCT045 29/13 Q1014=
2009031618 - SBKP 161800Z 10003KT 9999 FEW045 29/13 Q1014=
2009031619 - SBKP 161900Z 15003KT 9999 FEW040 30/13 Q1014=
2009031620 - SBKP 162000Z 16008KT 9999 FEW035 30/12 Q1014=
2009031621 - SBKP 162100Z 14008KT 9999 FEW035 29/15 Q1014=
2009031622 - SBKP 162200Z 13009KT CAVOK 26/16 Q1014=
2009031623 - SBKP 162300Z 12012KT CAVOK 24/19 Q1015=
2009031700 - SBKP 170000Z 12011KT CAVOK 23/20 Q1016=
2009031801 - SBKP 180100Z 24004KT 9999 FEW020 BKN080 21/18 Q1019=
2009031802 - SBKP 180200Z 20004KT 9999 FEW030 BKN090 21/19 Q1019=
2009031803 - SBKP 180300Z 21004KT CAVOK 21/19 Q1018=
2009031804 - SBKP 180400Z 10004KT CAVOK 20/19 Q1018=
2009031805 - SBKP 180500Z 11008KT CAVOK 20/18 Q1017=
2009031806 - SBKP 180600Z 11008KT CAVOK 20/18 Q1017=
2009031807 - SBKP 180700Z 11008KT CAVOK 19/18 Q1017=
2009031808 - SBKP 180800Z 14008KT CAVOK 19/19 Q1017=
2009031809 - SBKP 180900Z 16008KT CAVOK 20/19 Q1018=
2009031810 - SBKP 181000Z 14006KT CAVOK 20/19 Q1017=
2009031811 - SBKP 181100Z 13008KT CAVOK 22/19 Q1019=
2009031812 - SBKP 181200Z 14009KT 9999 FEW040 23/19 Q1020=
2009031813 - SBKP 181300Z 15012KT 9999 SCT030 25/20 Q1020=
2009031814 - SBKP 181400Z 14013KT 9999 SCT035 26/20 Q1020=
2009031815 - SBKP 181500Z 15012KT 9999 BKN040 27/19 Q1019=
2009031816 - SBKP 181600Z 16015KT 9999 SCT040 SCT100 28/19 Q1018=
2009031817 - SBKP 181700Z 15012KT 9999 SCT040 28/20 Q1018=
2009031818 - SBKP 181800Z 18014KT 9999 FEW040 28/19 Q1017=
2009031819 - SBKP 181900Z 16015KT 9999 FEW040 29/19 Q1017=
2009031820 - SBKP 182000Z 16013KT 9999 FEW040 SCT300 27/19 Q1017=
2009031821 - SBKP 182100Z 16014KT 9999 FEW040 SCT100 26/19 Q1017=
2009031822 - SBKP 182200Z 16012KT CAVOK 25/19 Q1018=
2009031823 - SBKP 182300Z 16017KT 9999 SCT045 SCT100 24/20 Q1018=
2009031900 - SBKP 190000Z 16014KT 9999 SCT045 SCT100 24/20 Q1019=
2009031901 - SBKP 190100Z 14018KT CAVOK 23/19 Q1019=
2009031902 - SBKP 190200Z 15013KT CAVOK 22/19 Q1019=
2009031903 - SBKP 190300Z 16014KT CAVOK 22/19 Q1019=
2009031904 - SBKP 190400Z 16012KT CAVOK 21/19 Q1019=
2009031905 - SBKP 190500Z 14008KT CAVOK 21/19 Q1019=
2009031906 - SBKP 190600Z 14008KT CAVOK 20/20 Q1018=
2009031907 - SBKP 190700Z 13006KT CAVOK 20/20 Q1018=
2009031908 - SBKP 190800Z 14008KT CAVOK 20/20 Q1018=
2009031909 - SBKP 190900Z 14010KT CAVOK 20/20 Q1018=
2009031910 - SBKP 191000Z 14010KT CAVOK 21/20 Q1018=
2009031911 - SBKP 191100Z 14014KT CAVOK 22/20 Q1018=
2009031912 - SBKP 191200Z 15014KT 9999 FEW020 24/20 Q1019=
2009031913 - SBKP 191300Z 14011KT 9999 SCT025 26/20 Q1019=
2009031914 - SBKP 191400Z 15010KT 9999 SCT030 26/19 Q1019=
2009031915 - SBKP 191500Z 15008KT 9999 SCT030 27/19 Q1019=
2009031916 - SBKP 191600Z 14010KT 9999 BKN040 28/19 Q1018=
2009031917 - SBKP 191700Z 16009KT 9999 SCT040 28/18 Q1017=
2009031918 - SBKP 191800Z 18009KT 9999 SCT040 29/18 Q1016=
2009031919 - SBKP 191900Z 18009KT 9999 SCT040 30/18 Q1015=
2009031920 - SBKP 192000Z 15017KT 9999 FEW040 28/19 Q1015=
2009031921 - SBKP 192100Z 16018KT 9999 FEW040 26/20 Q1016=
2009031922 - SBKP 192200Z 14014KT 9999 FEW040 24/20 Q1016=
2009031923 - SBKP 192300Z 14015KT 9999 FEW040 23/19 Q1017=
2009032000 - SBKP 200000Z 14012KT 9999 FEW040 22/19 Q1018=
2009032001 - SBKP 200100Z 14010KT 9999 FEW040 22/19 Q1018=
2009032002 - SBKP 200200Z 15009KT 9999 FEW040 21/18 Q1018=
2009032003 - SBKP 200300Z 12010KT 9999 FEW045 21/18 Q1019=
2009032004 - SBKP 200400Z 12010KT CAVOK 20/17 Q1018=
2009032005 - SBKP 200500Z 12011KT CAVOK 20/17 Q1018=
2009032006 - SBKP 200600Z 11010KT CAVOK 20/17 Q1017=
2009032007 - SBKP 200700Z 12012KT CAVOK 19/18 Q1017=
2009032008 - SBKP 200800Z 11012KT CAVOK 19/18 Q1017=
2009032009 - SBKP 200900Z 12013KT CAVOK 19/18 Q1018=
2009032010 - SBKP 201000Z 12013KT CAVOK 19/17 Q1018=
2009032011 - SBKP 201100Z 12013KT CAVOK 20/17 Q1018=
2009032012 - SBKP 201200Z 11012KT CAVOK 22/18 Q1019=
2009032013 - SBKP 201300Z 11011KT CAVOK 23/18 Q1019=
2009032014 - SBKP 201400Z 11005KT CAVOK 25/18 Q1019=
2009032015 - SBKP 201500Z 13004KT 9999 FEW030 SCT080 26/18 Q1018=
2009032016 - SBKP 201600Z 11004KT 9999 FEW030 SCT080 27/17 Q1017=
2009032017 - SBKP 201700Z 11004KT 9999 SCT035 SCT090 27/18 Q1017=
2009032018 - SBKP 201800Z 16009KT 9999 SCT040 SCT090 28/16 Q1016=
2009032019 - SBKP 201900Z 18006KT 9999 FEW045 SCT090 28/16 Q1016=
2009032020 - SBKP 202000Z 16012KT 9999 FEW045 SCT090 27/16 Q1016=
2009032021 - SBKP 202100Z 15012KT 9999 FEW045 BKN090 26/17 Q1016=
2009032022 - SBKP 202200Z 13008KT 9999 FEW045 BKN090 24/17 Q1016=
2009032023 - SBKP 202300Z 14008KT 9999 FEW045 BKN090 23/19 Q1016=
2009032100 - SBKP 210000Z 14010KT CAVOK 23/19 Q1016=
2009032101 - SBKP 210100Z 15011KT CAVOK 22/19 Q1017=
2009032102 - SBKP 210200Z 14010KT CAVOK 21/19 Q1017=
2009032103 - SBKP 210300Z 11010KT CAVOK 21/19 Q1016=
2009032104 - SBKP 210400Z 11009KT CAVOK 20/19 Q1016=
2009032105 - SBKP 210500Z 11009KT CAVOK 20/19 Q1015=
2009032106 - SBKP 210600Z 11006KT CAVOK 20/19 Q1015=
2009032107 - SBKP 210700Z 11008KT CAVOK 20/19 Q1015=
2009032108 - SBKP 210800Z 12008KT CAVOK 20/18 Q1015=
2009032109 - SBKP 210900Z 12009KT CAVOK 20/18 Q1015=
2009032110 - SBKP 211000Z 12008KT CAVOK 20/18 Q1016=
2009032111 - SBKP 211100Z 11008KT CAVOK 21/19 Q1016=
2009032112 - SBKP 211200Z 10006KT CAVOK 22/19 Q1016=
2009032113 - SBKP 211300Z 12003KT CAVOK 24/19 Q1017=
2009032114 - SBKP 211400Z 35005KT 9999 FEW040 BKN070 26/17 Q1016=
2009032115 - SBKP 211500Z 31003KT 9999 FEW040 BKN070 26/18 Q1016=
2009032116 - SBKP 211600Z 24005KT 9999 FEW040 BKN070 26/19 Q1015=
2009032117 - SBKP 211700Z 20005KT 9999 FEW040 BKN070 26/19 Q1014=
2009032118 - SBKP 211800Z 19010KT 9999 SCT040 BKN070 25/20 Q1014=
2009032119 - SBKP 211900Z 24010KT 9999 FEW045 OVC070 24/19 Q1014=
2009032120 - SBKP 212000Z 21012KT 6000 -RA SCT045 OVC070 23/20 Q1015=
2009032121 - SBKP 212100Z 14010KT 8000 -RA NSC 21/20 Q1015=
2009032122 - SBKP 212200Z 13010KT 8000 NSC 20/20 Q1015=
2009032123 - SBKP 212300Z 14011KT CAVOK 19/19 Q1015=
2009032200 - SBKP 220000Z 14008KT CAVOK 19/19 Q1015=
2009032201 - SBKP 220100Z 14010KT 9999 -RA NSC 19/19 Q1016=
2009032202 - SBKP 220200Z 14010KT CAVOK 19/19 Q1016=
2009032203 - SBKP 220300Z 11009KT CAVOK 19/19 Q1015=
2009032204 - SBKP 220400Z 12006KT CAVOK 19/19 Q1015=
2009032205 - SBKP 220500Z 10005KT CAVOK 19/19 Q1014=
2009032206 - SBKP 220600Z 12005KT CAVOK 19/19 Q1013=
2009032207 - SBKP 220700Z 12008KT CAVOK 19/19 Q1013=
2009032208 - SBKP 220800Z 12007KT CAVOK 19/19 Q1013=
2009032209 - SBKP 220900Z 12008KT CAVOK 19/18 Q1013=
2009032210 - SBKP 221000Z 11008KT CAVOK 19/18 Q1014=
2009032211 - SBKP 221100Z 10007KT 9999 -RA FEW030 BKN070 20/19 Q1015=
2009032212 - SBKP 221200Z 10005KT 9999 SCT030 BKN070 20/20 Q1015=
2009032213 - SBKP 221300Z 11004KT 9999 SCT030 BKN070 22/20 Q1015=
2009032214 - SBKP 221400Z 12005KT 9999 FEW020 SCT040 BKN070 23/20 Q1015=
2009032215 - SBKP 221500Z 13005KT 9999 FEW030 SCT040 BKN070 24/20 Q1015=
2009032216 - SBKP 221600Z 18005KT 8000 -RA SCT025 SCT050 OVC090 24/20 Q1014=
2009032217 - SBKP 221700Z 14008KT 9999 SCT025 SCT050 BKN080 24/20 Q1013=
2009032218 - SBKP 221800Z 16008KT 9999 FEW025 BKN080 24/20 Q1012=
2009032219 - SBKP 221900Z 18008KT 9999 FEW030 SCT100 25/19 Q1012=
2009032220 - SBKP 222000Z 18010KT 9999 FEW040 SCT100 24/20 Q1012=
2009032221 - SBKP 222100Z 14008KT 9999 FEW040 SCT100 23/19 Q1012=
2009032222 - SBKP 222200Z 14008KT CAVOK 22/20 Q1012=
2009032223 - SBKP 222300Z 14008KT CAVOK 21/20 Q1013=
2009032300 - SBKP 230000Z 14008KT CAVOK 21/20 Q1014=
2009032301 - SBKP 230100Z 13008KT CAVOK 20/20 Q1015=
2009032302 - SBKP 230200Z 14008KT CAVOK 20/20 Q1015=
2009032303 - SBKP 230300Z 15007KT CAVOK 20/20 Q1014=
2009032304 - SBKP 230400Z 13008KT CAVOK 20/20 Q1013=
2009032305 - SBKP 230500Z 15009KT CAVOK 19/19 Q1013=
2009032306 - SBKP 230600Z 14008KT CAVOK 19/19 Q1012=
2009032307 - SBKP 230700Z 13009KT CAVOK 19/19 Q1013=
2009032308 - SBKP 230800Z 14009KT CAVOK 19/19 Q1013=
2009032309 - SBKP 230900Z 13011KT CAVOK 19/19 Q1013=
2009032310 - SBKP 231000Z 14009KT CAVOK 19/19 Q1013=
2009032311 - SBKP 231100Z 13010KT CAVOK 21/19 Q1014=
2009032312 - SBKP 231200Z 13008KT CAVOK 23/20 Q1015=
2009032313 - SBKP 231300Z 12007KT CAVOK 25/20 Q1015=
2009032314 - SBKP 231400Z 04002KT 9999 FEW030 SCT100 27/20 Q1015=
2009032315 - SBKP 231500Z 25003KT 9999 SCT040 27/19 Q1014=
2009032316 - SBKP 231600Z 20002KT 9999 SCT040 28/19 Q1013=
2009032317 - SBKP 231700Z 22005KT 9999 SCT040 29/18 Q1012=
2009032318 - SBKP 231800Z 20002KT 9999 SCT040 30/18 Q1011=
2009032319 - SBKP 231900Z 16011KT 9999 SCT040 FEW045TCU 28/19 Q1011=
2009032320 - SBKP 232000Z 14011KT 9999 SCT040 FEW045TCU 28/19 Q1010=
2009032321 - SBKP 232100Z 14016KT 8000 FEW045 26/19 Q1011=
2009032322 - SBKP 232200Z 14014KT CAVOK 24/19 Q1012=
2009032323 - SBKP 232300Z 14012KT CAVOK 23/19 Q1013=
2009032400 - SBKP 240000Z 14011KT CAVOK 22/19 Q1014=
2009032401 - SBKP 240100Z 14014KT CAVOK 22/19 Q1015=
2009032402 - SBKP 240200Z 14010KT CAVOK 21/19 Q1015=
2009032403 - SBKP 240300Z 13008KT CAVOK 20/19 Q1015=
2009032404 - SBKP 240400Z 13011KT CAVOK 20/20 Q1014=
2009032405 - SBKP 240500Z 13010KT CAVOK 20/20 Q1014=
2009032406 - SBKP 240600Z 14012KT CAVOK 20/20 Q1013=
2009032407 - SBKP 240700Z 14009KT CAVOK 20/20 Q1014=
2009032408 - SBKP 240800Z 13012KT CAVOK 20/20 Q1013=
2009032409 - SBKP 240900Z 14010KT CAVOK 19/19 Q1014=
2009032410 - SBKP 241000Z 14010KT CAVOK 20/20 Q1014=
2009032411 - SBKP 241100Z 14012KT CAVOK 21/20 Q1014=
2009032412 - SBKP 241200Z 13012KT CAVOK 23/20 Q1015=
2009032413 - SBKP 241300Z 12010KT CAVOK 25/20 Q1015=
2009032414 - SBKP 241400Z 15010KT 9999 FEW030 26/20 Q1015=
2009032415 - SBKP 241500Z 15009KT 9999 FEW035 26/19 Q1015=
2009032416 - SBKP 241600Z 17009KT 9999 FEW035 27/18 Q1014=
2009032417 - SBKP 241700Z 17009KT 9999 SCT035 28/18 Q1013=
2009032418 - SBKP 241800Z 17010KT 9999 SCT035 28/18 Q1012=
2009032419 - SBKP 241900Z 19013KT 9999 SCT035 29/16 Q1011=
2009032420 - SBKP 242000Z 19014KT 9000 4000N FEW035 28/18 Q1012=
2009032421 - SBKP 242100Z 18018KT 9000 4000N FEW020 25/18 Q1012=
2009032422 - SBKP 242200Z 18015KT 9000 NSC 23/18 Q1013=
2009032423 - SBKP 242300Z 17016KT 9000 NSC 22/17 Q1014=
2009032500 - SBKP 250000Z 18014KT CAVOK 21/17 Q1015=
2009032501 - SBKP 250100Z 17012KT CAVOK 21/17 Q1015=
2009032502 - SBKP 250200Z 18011KT CAVOK 20/17 Q1015=
2009032503 - SBKP 250300Z 16007KT CAVOK 20/18 Q1015=
2009032504 - SBKP 250400Z 15009KT CAVOK 19/18 Q1015=
2009032505 - SBKP 250500Z 14009KT CAVOK 19/18 Q1014=
2009032506 - SBKP 250600Z 14009KT CAVOK 19/18 Q1014=
2009032507 - SBKP 250700Z 13009KT CAVOK 19/18 Q1013=
2009032508 - SBKP 250800Z 14009KT CAVOK 19/18 Q1014=
2009032509 - SBKP 250900Z 14009KT CAVOK 18/18 Q1014=
2009032510 - SBKP 251000Z 13009KT CAVOK 19/18 Q1014=
2009032511 - SBKP 251100Z 14012KT CAVOK 21/18 Q1015=
2009032512 - SBKP 251200Z 13010KT CAVOK 22/18 Q1015=
2009032513 - SBKP 251300Z 12008KT CAVOK 24/18 Q1015=
2009032514 - SBKP 251400Z 14008KT CAVOK 25/18 Q1015=
2009032515 - SBKP 251500Z 16005KT 9999 FEW030 27/18 Q1014=
2009032516 - SBKP 251600Z 16008KT 9999 FEW030 28/18 Q1014=
2009032517 - SBKP 251700Z 17005KT 9999 FEW040 28/18 Q1013=
2009032518 - SBKP 251800Z 17006KT 9999 SCT040 29/17 Q1012=
2009032519 - SBKP 251900Z 19010KT 9999 SCT040 29/16 Q1012=
2009032520 - SBKP 252000Z 19018KT 9999 4500N FEW040 28/16 Q1011=
2009032521 - SBKP 252100Z 18018KT 9000 4000N NSC 25/17 Q1012=
2009032522 - SBKP 252200Z 18016KT 8000 NSC 23/17 Q1012=
2009032523 - SBKP 252300Z 16018KT CAVOK 21/16 Q1013=
2009032600 - SBKP 260000Z 16015KT CAVOK 20/16 Q1014=
2009032601 - SBKP 260100Z 16018KT CAVOK 20/16 Q1014=
2009032602 - SBKP 260200Z 16021KT CAVOK 20/16 Q1014=
2009032603 - SBKP 260300Z 12015KT CAVOK 19/16 Q1014=
2009032604 - SBKP 260400Z 11010KT CAVOK 19/16 Q1013=
2009032605 - SBKP 260500Z 10011KT CAVOK 18/16 Q1013=
2009032606 - SBKP 260600Z 10010KT CAVOK 18/16 Q1013=
2009032607 - SBKP 260700Z 09005KT CAVOK 18/16 Q1013=
2009032608 - SBKP 260800Z 11009KT CAVOK 18/16 Q1013=
2009032609 - SBKP 260900Z 11008KT CAVOK 17/16 Q1014=
2009032610 - SBKP 261000Z 12012KT CAVOK 18/16 Q1014=
2009032611 - SBKP 261100Z 11010KT CAVOK 20/16 Q1015=
2009032612 - SBKP 261200Z 10009KT CAVOK 22/16 Q1015=
2009032613 - SBKP 261300Z 07006KT CAVOK 24/14 Q1016=
2009032614 - SBKP 261400Z 36004KT CAVOK 26/14 Q1015=
2009032615 - SBKP 261500Z 08003KT CAVOK 28/14 Q1015=
2009032616 - SBKP 261600Z 19007KT 9999 FEW030 BKN060 28/14 Q1014=
2009032617 - SBKP 261700Z 15006KT 9999 FEW040 SCT060 29/14 Q1013=
2009032618 - SBKP 261800Z 16005KT CAVOK 30/14 Q1012=
2009032619 - SBKP 261900Z 22006KT 9999 SCT045 29/15 Q1012=
2009032620 - SBKP 262000Z 21007KT 9999 SCT045 29/15 Q1012=
2009032621 - SBKP 262100Z 18011KT 9000 SCT045 28/18 Q1012=
2009032622 - SBKP 262200Z 17017KT 9000 NSC 24/18 Q1012=
2009032623 - SBKP 262300Z 17018KT 9000 NSC 22/18 Q1013=
2009032700 - SBKP 270000Z 16016KT CAVOK 22/18 Q1014=
2009032701 - SBKP 270100Z 16013KT 9000 NSC 21/18 Q1014=
2009032702 - SBKP 270200Z 15012KT CAVOK 21/18 Q1015=
2009032703 - SBKP 270300Z 11014KT CAVOK 21/19 Q1015=
2009032704 - SBKP 270400Z 11014KT CAVOK 20/19 Q1014=
2009032705 - SBKP 270500Z 11013KT CAVOK 20/18 Q1014=
2009032706 - SBKP 270600Z 11012KT CAVOK 20/18 Q1014=
2009032707 - SBKP 270700Z 11011KT CAVOK 19/18 Q1013=
2009032708 - SBKP 270800Z 11009KT CAVOK 19/18 Q1013=
2009032709 - SBKP 270900Z 12010KT CAVOK 19/19 Q1014=
2009032710 - SBKP 271000Z 12011KT CAVOK 19/19 Q1014=
2009032711 - SBKP 271100Z 12010KT CAVOK 21/19 Q1015=
2009032712 - SBKP 271200Z 11007KT CAVOK 23/19 Q1015=
2009032713 - SBKP 271300Z 05005KT CAVOK 25/19 Q1015=
2009032714 - SBKP 271400Z 04009KT 9999 FEW035 27/19 Q1015=
2009032715 - SBKP 271500Z 36005KT 9999 SCT040 28/18 Q1014=
2009032716 - SBKP 271600Z 31006KT 9999 BKN045 29/18 Q1013=
2009032717 - SBKP 271700Z 30006KT 9999 SCT045 30/19 Q1013=
2009032718 - SBKP 271800Z 29006KT 9999 SCT048 30/18 Q1012=
2009032719 - SBKP 271900Z 29005KT 9999 SCT048 30/18 Q1011=
2009032720 - SBKP 272000Z 22006KT 9999 FEW048 30/18 Q1011=
2009032721 - SBKP 272100Z 20006KT CAVOK 29/18 Q1011=
2009032722 - SBKP 272200Z 14012KT CAVOK 25/20 Q1011=
2009032723 - SBKP 272300Z 14013KT CAVOK 23/20 Q1012=
2009032800 - SBKP 280000Z 14013KT CAVOK 23/20 Q1012=
2009032801 - SBKP 280100Z 13009KT CAVOK 22/20 Q1013=
2009032802 - SBKP 280200Z 14009KT CAVOK 22/20 Q1013=
2009032803 - SBKP 280300Z 11008KT 9000 FEW045 BKN080 22/20 Q1013=
2009032804 - SBKP 280400Z 11010KT 9000 FEW045 BKN080 21/20 Q1012=
2009032805 - SBKP 280500Z 12009KT 9999 FEW045 BKN080 21/20 Q1012=
2009032806 - SBKP 280600Z 11008KT 9999 FEW035 BKN080 21/20 Q1012=
2009032807 - SBKP 280700Z 10007KT 9999 FEW035 BKN080 21/20 Q1011=
2009032808 - SBKP 280800Z 09005KT 9999 FEW035 BKN080 20/20 Q1011=
2009032809 - SBKP 280900Z 13003KT 9999 SCT030 BKN080 20/20 Q1011=
2009032810 - SBKP 281000Z 17004KT 9999 SCT030 BKN080 21/20 Q1012=
2009032811 - SBKP 281100Z 09003KT 9000 SCT030 BKN080 21/21 Q1013=
2009032812 - SBKP 281200Z 07002KT 8000 SCT035 BKN080 23/21 Q1013=
2009032813 - SBKP 281300Z 04006KT 8000 FEW040 BKN085 24/21 Q1013=
2009032814 - SBKP 281400Z 34008KT 9999 FEW020 SCT090 25/22 Q1013=
2009032815 - SBKP 281500Z 01005KT 9999 SCT025 BKN095 26/21 Q1012=
2009032816 - SBKP 281600Z 31005KT 9999 BKN030 SCT100 27/21 Q1011=
2009032817 - SBKP 281700Z 30005KT 9999 SCT030 28/20 Q1010=
2009032818 - SBKP 281800Z 25005KT 9999 FEW030 FEW035TCU 29/20 Q1010=
2009032819 - SBKP 281900Z 23005KT 9999 SCT035 FEW040TCU 29/20 Q1009=
2009032820 - SBKP 282000Z 17016KT 9999 TS VCSH BKN035 FEW040CB 25/19 Q1010=
2009032821 - SBKP 282100Z 15008KT 8000 TS VCSH FEW035 FEW040CB BKN080 24/18 Q1010=
2009032822 - SBKP 282200Z 13009KT 9999 FEW040 BKN080 23/18 Q1011 RETS=
2009032823 - SBKP 282300Z 13008KT CAVOK 22/20 Q1011=
2009032900 - SBKP 290000Z 12006KT CAVOK 22/20 Q1012=
2009032901 - SBKP 290100Z 12004KT CAVOK 22/20 Q1013=
2009032902 - SBKP 290200Z 15005KT CAVOK 22/21 Q1013=
2009032903 - SBKP 290300Z 19004KT CAVOK 22/21 Q1012=
2009032904 - SBKP 290400Z 19007KT CAVOK 22/21 Q1012=
2009032905 - SBKP 290500Z 18003KT CAVOK 22/21 Q1011=
2009032906 - SBKP 290600Z 15003KT CAVOK 21/21 Q1011=
2009032907 - SBKP 290700Z 11004KT CAVOK 21/21 Q1010=
2009032908 - SBKP 290800Z 09002KT CAVOK 21/21 Q1010=
2009032909 - SBKP 290900Z 13004KT CAVOK 20/20 Q1010=
2009032910 - SBKP 291000Z 13004KT 6000 NSC 20/20 Q1011=
2009032911 - SBKP 291100Z 12005KT 7000 NSC 22/20 Q1012=
2009032912 - SBKP 291200Z 16007KT 9000 FEW033 SCT100 24/20 Q1013=
2009032913 - SBKP 291300Z 12006KT 9999 SCT033 25/20 Q1012=
2009032914 - SBKP 291400Z 11005KT 9999 SCT033 26/19 Q1013=
2009032915 - SBKP 291500Z 00000KT 9999 SCT035 27/19 Q1012=
2009032916 - SBKP 291600Z 23004KT 9999 BKN035 28/19 Q1012=
2009032917 - SBKP 291700Z 30007KT 9999 BKN040 29/19 Q1011=
2009032918 - SBKP 291800Z 31005KT 9999 BKN040 29/18 Q1010=
2009032919 - SBKP 291900Z 29006KT 9999 SCT040 30/19 Q1010=
2009032920 - SBKP 292000Z 23006KT 9999 FEW040 FEW045TCU 28/20 Q1010=
2009032921 - SBKP 292100Z 22005KT 9999 FEW040 FEW045TCU SCT070 28/19 Q1010=
2009032922 - SBKP 292200Z 14007KT CAVOK 26/20 Q1011=
2009032923 - SBKP 292300Z 13007KT CAVOK 24/21 Q1012=
2009033000 - SBKP 300000Z 13008KT CAVOK 23/21 Q1013=
2009033001 - SBKP 300100Z 13009KT CAVOK 22/20 Q1013=
2009033002 - SBKP 300200Z 13012KT CAVOK 22/20 Q1013=
2009033003 - SBKP 300300Z 13011KT CAVOK 22/20 Q1013=
2009033004 - SBKP 300400Z 13012KT CAVOK 21/20 Q1012=
2009033005 - SBKP 300500Z 13011KT CAVOK 21/21 Q1012=
2009033006 - SBKP 300600Z 13010KT CAVOK 21/21 Q1012=
2009033007 - SBKP 300700Z 13008KT CAVOK 21/21 Q1012=
2009033008 - SBKP 300800Z 12002KT CAVOK 21/21 Q1013=
2009033009 - SBKP 300900Z 15008KT CAVOK 21/21 Q1013=
2009033010 - SBKP 301000Z 14006KT CAVOK 21/21 Q1013=
2009033011 - SBKP 301100Z 12006KT CAVOK 22/21 Q1014=
2009033012 - SBKP 301200Z 11006KT CAVOK 24/21 Q1014=
2009033013 - SBKP 301300Z 10003KT CAVOK 26/21 Q1014=
2009033014 - SBKP 301400Z 01004KT 9999 SCT040 27/20 Q1014=
2009033015 - SBKP 301500Z 00000KT 9999 SCT040 29/19 Q1013=
2009033016 - SBKP 301600Z 28002KT 9999 BKN040 29/19 Q1012=
2009033017 - SBKP 301700Z 24003KT 9999 BKN040 29/19 Q1011=
2009033018 - SBKP 301800Z 20008KT 9999 BKN045 29/19 Q1010=
2009033019 - SBKP 301900Z 11010KT 9999 SCT040 FEW045TCU BKN090 27/20 Q1010=
2009033020 - SBKP 302000Z 17009KT 7000 3000S SCT040 FEW050TCU BKN090 28/20 Q1010=
2009033021 - SBKP 302100Z 14012KT 7000 FEW040 FEW050TCU BKN070 27/19 Q1010=
2009033022 - SBKP 302200Z 11007KT 9999 FEW040 BKN070 25/20 Q1011=
2009033023 - SBKP 302300Z 11007KT 9999 FEW030 BKN070 24/20 Q1012=
2009033100 - SBKP 310000Z 12008KT 9999 FEW030 BKN080 23/20 Q1012=
2009033101 - SBKP 310100Z 12008KT 9999 FEW030 BKN080 23/20 Q1013=
2009033102 - SBKP 310200Z 14007KT CAVOK 23/20 Q1012=
2009033103 - SBKP 310300Z 14004KT CAVOK 22/20 Q1013=
2009033104 - SBKP 310400Z 13004KT CAVOK 22/20 Q1012=
2009033105 - SBKP 310500Z 13007KT CAVOK 21/20 Q1012=
2009033106 - SBKP 310600Z 13005KT CAVOK 21/19 Q1011=
2009033107 - SBKP 310700Z 14005KT CAVOK 20/19 Q1010=
2009033108 - SBKP 310800Z 13005KT CAVOK 20/20 Q1012=
2009033109 - SBKP 310900Z 15006KT CAVOK 20/20 Q1012=
2009033110 - SBKP 311000Z 19005KT CAVOK 20/20 Q1013=
2009033111 - SBKP 311100Z 11005KT CAVOK 22/20 Q1013=
2009033112 - SBKP 311200Z 11008KT CAVOK 24/19 Q1013=
2009033113 - SBKP 311300Z 09005KT CAVOK 25/19 Q1013=
2009033114 - SBKP 311400Z 24002KT 9999 SCT035 27/19 Q1013=
2009033115 - SBKP 311500Z 12003KT 9999 SCT035 28/19 Q1012=
2009033116 - SBKP 311600Z 13002KT 9999 SCT035 28/19 Q1012=
2009033117 - SBKP 311700Z 18010KT 9999 BKN040 FEW050TCU 29/19 Q1011=
2009033118 - SBKP 311800Z 19008KT 9999 SCT040 FEW050TCU BKN100 29/19 Q1011=
2009033119 - SBKP 311900Z 18008KT 9999 SCT040 30/18 Q1010=
2009033120 - SBKP 312000Z 17009KT 9000 SCT040 28/19 Q1010=
2009033121 - SBKP 312100Z 17009KT 9999 FEW040 28/18 Q1011=
2009033122 - SBKP 312200Z 14010KT 9999 FEW040 26/19 Q1011=
2009033123 - SBKP 312300Z 12013KT CAVOK 24/19 Q1012=
2009040100 - SBKP 010000Z 13014KT CAVOK 23/19 Q1013=
2009040101 - SBKP 010100Z 12011KT CAVOK 22/18 Q1013=
2009040102 - SBKP 010200Z 12008KT CAVOK 21/18 Q1013=
2009040103 - SBKP 010300Z 14006KT CAVOK 20/19 Q1013=
2009040104 - SBKP 010400Z 18006KT CAVOK 20/19 Q1013=
2009040105 - SBKP 010500Z 14006KT CAVOK 19/18 Q1013=
2009040106 - SBKP 010600Z 14008KT CAVOK 19/18 Q1913=
2009040107 - SBKP 010700Z 14006KT CAVOK 18/18 Q1012=
2009040108 - SBKP 010800Z 14004KT CAVOK 18/18 Q1013=
2009040109 - SBKP 010900Z 14006KT CAVOK 18/18 Q1013=
2009040110 - SBKP 011000Z 14008KT CAVOK 18/18 Q1014=
2009040111 - SBKP 011100Z 12008KT 6000 NSC 20/19 Q1014=
2009040112 - SBKP 011200Z 12008KT 8000 FEW017 23/19 Q1014=
2009040113 - SBKP 011300Z 11013KT 9999 FEW020 25/18 Q1014=
2009040114 - SBKP 011400Z 12012KT 9999 SCT035 27/18 Q1015=
2009040115 - SBKP 011500Z 12008KT 9999 SCT040 27/17 Q1014=
2009040116 - SBKP 011600Z 12008KT 9999 SCT045 28/17 Q1013=
2009040117 - SBKP 011700Z 16011KT 9999 SCT045 29/15 Q1013=
2009040118 - SBKP 011800Z 15007KT 9999 SCT045 29/16 Q1012=
2009040119 - SBKP 011900Z 17011KT 9999 SCT045 29/16 Q1012=
2009040120 - SBKP 012000Z 16014KT 9999 FEW045 28/17 Q1012=
2009040121 - SBKP 012100Z 16015KT 9999 FEW045 26/16 Q1013=
2009040122 - SBKP 012200Z 16009KT CAVOK 24/17 Q1014=
2009040123 - SBKP 012300Z 15007KT CAVOK 23/17 Q1015=
2009040200 - SBKP 020000Z 14013KT CAVOK 22/15 Q1015=
2009040201 - SBKP 020100Z 14012KT CAVOK 21/16 Q1016=
2009040202 - SBKP 020200Z 12008KT CAVOK 20/17 Q1016=
2009040203 - SBKP 020300Z 13009KT CAVOK 19/17 Q1016=
2009040204 - SBKP 020400Z 13009KT CAVOK 18/17 Q1015=
2009040205 - SBKP 020500Z 13010KT CAVOK 18/17 Q1015=
2009040206 - SBKP 020600Z 13010KT CAVOK 18/17 Q1015=
2009040207 - SBKP 020700Z 13006KT CAVOK 18/17 Q1015=
2009040208 - SBKP 020800Z 13010KT CAVOK 18/17 Q1015=
2009040209 - SBKP 020900Z 13011KT CAVOK 18/17 Q1015=
2009040210 - SBKP 021000Z 12009KT CAVOK 18/17 Q1015=
2009040211 - SBKP 021100Z 12010KT CAVOK 20/17 Q1016=
2009040212 - SBKP 021200Z 12014KT CAVOK 22/16 Q1017=
2009040213 - SBKP 021300Z 12012KT CAVOK 24/15 Q1017=
2009040214 - SBKP 021400Z 12011KT CAVOK 26/14 Q1017=
2009040215 - SBKP 021500Z 10010KT 9999 FEW040 27/13 Q1016=
2009040216 - SBKP 021600Z 13009KT 9999 FEW040 28/12 Q1015=
2009040217 - SBKP 021700Z 13007KT 9999 FEW040 28/13 Q1015=
2009040218 - SBKP 021800Z 12008KT 9999 FEW040 29/14 Q1014=
2009040219 - SBKP 021900Z 12011KT 9999 FEW045 28/15 Q1014=
2009040220 - SBKP 022000Z 12011KT 9999 FEW045 28/15 Q1013=
2009040221 - SBKP 022100Z 17016KT 9999 FEW045 26/18 Q1014=
2009040222 - SBKP 022200Z 14016KT CAVOK 23/18 Q1015=
2009040223 - SBKP 022300Z 13013KT CAVOK 22/18 Q1016=
2009040300 - SBKP 030000Z 12016KT CAVOK 21/17 Q1017=
2009040301 - SBKP 030100Z 12013KT CAVOK 21/17 Q1017=
2009040302 - SBKP 030200Z 11016KT CAVOK 21/17 Q1017=
2009040303 - SBKP 030300Z 11016KT CAVOK 21/17 Q1017 WS R15=
2009040304 - SBKP 030400Z 10013KT CAVOK 20/17 Q1017=
2009040305 - SBKP 030500Z 10013KT CAVOK 20/17 Q1017=
2009040306 - SBKP 030600Z 11013KT CAVOK 20/17 Q1016=
2009040307 - SBKP 030700Z 10013KT CAVOK 19/17 Q1016=
2009040308 - SBKP 030800Z 11012KT CAVOK 19/17 Q1016=
2009040309 - SBKP 030900Z 11009KT CAVOK 18/17 Q1016=
2009040310 - SBKP 031000Z 11011KT CAVOK 19/17 Q1016=
2009040311 - SBKP 031100Z 12018KT 9999 FEW025 21/17 Q1017=
2009040312 - SBKP 031200Z 11016KT 9999 FEW030 22/18 Q1017=
2009040313 - SBKP 031300Z 12010KT 9999 FEW030 25/18 Q1017=
2009040314 - SBKP 031400Z 10010KT 9999 FEW030 26/17 Q1017=
2009040315 - SBKP 031500Z 13008KT 9999 FEW030 27/18 Q1017=
2009040316 - SBKP 031600Z 10010KT 9999 SCT040 28/17 Q1016=
2009040317 - SBKP 031700Z 13008KT 9999 SCT040 28/17 Q1015=
2009040318 - SBKP 031800Z 12010KT 9999 SCT040 28/17 Q1015=
2009040319 - SBKP 031900Z 14010KT 9999 FEW045 28/16 Q1014=
2009040320 - SBKP 032000Z 12010KT 9999 FEW045 28/17 Q1014=
2009040321 - SBKP 032100Z 14009KT 9999 FEW045 26/17 Q1014=
2009040322 - SBKP 032200Z 11009KT CAVOK 24/17 Q1014=
2009040323 - SBKP 032300Z 12011KT CAVOK 23/19 Q1015=
2009040400 - SBKP 040000Z 12013KT CAVOK 22/18 Q1015=
2009040401 - SBKP 040100Z 11013KT CAVOK 21/18 Q1016=
2009040402 - SBKP 040200Z 11012KT CAVOK 21/19 Q1016=
2009040403 - SBKP 040300Z 11011KT CAVOK 20/19 Q1016=
2009040404 - SBKP 040400Z 11011KT CAVOK 20/18 Q1016=
2009040405 - SBKP 040500Z 12008KT CAVOK 19/18 Q1016=
2009040406 - SBKP 040600Z 11006KT CAVOK 19/18 Q1016=
2009040407 - SBKP 040700Z 11005KT CAVOK 19/18 Q1015=
2009040408 - SBKP 040800Z 10004KT CAVOK 19/19 Q1016=
2009040409 - SBKP 040900Z 11005KT CAVOK 19/18 Q1016=
2009040410 - SBKP 041000Z 11006KT CAVOK 19/19 Q1017=
2009040411 - SBKP 041100Z 11008KT CAVOK 21/19 Q1017=
2009040412 - SBKP 041200Z 08005KT CAVOK 24/18 Q1018=
2009040413 - SBKP 041300Z 03008KT CAVOK 25/18 Q1018=
2009040414 - SBKP 041400Z 03005KT 9999 FEW030 27/17 Q1017=
2009040415 - SBKP 041500Z 35007KT 9999 SCT040 SCT080 28/18 Q1017=
2009040416 - SBKP 041600Z 35009KT 9999 SCT045 BKN100 29/18 Q1016=
2009040417 - SBKP 041700Z 33011KT 9999 BKN045 BKN100 29/18 Q1015=
2009040418 - SBKP 041800Z 34009KT 9999 BKN045 BKN100 28/18 Q1015=
2009040419 - SBKP 041900Z 01008KT 9999 SCT040 28/18 Q1015=
2009040420 - SBKP 042000Z 36008KT 9999 FEW040 SCT100 28/19 Q1015=
2009040421 - SBKP 042100Z 34006KT 9999 FEW040 BKN080 27/19 Q1015=
2009040422 - SBKP 042200Z 01004KT CAVOK 26/18 Q1015=
2009040423 - SBKP 042300Z 36004KT CAVOK 25/19 Q1016=
2009040500 - SBKP 050000Z 01004KT CAVOK 25/18 Q1016=
2009040501 - SBKP 050100Z 13006KT CAVOK 24/19 Q1016=
2009040502 - SBKP 050200Z 11004KT CAVOK 24/19 Q1016=
2009040503 - SBKP 050300Z 20005KT CAVOK 24/20 Q1016=
2009040504 - SBKP 050400Z 10004KT CAVOK 23/20 Q1016=
2009040505 - SBKP 050500Z 10003KT CAVOK 22/21 Q1015=
2009040506 - SBKP 050600Z 11004KT 9999 SCT045 BKN100 22/21 Q1015=
2009040507 - SBKP 050700Z 08003KT 9999 SCT045 BKN100 22/21 Q1015=
2009040508 - SBKP 050800Z 11004KT 9999 FEW045 BKN100 22/21 Q1015=
2009040509 - SBKP 050900Z 13004KT 9999 FEW045 BKN100 21/21 Q1015=
2009040510 - SBKP 051000Z 10005KT 9999 FEW045 SCT075 21/21 Q1016=
2009040511 - SBKP 051100Z 09004KT 9999 FEW045 SCT075 23/20 Q1016=
2009040512 - SBKP 051200Z 02006KT 9999 FEW045 SCT080 25/20 Q1016=
2009040513 - SBKP 051300Z 01008KT 9999 FEW035 SCT080 27/20 Q1016=
2009040514 - SBKP 051400Z 33008KT 9999 BKN035 SCT080 27/20 Q1016=
2009040515 - SBKP 051500Z 35004KT 9999 BKN035 BKN080 28/20 Q1015=
2009040516 - SBKP 051600Z 01006KT 9999 SCT035 SCT045 BKN080 28/20 Q1015=
2009040517 - SBKP 051700Z 33007KT 9999 SCT035 SCT045 30/20 Q1014=
2009040517 - SBKP 051744Z 30003KT 9999 3000E RA FEW010 SCT035 27/21 Q1013=
2009040518 - SBKP 051800Z 10004KT 9999 4000NE -RA SCT040 FEW050TCU BKN090 26/22 Q1013 RERA=
2009040519 - SBKP 051900Z 29008KT 9999 SCT040 FEW045TCU SCT090 30/20 Q1013=
2009040520 - SBKP 052000Z 30006KT 9999 SCT040 FEW045TCU SCT090 29/20 Q1013=
2009040521 - SBKP 052100Z 05007KT 9999 4000NE VCSH SCT040 SCT045TCU 24/21 Q1013=
2009040522 - SBKP 052200Z 05008KT 9999 FEW040 BKN090 23/21 Q1014=
2009040523 - SBKP 052300Z 10007KT 9999 FEW040 BKN100 22/21 Q1015=
2009040600 - SBKP 060000Z 12010KT CAVOK 22/22 Q1015=
2009040601 - SBKP 060100Z 12012KT CAVOK 22/22 Q1015=
2009040602 - SBKP 060200Z 11012KT CAVOK 22/22 Q1015=
2009040603 - SBKP 060300Z 10009KT 9999 FEW020 BKN072 22/22 Q1015=
2009040604 - SBKP 060400Z 20008KT 9999 FEW020 SCT045 BKN070 22/22 Q1016=
2009040605 - SBKP 060500Z 15010KT 9999 FEW020 BKN045 OVC060 22/21 Q1015=
2009040606 - SBKP 060600Z 14007KT 9999 FEW010 BKN040 OVC060 22/21 Q1014=
2009040607 - SBKP 060700Z 15009KT 9999 BKN040 BKN070 22/21 Q1014=
2009040608 - SBKP 060800Z 12006KT 9999 SCT043 21/21 Q1014=
2009040609 - SBKP 060900Z 10006KT 9999 SCT040 SCT060 21/21 Q1015=
2009040610 - SBKP 061000Z 11005KT 9999 SCT045 BKN080 21/21 Q1015=
2009040611 - SBKP 061100Z 11007KT 9999 SCT045 BKN070 22/21 Q1016=
2009040612 - SBKP 061200Z 11009KT 9999 SCT045 SCT055 BKN070 24/22 Q1017=
2009040613 - SBKP 061300Z 12007KT 3500 -RA BR SCT010 SCT030 BKN070 23/22Q1017=
2009040613 - SBKP 061333Z 34003KT 3000 TSRA BR SCT008 BKN030 FEW040CB OVC070 22/22 Q1017=
2009040614 - SBKP 061400Z 14004KT 3000 -RA BR SCT005 BKN030 OVC070 21/21 Q1017 RETSRA=
2009040615 - SBKP 061500Z 18006KT 5000 -RA BR SCT004 SCT030 BKN040 22/22 Q1017=
2009040616 - SBKP 061600Z 13009KT 4000 -RA BR BKN007 BKN030 OVC100 22/22 Q1016=
2009040617 - SBKP 061700Z 11008KT 9999 BKN030 SCT070 BKN100 23/23 Q1015=
2009040618 - SBKP 061800Z 12008KT 9999 FEW030 BKN070 BKN100 24/22 Q1014=
2009040619 - SBKP 061900Z 11010KT 9999 FEW030 SCT080 24/21 Q1013=
2009040620 - SBKP 062000Z 13008KT CAVOK 24/21 Q1014=
2009040621 - SBKP 062100Z 12008KT CAVOK 23/21 Q1014=
2009040622 - SBKP 062200Z 15006KT CAVOK 23/21 Q1014=
2009040623 - SBKP 062300Z 13011KT CAVOK 22/21 Q1014=
2009040700 - SBKP 070000Z 12012KT CAVOK 21/21 Q1015=
2009040701 - SBKP 070100Z 12011KT CAVOK 21/20 Q1015=
2009040702 - SBKP 070200Z 11012KT CAVOK 21/20 Q1015=
2009040703 - SBKP 070300Z 11012KT CAVOK 21/20 Q1015=
2009040704 - SBKP 070400Z 11008KT CAVOK 21/20 Q1015=
2009040705 - SBKP 070500Z 12011KT CAVOK 20/20 Q1014=
2009040706 - SBKP 070600Z 12011KT CAVOK 20/20 Q1014=
2009040707 - SBKP 070700Z 12010KT CAVOK 20/20 Q1014=
2009040708 - SBKP 070800Z 12010KT CAVOK 19/19 Q1014=
2009040709 - SBKP 070900Z 12009KT CAVOK 19/19 Q1015=
2009040710 - SBKP 071000Z 11008KT 9999 SCT035 19/19 Q1015=
2009040711 - SBKP 071100Z 12011KT 9999 BKN035 SCT100 21/20 Q1016=
2009040712 - SBKP 071200Z 12010KT 9999 FEW035 SCT100 23/20 Q1016=
2009040713 - SBKP 071300Z 11006KT 9999 FEW020 SCT100 25/20 Q1016=
2009040714 - SBKP 071400Z 10005KT 9999 SCT030 26/19 Q1016=
2009040715 - SBKP 071500Z 05006KT 9999 BKN030 27/20 Q1015=
2009040716 - SBKP 071600Z 17006KT 9999 BKN035 FEW040TCU 27/19 Q1015=
2009040717 - SBKP 071700Z 20005KT 9999 SCT035 FEW040TCU 28/19 Q1014=
2009040718 - SBKP 071800Z 19007KT 9999 BKN035 FEW040TCU 27/20 Q1013=
2009040719 - SBKP 071900Z 17007KT 9999 SCT035 SCT040TCU 27/20 Q1013=
2009040719 - SBKP 071918Z 17013KT 9999 4000SE -TSRA FEW035 SCT040CB 25/24 Q1013=
2009040720 - SBKP 072000Z 10007KT 9999 FEW035 FEW040TCU 23/19 Q1013 RETS=
2009040721 - SBKP 072100Z 12006KT 9999 FEW040 24/22 Q1013=
2009040722 - SBKP 072200Z 12009KT CAVOK 23/21 Q1014=
2009040723 - SBKP 072300Z 12009KT CAVOK 23/21 Q1014=
2009040800 - SBKP 080000Z 15011KT CAVOK 23/20 Q1015=
2009040801 - SBKP 080100Z 12010KT CAVOK 22/20 Q1016=
2009040802 - SBKP 080200Z 11009KT CAVOK 21/20 Q1016=
2009040803 - SBKP 080300Z 12005KT CAVOK 21/20 Q1016=
2009040804 - SBKP 080400Z 12007KT CAVOK 20/20 Q1015=
2009040805 - SBKP 080500Z 12007KT CAVOK 20/20 Q1015=
2009040806 - SBKP 080600Z 11010KT CAVOK 20/20 Q1014=
2009040807 - SBKP 080700Z 11009KT CAVOK 20/20 Q1014=
2009040808 - SBKP 080800Z 11007KT CAVOK 19/19 Q1013=
2009040809 - SBKP 080900Z 17009KT CAVOK 20/19 Q1014=
2009040810 - SBKP 081000Z 11004KT CAVOK 19/19 Q1015=
2009040811 - SBKP 081100Z 12008KT CAVOK 21/19 Q1015=
2009040812 - SBKP 081200Z 12006KT CAVOK 23/20 Q1015=
2009040813 - SBKP 081300Z 13006KT 9999 FEW020 24/20 Q1016=
2009040814 - SBKP 081400Z 12006KT 9999 BKN030 26/20 Q1016=
2009040815 - SBKP 081500Z 13010KT 9999 BKN030 26/19 Q1016=
2009040816 - SBKP 081600Z 14007KT 9999 SCT035 27/18 Q1015=
2009040817 - SBKP 081700Z 17008KT 9999 SCT040 27/18 Q1014=
2009040818 - SBKP 081800Z 16007KT 9999 SCT040 28/18 Q1014=
2009040819 - SBKP 081900Z 14009KT 9999 FEW045 28/17 Q1013=
2009040820 - SBKP 082000Z 13011KT 9999 FEW045 27/16 Q1014=
2009040821 - SBKP 082100Z 15011KT 9999 FEW045 26/16 Q1014=
2009040822 - SBKP 082200Z 14014KT CAVOK 24/17 Q1015=
2009040823 - SBKP 082300Z 13011KT CAVOK 22/17 Q1016=
2009040900 - SBKP 090000Z 12008KT CAVOK 21/18 Q1016=
2009040901 - SBKP 090100Z 12009KT CAVOK 20/18 Q1016=
2009040902 - SBKP 090200Z 13007KT CAVOK 20/18 Q1016=
2009040903 - SBKP 090300Z 12008KT CAVOK 19/18 Q1016=
2009040904 - SBKP 090400Z 14007KT CAVOK 20/18 Q1016=
2009040905 - SBKP 090500Z 10003KT CAVOK 19/18 Q1016=
2009040906 - SBKP 090600Z 14004KT CAVOK 19/19 Q1016=
2009040907 - SBKP 090700Z 16004KT CAVOK 19/19 Q1015=
2009040908 - SBKP 090800Z 19004KT CAVOK 19/18 Q1015=
2009040909 - SBKP 090900Z 17006KT CAVOK 18/18 Q1016=
2009040910 - SBKP 091000Z 18006KT 8000 FEW020 19/18 Q1017=
2009040911 - SBKP 091100Z 07004KT 9999 FEW020 21/19 Q1018=
2009040912 - SBKP 091200Z 13008KT 9999 SCT020 22/19 Q1018=
2009040913 - SBKP 091300Z 11009KT 9999 BKN025 23/18 Q1018=
2009040914 - SBKP 091400Z 10007KT 9999 SCT030 25/18 Q1018=
2009040915 - SBKP 091500Z 12005KT 9999 SCT035 25/17 Q1017=
2009040916 - SBKP 091600Z 09003KT 9999 SCT035 27/17 Q1016=
2009040917 - SBKP 091700Z 07002KT 9999 SCT040 28/17 Q1015=
2009040918 - SBKP 091800Z 11004KT 9999 SCT040 28/17 Q1014=
2009040919 - SBKP 091900Z 22004KT 9999 FEW045 27/16 Q1014=
2009040920 - SBKP 092000Z 22007KT 9999 FEW045 27/16 Q1014=
2009040921 - SBKP 092100Z 19007KT 9999 FEW045 26/17 Q1014=
2009040922 - SBKP 092200Z 21004KT CAVOK 25/18 Q1015=
2009040923 - SBKP 092300Z 15004KT CAVOK 24/19 Q1015=
2009041000 - SBKP 100000Z 14007KT CAVOK 23/19 Q1016=
2009041001 - SBKP 100100Z 11008KT CAVOK 21/20 Q1016=
2009041002 - SBKP 100200Z 11008KT 8000 NSC 21/20 Q1016=
2009041003 - SBKP 100300Z 11007KT 8000 NSC 20/20 Q1016=
2009041004 - SBKP 100400Z 11008KT 7000 NSC 20/20 Q1015=
2009041005 - SBKP 100500Z 11007KT 7000 NSC 20/20 Q1015=
2009041006 - SBKP 100600Z 12005KT 6000 NSC 19/19 Q1015=
2009041007 - SBKP 100700Z 08004KT 6000 NSC 19/19 Q1014=
2009041008 - SBKP 100800Z 10005KT 6000 NSC 18/18 Q1015=
2009041009 - SBKP 100900Z 11005KT 4000 BR NSC 18/18 Q1015=
2009041010 - SBKP 101000Z 11005KT 3000 BR FEW040 18/18 Q1015=
2009041011 - SBKP 101100Z 15002KT 5000 BR NSC 21/20 Q1016=
2009041012 - SBKP 101200Z 36001KT 6000 NSC 23/19 Q1016=
2009041013 - SBKP 101300Z 30003KT 7000 NSC 24/19 Q1016=
2009041014 - SBKP 101400Z 24006KT 9999 FEW025 26/19 Q1016=
2009041015 - SBKP 101500Z 25005KT 9999 SCT025 27/19 Q1015=
2009041016 - SBKP 101600Z 23008KT 9999 SCT030 27/18 Q1014=
2009041017 - SBKP 101700Z 21008KT 9999 SCT030 28/16 Q1013=
2009041018 - SBKP 101800Z 20007KT 9999 FEW030 29/15 Q1013=
2009041019 - SBKP 101900Z 20009KT 9999 FEW045 28/15 Q1013=
2009041020 - SBKP 102000Z 19010KT 9999 FEW045 28/15 Q1013=
2009041021 - SBKP 102100Z 19009KT CAVOK 26/16 Q1014=
2009041022 - SBKP 102200Z 13013KT CAVOK 23/18 Q1014=
2009041023 - SBKP 102300Z 12010KT CAVOK 22/18 Q1015=
2009041000 - SBKP 100000Z 14007KT CAVOK 23/19 Q1016=
2009041001 - SBKP 100100Z 11008KT CAVOK 21/20 Q1016=
2009041002 - SBKP 100200Z 11008KT 8000 NSC 21/20 Q1016=
2009041003 - SBKP 100300Z 11007KT 8000 NSC 20/20 Q1016=
2009041004 - SBKP 100400Z 11008KT 7000 NSC 20/20 Q1015=
2009041005 - SBKP 100500Z 11007KT 7000 NSC 20/20 Q1015=
2009041006 - SBKP 100600Z 12005KT 6000 NSC 19/19 Q1015=
2009041007 - SBKP 100700Z 08004KT 6000 NSC 19/19 Q1014=
2009041008 - SBKP 100800Z 10005KT 6000 NSC 18/18 Q1015=
2009041009 - SBKP 100900Z 11005KT 4000 BR NSC 18/18 Q1015=
2009041010 - SBKP 101000Z 11005KT 3000 BR FEW040 18/18 Q1015=
2009041011 - SBKP 101100Z 15002KT 5000 BR NSC 21/20 Q1016=
2009041012 - SBKP 101200Z 36001KT 6000 NSC 23/19 Q1016=
2009041013 - SBKP 101300Z 30003KT 7000 NSC 24/19 Q1016=
2009041014 - SBKP 101400Z 24006KT 9999 FEW025 26/19 Q1016=
2009041015 - SBKP 101500Z 25005KT 9999 SCT025 27/19 Q1015=
2009041016 - SBKP 101600Z 23008KT 9999 SCT030 27/18 Q1014=
2009041017 - SBKP 101700Z 21008KT 9999 SCT030 28/16 Q1013=
2009041018 - SBKP 101800Z 20007KT 9999 FEW030 29/15 Q1013=
2009041019 - SBKP 101900Z 20009KT 9999 FEW045 28/15 Q1013=
2009041020 - SBKP 102000Z 19010KT 9999 FEW045 28/15 Q1013=
2009041021 - SBKP 102100Z 19009KT CAVOK 26/16 Q1014=
2009041022 - SBKP 102200Z 13013KT CAVOK 23/18 Q1014=
2009041023 - SBKP 102300Z 12010KT CAVOK 22/18 Q1015=
2009041100 - SBKP 110000Z 11015KT CAVOK 21/18 Q1015=
2009041201 - SBKP 120100Z 11013KT CAVOK 20/17 Q1017=
2009041202 - SBKP 120200Z 12016KT CAVOK 19/17 Q1017=
2009041203 - SBKP 120300Z 12014KT CAVOK 18/17 Q1017=
2009041204 - SBKP 120400Z 11014KT CAVOK 18/17 Q1017=
2009041205 - SBKP 120500Z 12015KT CAVOK 18/16 Q1017=
2009041206 - SBKP 120600Z 12016KT CAVOK 18/17 Q1017=
2009041207 - SBKP 120700Z 11016KT CAVOK 17/17 Q1017=
2009041208 - SBKP 120800Z 12016KT CAVOK 17/17 Q1017=
2009041209 - SBKP 120900Z 12015KT 9999 FEW010 16/16 Q1017=
2009041210 - SBKP 121000Z 12016KT 5000 BR BKN010 17/17 Q1018=
2009041210 - SBKP 121032Z 11010KT 4000 BR BKN005 17/17 Q1019=
2009041211 - SBKP 121100Z 11012KT 6000 FEW005 18/18 Q1018=
2009041212 - SBKP 121200Z 11009KT 9000 NSC 20/19 Q1019=
2009041213 - SBKP 121300Z 10007KT CAVOK 22/19 Q1020=
2009041214 - SBKP 121400Z 09004KT 9999 FEW020 25/19 Q1020=
2009041215 - SBKP 121500Z 11004KT 9999 FEW030 27/18 Q1019=
2009041216 - SBKP 121600Z 07003KT 9999 SCT040 28/18 Q1018=
2009041217 - SBKP 121700Z 30003KT 9999 SCT040 28/18 Q1017=
2009041218 - SBKP 121800Z 12005KT 9999 BKN040 28/18 Q1017=
2009041219 - SBKP 121900Z 16007KT 9999 SCT040 FEW045TCU SCT100 28/19 Q1017=
2009041220 - SBKP 122000Z 14013KT 9999 FEW040 FEW045TCU SCT100 27/20 Q1017=
2009041221 - SBKP 122100Z 14014KT 6000 FEW045TCU SCT100 26/19 Q1017=
2009041222 - SBKP 122200Z 12014KT 8000 NSC 23/19 Q1018=
2009041223 - SBKP 122300Z 11017KT CAVOK 22/19 Q1018=
2009041300 - SBKP 130000Z 11015KT CAVOK 21/19 Q1019=
2009041301 - SBKP 130100Z 11015KT CAVOK 21/19 Q1020=
2009041302 - SBKP 130200Z 11014KT CAVOK 21/19 Q1020=
2009041303 - SBKP 130300Z 12014KT CAVOK 21/19 Q1020=
2009041304 - SBKP 130400Z 11015KT CAVOK 20/19 Q1019=
2009041305 - SBKP 130500Z 11013KT CAVOK 20/19 Q1019=
2009041306 - SBKP 130600Z 11012KT 9999 FEW045 BKN100 20/19 Q1018=
2009041307 - SBKP 130700Z 11012KT 9999 FEW045 SCT100 20/19 Q1018=
2009041308 - SBKP 130800Z 11010KT 9999 FEW045 BKN100 20/19 Q1018=
2009041309 - SBKP 130900Z 11009KT 9999 FEW040 SCT070 BKN100 20/19 Q1018=
2009041310 - SBKP 131000Z 10007KT 8000 FEW040 SCT070 BKN100 20/19 Q1019=
2009041311 - SBKP 131100Z 10006KT 8000 FEW045 SCT070 BKN100 20/20 Q1020=
2009041312 - SBKP 131200Z 11006KT 8000 FEW045 SCT070 BKN100 21/20 Q1020=
2009041313 - SBKP 131300Z 13004KT 8000 FEW045 BKN100 22/20 Q1021=
2009041314 - SBKP 131400Z 10004KT 6000 FEW030 SCT085 BKN100 24/21 Q1021=
2009041315 - SBKP 131500Z 11004KT 9999 FEW025 SCT090 BKN100 24/21 Q1020=
2009041316 - SBKP 131600Z 12005KT 7000 -RA FEW012 BKN018 OVC090 23/22 Q1020=
2009041317 - SBKP 131700Z 14006KT 5000 -RA BR SCT013 BKN018 OVC090 23/22 Q1019=
2009041317 - SBKP 131705Z 14005KT 4500 -TSRA BR SCT013 BKN025 FEW035CB OVC090 23/23 Q1019=
2009041317 - SBKP 131735Z 12004KT 4000 RA BR SCT013 BKN025 BKN090 22/21 Q1018 RETS=
2009041318 - SBKP 131800Z 12005KT 9999 -RA FEW012 SCT030 FEW040TCU BKN080 22/21 Q1018 RETSRA=
2009041318 - SBKP 131822Z 12004KT 8000 3000NE -TSRA FEW012 SCT030 FEW040CB BKN080 23/20 Q1018=
2009041319 - SBKP 131900Z 11005KT 9999 3000E -TSRA SCT025 FEW040CB BKN080 23/22 Q1018=
2009041320 - SBKP 132000Z 10005KT 3000 -TSRA BR SCT025 SCT040CB BKN080 21/21 Q1018=
2009041321 - SBKP 132100Z 13004KT 4000 -TSRA BR FEW040CB BKN080 21/21 Q1019=
2009041322 - SBKP 132200Z 35001KT 8000 -TSRA FEW001 SCT040CB BKN080 21/21 Q1020=
2009041323 - SBKP 132300Z 12003KT 4000 -TSRA BR SCT002 SCT030CB OVC080 21/21 Q1021=
2009041400 - SBKP 140000Z 18005KT 6000 -RA SCT002 SCT040 OVC080 20/20 Q1021 RETS=
2009041401 - SBKP 140100Z 10005KT 9999 FEW002 20/20 Q1020=
2009041402 - SBKP 140200Z 10004KT 9999 FEW040 OVC100 20/20 Q1020=
2009041403 - SBKP 140300Z 05004KT 9999 FEW040 SCT070 BKN100 20/20 Q1020=
2009041404 - SBKP 140400Z 03004KT 9999 FEW040 SCT070 BKN100 20/20 Q1020=
2009041405 - SBKP 140500Z 03005KT 9999 FEW040 SCT070 BKN100 20/20 Q1020=
2009041406 - SBKP 140600Z 07005KT 9999 FEW007 SCT040 BKN070 20/20 Q1019=
2009041407 - SBKP 140700Z 36004KT 9999 SCT009 SCT040 OVC100 20/20 Q1019=
2009041408 - SBKP 140800Z 02003KT 9999 SCT008 BKN040 OVC100 20/20 Q1018=
2009041409 - SBKP 140900Z 36006KT 9999 FEW006 BKN016 OVC100 19/19 Q1019=
2009041410 - SBKP 141000Z 01005KT 9999 -RA FEW006 BKN012 OVC100 19/19 Q1019=
2009041411 - SBKP 141100Z 02007KT 9999 -RA SCT007 OVC009 19/19 Q1020=
2009041412 - SBKP 141200Z 04003KT 5000 -RA BR BKN006 OVC008 19/19 Q1021=
2009041412 - SBKP 141225Z 04008KT 7000 SCT008 SCT015 BKN090 20/20 Q1020=
2009041413 - SBKP 141300Z 08006KT 7000 SCT007 SCT012 BKN080 20/20 Q1020=
2009041414 - SBKP 141400Z 03008KT 9999 FEW012 BKN100 22/21 Q1020=
2009041415 - SBKP 141500Z 36007KT 9999 FEW014 BKN017 BKN100 23/21 Q1020=
2009041416 - SBKP 141600Z 01009KT 9999 BKN033 BKN100 23/20 Q1020=
2009041417 - SBKP 141700Z 32006KT 9999 SCT025 SCT100 24/19 Q1019=
2009041418 - SBKP 141800Z 33003KT 9999 SCT030 24/19 Q1018=
2009041419 - SBKP 141900Z 02003KT 9999 SCT035 25/18 Q1018=
2009041420 - SBKP 142000Z 33003KT 9999 SCT035 25/19 Q1018=
2009041421 - SBKP 142100Z 11004KT 9999 SCT035 SCT055 23/19 Q1018=
2009041422 - SBKP 142200Z 05003KT 9999 FEW035 23/20 Q1019=
2009041423 - SBKP 142300Z 04003KT CAVOK 22/20 Q1019=
2009041500 - SBKP 150000Z 03003KT CAVOK 21/20 Q1019=
2009041501 - SBKP 150100Z 09003KT CAVOK 20/20 Q1019=
2009041502 - SBKP 150200Z 08004KT CAVOK 20/20 Q1019=
2009041503 - SBKP 150300Z 11006KT CAVOK 19/19 Q1019=
2009041504 - SBKP 150400Z 12006KT 9999 FEW030 SCT060 19/19 Q1019=
2009041505 - SBKP 150500Z 16005KT 9999 SCT030 BKN060 20/20 Q1019=
2009041506 - SBKP 150600Z 12007KT 9999 SCT030 SCT060 19/19 Q1019=
2009041507 - SBKP 150700Z 21003KT 9999 BKN016 BKN020 19/19 Q1019=
2009041508 - SBKP 150800Z 17006KT 9999 SCT016 BKN030 19/19 Q1019=
2009041509 - SBKP 150900Z 14007KT 9999 BKN020 BKN035 19/19 Q1019=
2009041510 - SBKP 151000Z 14002KT 8000 BKN035 BKN050 BKN070 19/19 Q1020=
2009041511 - SBKP 151100Z 20006KT 7000 FEW030 BKN050 BKN075 20/20 Q1021=
2009041512 - SBKP 151200Z 15009KT 9999 FEW030 BKN050 BKN075 21/20 Q1021=
2009041513 - SBKP 151300Z 14007KT 9999 FEW020 BKN050 BKN075 22/19 Q1021=
2009041514 - SBKP 151400Z 13012KT 9999 SCT040 SCT070 23/18 Q1021=
2009041515 - SBKP 151500Z 13011KT 9999 FEW040 24/17 Q1021=
2009041516 - SBKP 151600Z 16007KT 9999 FEW040 25/17 Q1020=
2009041517 - SBKP 151700Z 16009KT 9999 BKN040 25/17 Q1019=
2009041518 - SBKP 151800Z 16013KT 9999 FEW045 26/16 Q1019=
2009041519 - SBKP 151900Z 16012KT 9999 FEW045 26/16 Q1019=
2009041520 - SBKP 152000Z 13010KT 9999 FEW045 24/17 Q1019=
2009041521 - SBKP 152100Z 16014KT 9999 FEW045 23/16 Q1020=
2009041522 - SBKP 152200Z 15011KT CAVOK 21/16 Q1020=
2009041523 - SBKP 152300Z 15012KT 9999 BKN030 21/16 Q1021=
2009041600 - SBKP 160000Z 13007KT CAVOK 19/16 Q1021=
2009041601 - SBKP 160100Z 12007KT CAVOK 19/16 Q1022=
2009041602 - SBKP 160200Z 16005KT CAVOK 19/16 Q1022=
2009041603 - SBKP 160300Z 13006KT CAVOK 17/17 Q1022=
2009041604 - SBKP 160400Z 16010KT CAVOK 18/17 Q1022=
2009041605 - SBKP 160500Z 12006KT CAVOK 17/17 Q1021=
2009041606 - SBKP 160600Z 14011KT CAVOK 18/17 Q1021=
2009041607 - SBKP 160700Z 12009KT CAVOK 17/17 Q1021=
2009041608 - SBKP 160800Z 12010KT CAVOK 17/17 Q1021=
2009041609 - SBKP 160900Z 12010KT CAVOK 17/17 Q1021=
2009041610 - SBKP 161000Z 12012KT CAVOK 17/17 Q1022=
2009041611 - SBKP 161100Z 12014KT 9999 FEW020 19/16 Q1022=
2009041612 - SBKP 161200Z 12018KT 9999 FEW025 20/15 Q1022=
2009041613 - SBKP 161300Z 13018KT 9999 FEW030 22/15 Q1023=
2009041614 - SBKP 161400Z 12014KT 9999 FEW030 22/15 Q1023=
2009041615 - SBKP 161500Z 12012KT 9999 FEW030 23/15 Q1022=
2009041616 - SBKP 161600Z 15012KT 9999 FEW035 24/15 Q1021=
2009041617 - SBKP 161700Z 14013KT 9999 FEW040 25/15 Q1021=
2009041618 - SBKP 161800Z 14013KT 9999 FEW040 25/15 Q1021=
2009041619 - SBKP 161900Z 13014KT 9999 SCT040 24/15 Q1021=
2009041620 - SBKP 162000Z 15017KT 9999 FEW040 23/15 Q1021=
2009041621 - SBKP 162100Z 13016KT CAVOK 21/15 Q1022=
2009041622 - SBKP 162200Z 14014KT CAVOK 20/14 Q1022=
2009041623 - SBKP 162300Z 13013KT CAVOK 18/14 Q1023=
2009041700 - SBKP 170000Z 12013KT CAVOK 17/14 Q1023=
2009041701 - SBKP 170100Z 12011KT CAVOK 16/13 Q1023=
2009041702 - SBKP 170200Z 12013KT CAVOK 16/13 Q1023=
2009041703 - SBKP 170300Z 12013KT CAVOK 16/13 Q1023=
2009041704 - SBKP 170400Z 12013KT CAVOK 15/13 Q1022=
2009041705 - SBKP 170500Z 12015KT CAVOK 15/13 Q1021=
2009041706 - SBKP 170600Z 11013KT CAVOK 15/13 Q1021=
2009041707 - SBKP 170700Z 11014KT CAVOK 15/13 Q1021=
2009041708 - SBKP 170800Z 11014KT CAVOK 15/13 Q1021=
2009041709 - SBKP 170900Z 12014KT 9999 FEW040 14/13 Q1021=
2009041710 - SBKP 171000Z 12014KT 9999 FEW040 15/13 Q1022=
2009041711 - SBKP 171100Z 12014KT 9999 FEW045 17/14 Q1022=
2009041712 - SBKP 171200Z 12016KT 9999 FEW045 19/14 Q1023=
2009041713 - SBKP 171300Z 11010KT CAVOK 21/15 Q1023=
2009041714 - SBKP 171400Z 10007KT CAVOK 23/15 Q1023=
2009041715 - SBKP 171500Z 14006KT 9999 FEW040 24/15 Q1022=
2009041716 - SBKP 171600Z 14002KT 9999 FEW040 25/15 Q1021=
2009041717 - SBKP 171700Z 18003KT 9999 FEW040 26/13 Q1020=
2009041718 - SBKP 171800Z 14006KT 9999 FEW040 26/12 Q1019=
2009041719 - SBKP 171900Z 13003KT 9999 FEW040 27/12 Q1019=
2009041720 - SBKP 172000Z 20009KT 9999 FEW040 26/14 Q1019=
2009041721 - SBKP 172100Z 14008KT 9999 FEW045 25/14 Q1020=
2009041722 - SBKP 172200Z 12011KT CAVOK 22/15 Q1020=
2009041723 - SBKP 172300Z 12012KT CAVOK 20/16 Q1020=
2009041800 - SBKP 180000Z 12012KT 9000 NSC 19/16 Q1020=
2009041801 - SBKP 180100Z 11012KT 8000 NSC 18/16 Q1020=
2009041802 - SBKP 180200Z 12011KT 7000 NSC 17/16 Q1021=
2009041803 - SBKP 180300Z 13012KT CAVOK 16/16 Q1020=
2009041804 - SBKP 180400Z 12013KT CAVOK 16/15 Q1020=
2009041805 - SBKP 180500Z 12012KT CAVOK 16/15 Q1020=
2009041806 - SBKP 180600Z 12013KT CAVOK 16/15 Q1019=
2009041807 - SBKP 180700Z 11012KT CAVOK 15/15 Q1019=
2009041808 - SBKP 180800Z 11011KT CAVOK 15/15 Q1019=
2009041809 - SBKP 180900Z 10006KT CAVOK 15/15 Q1020=
2009041810 - SBKP 181000Z 11006KT CAVOK 15/15 Q1020=
2009041811 - SBKP 181100Z 11006KT CAVOK 17/16 Q1021=
2009041812 - SBKP 181200Z 10004KT CAVOK 20/16 Q1021=
2009041813 - SBKP 181300Z 05003KT CAVOK 22/15 Q1021=
2009041814 - SBKP 181400Z 03004KT CAVOK 24/14 Q1021=
2009041815 - SBKP 181500Z 01004KT 9999 FEW030 25/14 Q1020=
2009041816 - SBKP 181600Z 28004KT 9999 FEW030 26/13 Q1019=
2009041817 - SBKP 181700Z 28005KT 9999 FEW030 26/12 Q1019=
2009041818 - SBKP 181800Z 32003KT 9999 FEW030 27/12 Q1018=
2009041819 - SBKP 181900Z 30004KT 9999 FEW030 27/12 Q1018=
2009041820 - SBKP 182000Z 28005KT CAVOK 27/13 Q1018=
2009041821 - SBKP 182100Z 24004KT CAVOK 25/14 Q1018=
2009041822 - SBKP 182200Z 21004KT CAVOK 24/15 Q1018=
2009041823 - SBKP 182300Z 19006KT CAVOK 23/14 Q1018=
2009041900 - SBKP 190000Z 15004KT CAVOK 22/14 Q1019=
2009041901 - SBKP 190100Z 11005KT CAVOK 19/15 Q1019=
2009041902 - SBKP 190200Z 11007KT CAVOK 18/15 Q1018=
2009041903 - SBKP 190300Z 12009KT CAVOK 18/17 Q1018=
2009041904 - SBKP 190400Z 11009KT CAVOK 18/17 Q1018=
2009041905 - SBKP 190500Z 11009KT CAVOK 17/17 Q1018=
2009041906 - SBKP 190600Z 08005KT CAVOK 17/17 Q1018=
2009041907 - SBKP 190700Z 09005KT CAVOK 16/16 Q1017=
2009041908 - SBKP 190800Z 11005KT CAVOK 15/15 Q1017=
2009041909 - SBKP 190900Z 12006KT CAVOK 15/15 Q1018=
2009041910 - SBKP 191000Z 10006KT 5000 BR NSC 15/15 Q1019=
2009041911 - SBKP 191100Z 10005KT 5000 BR NSC 17/17 Q1020=
2009041912 - SBKP 191200Z 07002KT 5000 HZ NSC 20/16 Q1020=
2009041913 - SBKP 191300Z 36002KT 8000 NSC 23/16 Q1020=
2009041914 - SBKP 191400Z 35004KT CAVOK 24/15 Q1020=
2009041915 - SBKP 191500Z 35006KT CAVOK 26/14 Q1019=
2009041916 - SBKP 191600Z 32006KT CAVOK 27/12 Q1018=
2009041917 - SBKP 191700Z 27006KT CAVOK 27/09 Q1017=
2009041918 - SBKP 191800Z 30004KT CAVOK 28/11 Q1016=
2009041919 - SBKP 191900Z 31004KT CAVOK 28/10 Q1016=
2009041920 - SBKP 192000Z 29004KT CAVOK 27/11 Q1016=
2009041921 - SBKP 192100Z 25004KT CAVOK 26/12 Q1017=
2009041922 - SBKP 192200Z 20006KT CAVOK 24/13 Q1017=
2009041923 - SBKP 192300Z 17004KT CAVOK 24/13 Q1018=
2009042000 - SBKP 200000Z 11006KT CAVOK 21/14 Q1018=
2009042001 - SBKP 200100Z 12008KT CAVOK 20/14 Q1018=
2009042002 - SBKP 200200Z 14005KT CAVOK 19/14 Q1019=
2009042003 - SBKP 200300Z 11008KT CAVOK 19/14 Q1018=
2009042004 - SBKP 200400Z 11009KT CAVOK 18/14 Q1018=
2009042005 - SBKP 200500Z 11009KT CAVOK 17/14 Q1018=
2009042006 - SBKP 200600Z 09005KT CAVOK 16/14 Q1017=
2009042007 - SBKP 200700Z 09008KT CAVOK 17/14 Q1017=
2009042008 - SBKP 200800Z 11008KT CAVOK 16/14 Q1018=
2009042009 - SBKP 200900Z 11009KT CAVOK 16/16 Q1018=
2009042010 - SBKP 201000Z 09008KT 5000 BR FEW035 17/17 Q1019=
2009042011 - SBKP 201100Z 12013KT 4000 BR NSC 19/18 Q1020=
2009042012 - SBKP 201200Z 10006KT 5000 HZ NSC 21/17 Q1020=
2009042013 - SBKP 201300Z 36003KT 8000 NSC 24/16 Q1020=
2009042014 - SBKP 201400Z 26003KT 8000 FEW030 25/15 Q1020=
2009042015 - SBKP 201500Z 24006KT 9999 FEW035 25/16 Q1020=
2009042016 - SBKP 201600Z 25006KT 9999 FEW035 27/15 Q1019=
2009042017 - SBKP 201700Z 30006KT 9999 SCT040 27/13 Q1018=
2009042018 - SBKP 201800Z 26004KT 9999 SCT040 27/12 Q1018=
2009042019 - SBKP 201900Z 21004KT 9999 SCT040 27/11 Q1018=
2009042020 - SBKP 202000Z 25007KT 9999 FEW040 27/12 Q1018=
2009042021 - SBKP 202100Z 20010KT 9999 FEW040 24/16 Q1019=
2009042022 - SBKP 202200Z 17008KT CAVOK 23/17 Q1020=
2009042023 - SBKP 202300Z 16009KT CAVOK 21/17 Q1020=
2009042100 - SBKP 210000Z 15007KT CAVOK 20/17 Q1021=
2009042101 - SBKP 210100Z 13008KT CAVOK 19/17 Q1021=
2009042102 - SBKP 210200Z 11011KT CAVOK 18/17 Q1020=
2009042103 - SBKP 210300Z 11011KT CAVOK 18/17 Q1020=
2009042104 - SBKP 210400Z 12012KT CAVOK 18/17 Q1020=
2009042105 - SBKP 210500Z 11013KT CAVOK 18/17 Q1020=
2009042106 - SBKP 210600Z 11013KT CAVOK 18/17 Q1019=
2009042107 - SBKP 210700Z 11011KT CAVOK 18/18 Q1020=
2009042108 - SBKP 210800Z 11010KT CAVOK 19/18 Q1020=
2009042109 - SBKP 210900Z 12007KT CAVOK 19/17 Q1021=
2009042110 - SBKP 211000Z 11008KT CAVOK 18/17 Q1021=
2009042111 - SBKP 211100Z 12015KT CAVOK 20/17 Q1022=
2009042112 - SBKP 211200Z 11016KT CAVOK 21/17 Q1022=
2009042113 - SBKP 211300Z 12014KT 9999 FEW025 22/17 Q1023=
2009042114 - SBKP 211400Z 12012KT 9999 FEW025 23/17 Q1023=
2009042115 - SBKP 211500Z 12014KT 9999 SCT030 24/17 Q1022=
2009042116 - SBKP 211600Z 14013KT 9999 SCT030 24/16 Q1021=
2009042117 - SBKP 211700Z 12011KT 9999 FEW030 25/16 Q1020=
2009042118 - SBKP 211800Z 12010KT 9999 FEW040 25/15 Q1020=
2009042119 - SBKP 211900Z 12012KT 9999 FEW040 24/16 Q1020=
2009042120 - SBKP 212000Z 14015KT 9999 FEW040 23/16 Q1020=
2009042121 - SBKP 212100Z 12013KT CAVOK 21/16 Q1020=
2009042122 - SBKP 212200Z 12013KT CAVOK 20/16 Q1020=
2009042123 - SBKP 212300Z 11013KT CAVOK 19/16 Q1021=
2009042200 - SBKP 220000Z 11013KT CAVOK 19/16 Q1021=
2009042201 - SBKP 220100Z 11013KT CAVOK 18/17 Q1020=
2009042202 - SBKP 220200Z 11013KT CAVOK 18/16 Q1020=
2009042203 - SBKP 220300Z 11014KT CAVOK 18/16 Q1020=
2009042204 - SBKP 220400Z 11014KT CAVOK 18/16 Q1019=
2009042205 - SBKP 220500Z 11013KT CAVOK 18/16 Q1019=
2009042206 - SBKP 220600Z 11012KT CAVOK 18/16 Q1018=
2009042207 - SBKP 220700Z 11010KT CAVOK 18/16 Q1018=
2009042208 - SBKP 220800Z 11009KT CAVOK 17/16 Q1018=
2009042209 - SBKP 220900Z 11009KT CAVOK 17/16 Q1019=
2009042210 - SBKP 221000Z 11006KT CAVOK 17/16 Q1019=
2009042211 - SBKP 221100Z 10009KT CAVOK 18/16 Q1020=
2009042212 - SBKP 221200Z 10008KT CAVOK 20/17 Q1020=
2009042213 - SBKP 221300Z 06006KT CAVOK 22/16 Q1020=
2009042214 - SBKP 221400Z 06007KT 9999 FEW020 25/15 Q1019=
2009042215 - SBKP 221500Z 01007KT 9999 FEW025 26/15 Q1018=
2009042216 - SBKP 221600Z 01009KT 9999 SCT025 27/15 Q1018=
2009042217 - SBKP 221700Z 34008KT CAVOK 27/14 Q1017=
2009042218 - SBKP 221800Z 32007KT 9999 SCT040 27/13 Q1017=
2009042219 - SBKP 221900Z 33006KT 9999 SCT040 26/14 Q1016=
2009042220 - SBKP 222000Z 27003KT 9999 SCT040 26/13 Q1016=
2009042221 - SBKP 222100Z 29002KT CAVOK 25/13 Q1016=
2009042222 - SBKP 222200Z 00000KT CAVOK 25/14 Q1016=
2009042223 - SBKP 222300Z 14004KT CAVOK 23/15 Q1016=
2009042300 - SBKP 230000Z 10004KT CAVOK 22/15 Q1016=
2009042301 - SBKP 230100Z 13007KT CAVOK 19/16 Q1016=
2009042302 - SBKP 230200Z 11006KT CAVOK 20/18 Q1015=
2009042303 - SBKP 230300Z 11005KT CAVOK 19/18 Q1015=
2009042304 - SBKP 230400Z 10006KT CAVOK 19/18 Q1015=
2009042305 - SBKP 230500Z 12004KT CAVOK 18/18 Q1014=
2009042306 - SBKP 230600Z 09004KT CAVOK 18/18 Q1014=
2009042307 - SBKP 230700Z 06003KT CAVOK 18/18 Q1014=
2009042308 - SBKP 230800Z 07005KT CAVOK 17/17 Q1014=
2009042309 - SBKP 230900Z 10003KT CAVOK 17/17 Q1014=
2009042310 - SBKP 231000Z 14001KT 6000 NSC 18/17 Q1015=
2009042311 - SBKP 231100Z 01004KT 7000 FEW025 BKN100 20/15 Q1015=
2009042312 - SBKP 231200Z 36008KT 9000 FEW025 BKN100 21/14 Q1015=
2009042313 - SBKP 231300Z 35008KT CAVOK 22/15 Q1016=
2009042314 - SBKP 231400Z 31008KT 9999 FEW045 BKN100 23/15 Q1016=
2009042315 - SBKP 231500Z 31005KT 9000 FEW045 BKN095 24/16 Q1014=
2009042316 - SBKP 231600Z 30008KT 9999 FEW045 BKN095 25/16 Q1014=
2009042317 - SBKP 231700Z 29013KT 9999 SCT045 BKN095 26/15 Q1013=
2009042318 - SBKP 231800Z 27010KT 9999 SCT045 BKN095 27/15 Q1013=
2009042319 - SBKP 231900Z 20015G28KT 9999 VCSH BKN045 FEW050TCU BKN070 22/14 Q1014=
2009042319 - SBKP 231930Z 17016G33KT 7000 2000SE RA BKN045 FEW050TCU BKN070 19/15 Q1014=
2009042320 - SBKP 232000Z 19013G24KT 9999 -TSRA BKN045 FEW050CB BKN075 18/16 Q1014 RERA=
2009042321 - SBKP 232100Z 12006KT 9999 -TSRA SCT025 BKN040 FEW050CB BKN075 18/17 Q1015=
2009042321 - SBKP 232110Z 19010KT 4000 TSRA BR SCT025 BKN040 FEW050CB BKN075 18/18 Q1016=
2009042321 - SBKP 232130Z 15004KT 9999 TS SCT040 FEW050CB BKN060 18/18 Q1015 RERA=
2009042322 - SBKP 232200Z 14005KT 9999 FEW040 SCT060 BKN075 18/18 Q1015 RETSRA=
2009042322 - SBKP 232230Z 28003KT 9000 -TSRA BKN040 FEW050CB OVC080 18/18 Q1016=
2009042323 - SBKP 232300Z 06005KT 9999 -RA SCT040 SCT060 BKN090 18/18 Q1015 RETS=
2009042400 - SBKP 240000Z 09002KT 9999 FEW030 BKN090 17/17 Q1015=
2009042401 - SBKP 240100Z 21004KT 9999 FEW030 BKN090 18/18 Q1016=
2009042402 - SBKP 240200Z 13002KT CAVOK 17/17 Q1016=
2009042403 - SBKP 240300Z 34004KT CAVOK 17/17 Q1016=
2009042404 - SBKP 240400Z 05003KT CAVOK 17/17 Q1016=
2009042405 - SBKP 240500Z 14003KT 6000 2000S NSC 16/16 Q1015=
2009042406 - SBKP 240600Z 14003KT 0000 R33/0400 R15/P2000 FG NSC 16/16 Q1015=
2009042407 - SBKP 240700Z 13004KT 0000 R15/0400 R33/0450 FG NSC 15/15 Q1015=
2009042407 - SBKP 240720Z 13004KT 1000 R15/1100 R33/P2000 BR NSC 15/15 Q1015=
2009042408 - SBKP 240800Z 13003KT 3000 BR NSC 15/15 Q1015=
2009042409 - SBKP 240900Z 13004KT 4000 BR FEW005 14/14 Q1015=
2009042409 - SBKP 240930Z 12003KT 0000 R15/P2000 R33/0500 FG NSC 14/14 Q1016=
2009042410 - SBKP 241000Z 08003KT 0500 R15/1100 R33/0400 FG NSC 14/14 Q1016=
2009042410 - SBKP 241030Z 12004KT 0300 R15/M0350 R33/M0350 FG NSC 14/14 Q1016=
2009042411 - SBKP 241100Z 13004KT 0300 R15/0400 R33/M0350 FG NSC 14/14 Q1017=
2009042411 - SBKP 241150Z 14003KT 0800 R15/P2000 R33/0800 FG NSC 16/16 Q1017=
2009042412 - SBKP 241200Z 14002KT 2200 1000E R15/P2000 R33/1100 BR NSC 16/16 Q1017=
2009042412 - SBKP 241245Z 24002KT 3000 BR FEW005 18/18 Q1017=
2009042413 - SBKP 241300Z 23005KT 5000 BR SCT010 19/19 Q1017=
2009042414 - SBKP 241400Z 24007KT 9999 BKN018 21/17 Q1017=
2009042415 - SBKP 241500Z 21007KT 9999 BKN020 21/17 Q1016=
2009042416 - SBKP 241600Z 25007KT 9999 BKN025 22/17 Q1016=
2009042417 - SBKP 241700Z 24007KT 9999 BKN030 SCT050 23/17 Q1015=
2009042418 - SBKP 241800Z 24006KT 9999 SCT030 BKN050 23/17 Q1015=
2009042419 - SBKP 241900Z 22011KT 9999 SCT030 BKN050 23/17 Q1015=
2009042420 - SBKP 242000Z 25009KT 9999 SCT030 BKN050 22/18 Q1015=
2009042421 - SBKP 242100Z 21009KT 7000 3000NW -RA FEW010 SCT025 BKN045 20/20 Q1016=
2009042422 - SBKP 242200Z 17005KT 9999 FEW010 SCT040 BKN050 19/19 Q1016=
2009042423 - SBKP 242300Z 11002KT 9999 FEW010 SCT015 BKN020 19/19 Q1017=
2009042500 - SBKP 250000Z 19002KT 9999 FEW015 19/19 Q1017=
2009042501 - SBKP 250100Z 20001KT 9999 BKN035 19/19 Q1017=
2009042502 - SBKP 250200Z 21003KT 9999 SCT040 19/19 Q1017=
2009042503 - SBKP 250300Z 15003KT 9999 FEW040 18/18 Q1017=
2009042504 - SBKP 250400Z 21002KT 0500 R33/1100 R15/P2000 FG BKN006 18/18 Q1016=
2009042505 - SBKP 250500Z 16003KT 0500 R33/0400 R15/1200 FG BKN003 17/17 Q1016=
2009042505 - SBKP 250520Z 17003KT 3000 BR SCT004 17/17 Q1016=
2009042506 - SBKP 250600Z 19002KT 2000 BR SCT004 17/17 Q1016=
2009042507 - SBKP 250700Z 16004KT 3000 BR SCT001 16/16 Q1016=
2009042508 - SBKP 250800Z 19001KT 3000 BR SCT001 15/15 Q1016=
2009042509 - SBKP 250900Z 14001KT 8000 FEW008 15/15 Q1017=
2009042510 - SBKP 251000Z 19004KT 5000 1000SE BCFG BKN001 15/15 Q1017=
2009042511 - SBKP 251100Z 19003KT 6000 2500NW BCFG NSC 16/16 Q1018=
2009042512 - SBKP 251200Z 00000KT 7000 SCT015 19/19 Q1018=
2009042513 - SBKP 251300Z 21003KT 9999 BKN020 20/19 Q1018=
2009042514 - SBKP 251400Z 08002KT 9999 BKN030 22/18 Q1018=
2009042515 - SBKP 251500Z 14002KT 9999 BKN030 22/16 Q1017=
2009042516 - SBKP 251600Z 27002KT 9999 SCT030 24/17 Q1016=
2009042517 - SBKP 251700Z 25004KT 9999 SCT030 25/16 Q1016=
2009042518 - SBKP 251800Z 26005KT 9999 SCT040 25/17 Q1015=
2009042519 - SBKP 251900Z 20006KT 9999 FEW040 24/16 Q1016=
2009042520 - SBKP 252000Z 26005KT 9999 FEW040 25/16 Q1016=
2009042521 - SBKP 252100Z 24004KT 9999 FEW045 23/17 Q1016=
2009042522 - SBKP 252200Z 23004KT CAVOK 22/17 Q1016=
2009042523 - SBKP 252300Z 22006KT CAVOK 21/17 Q1017=
2009042600 - SBKP 260000Z 20008KT CAVOK 20/18 Q1017=
2009042601 - SBKP 260100Z 15006KT CAVOK 20/18 Q1017=
2009042602 - SBKP 260200Z 12005KT CAVOK 18/18 Q1017=
2009042603 - SBKP 260300Z 09006KT CAVOK 18/18 Q1017=
2009042604 - SBKP 260400Z 11008KT CAVOK 18/18 Q1017=
2009042605 - SBKP 260500Z 10006KT CAVOK 17/17 Q1017=
2009042606 - SBKP 260600Z 15006KT CAVOK 17/17 Q1017=
2009042607 - SBKP 260700Z 19002KT 9999 4000SE NSC 17/17 Q1017=
2009042608 - SBKP 260800Z 13002KT 6000 2500SE SCT006 17/17 Q1017=
2009042609 - SBKP 260900Z 13004KT 0500 R33/0350 R15/0400 FG BKN001 16/16 Q1017=
2009042610 - SBKP 261000Z 12006KT 0400 R15/0450 R33/0550 FG BKN001 16/16 Q1018=
2009042610 - SBKP 261040Z 14008KT 0800 R15/1200 R33/1000 FG OVC002 16/16 Q1019=
2009042611 - SBKP 261100Z 14007KT 2500 BR OVC002 16/16 Q1019=
2009042611 - SBKP 261120Z 17006KT 0800 R15/1200 R33/P2000 FG OVC002 16/16 Q1019=
2009042612 - SBKP 261200Z 16005KT 2500 BR OVC003 16/16 Q1019=
2009042612 - SBKP 261230Z 11005KT 9999 4000E FEW007 18/18 Q1019=
2009042613 - SBKP 261300Z 10004KT 9999 4000E FEW015 20/19 Q1019=
2009042614 - SBKP 261400Z 19003KT 9999 BKN020 22/18 Q1019=
2009042615 - SBKP 261500Z 18004KT 9999 BKN040 23/18 Q1018=
2009042616 - SBKP 261600Z 23005KT 9999 SCT040 24/16 Q1018=
2009042617 - SBKP 261700Z 20008KT 9999 SCT040 25/16 Q1017=
2009042618 - SBKP 261800Z 25005KT 9999 SCT040 25/14 Q1016=
2009042619 - SBKP 261900Z 21004KT 9999 SCT045 26/15 Q1016=
2009042620 - SBKP 262000Z 21007KT 9999 FEW045 25/16 Q1016=
2009042621 - SBKP 262100Z 20006KT CAVOK 24/16 Q1016=
2009042622 - SBKP 262200Z 19005KT CAVOK 22/16 Q1017=
2009042623 - SBKP 262300Z 17004KT CAVOK 22/15 Q1017=
2009042700 - SBKP 270000Z 18005KT CAVOK 21/16 Q1018=
2009042701 - SBKP 270100Z 13007KT CAVOK 18/17 Q1018=
2009042702 - SBKP 270200Z 12006KT CAVOK 17/17 Q1018=
2009042703 - SBKP 270300Z 14007KT CAVOK 18/18 Q1018=
2009042704 - SBKP 270400Z 13007KT CAVOK 17/17 Q1018=
2009042705 - SBKP 270500Z 17006KT CAVOK 17/17 Q1018=
2009042706 - SBKP 270600Z 15006KT CAVOK 17/17 Q1017=
2009042707 - SBKP 270700Z 11006KT CAVOK 16/16 Q1017=
2009042708 - SBKP 270800Z 15005KT CAVOK 16/16 Q1017=
2009042709 - SBKP 270900Z 19006KT CAVOK 16/16 Q1017=
2009042710 - SBKP 271000Z 15005KT 4000 BR NSC 16/16 Q1018=
2009042710 - SBKP 271030Z 15004KT 9999 4000E NSC 17/17 Q1018=
2009042711 - SBKP 271100Z 10005KT 9999 4000E NSC 18/18 Q1018=
2009042712 - SBKP 271200Z 12008KT 9999 BKN018 19/18 Q1019=
2009042713 - SBKP 271300Z 13011KT 9999 BKN020 21/18 Q1019=
2009042714 - SBKP 271400Z 13008KT 9999 FEW020 BKN025 23/17 Q1019=
2009042715 - SBKP 271500Z 17008KT 9999 FEW020 BKN030 22/18 Q1019=
2009042716 - SBKP 271600Z 14007KT 9999 SCT020 SCT030 23/18 Q1018=
2009042717 - SBKP 271700Z 10008KT 9999 SCT040 24/17 Q1017=
2009042718 - SBKP 271800Z 16010KT 9999 SCT040 25/17 Q1016=
2009042719 - SBKP 271900Z 16011KT 9999 SCT045 25/14 Q1016=
2009042720 - SBKP 272000Z 15013KT 9999 FEW040 25/16 Q1016=
2009042721 - SBKP 272100Z 14009KT 8000 FEW040 23/16 Q1017=
2009042722 - SBKP 272200Z 14009KT CAVOK 21/16 Q1017=
2009042723 - SBKP 272300Z 14014KT CAVOK 20/17 Q1018=
2009042800 - SBKP 280000Z 13013KT CAVOK 19/17 Q1018=
2009042801 - SBKP 280100Z 12010KT CAVOK 18/17 Q1019=
2009042802 - SBKP 280200Z 13013KT CAVOK 18/18 Q1018=
2009042803 - SBKP 280300Z 12011KT CAVOK 18/18 Q1018=
2009042804 - SBKP 280400Z 12010KT CAVOK 18/18 Q1018=
2009042805 - SBKP 280500Z 13012KT CAVOK 18/18 Q1018=
2009042806 - SBKP 280600Z 13012KT CAVOK 17/17 Q1017=
2009042807 - SBKP 280700Z 13009KT CAVOK 17/17 Q1017=
2009042808 - SBKP 280800Z 13010KT CAVOK 16/16 Q1017=
2009042809 - SBKP 280900Z 13008KT CAVOK 17/17 Q1018=
2009042810 - SBKP 281000Z 13009KT 6000 NSC 17/17 Q1018=
2009042811 - SBKP 281100Z 12011KT 9000 NSC 18/18 Q1019=
2009042812 - SBKP 281200Z 11011KT 9999 FEW015 20/17 Q1019=
2009042813 - SBKP 281300Z 12008KT 9999 FEW015 22/17 Q1020=
2009042814 - SBKP 281400Z 11006KT 9999 FEW020 24/17 Q1019=
2009042815 - SBKP 281500Z 11005KT 9999 SCT025 24/16 Q1018=
2009042816 - SBKP 281600Z 18004KT 9999 SCT030 25/16 Q1017=
2009042817 - SBKP 281700Z 21004KT 9999 SCT035 26/15 Q1017=
2009042818 - SBKP 281800Z 18005KT 9999 SCT040 26/14 Q1016=
2009042819 - SBKP 281900Z 18010KT 9999 SCT040 26/16 Q1016=
2009042820 - SBKP 282000Z 18007KT 9999 FEW040 25/16 Q1016=
2009042821 - SBKP 282100Z 15007KT 6000 FEW040 24/16 Q1017=
2009042822 - SBKP 282200Z 13014KT 9999 FEW040 22/17 Q1017=
2009042823 - SBKP 282300Z 12011KT CAVOK 20/17 Q1018=
2009042900 - SBKP 290000Z 12013KT CAVOK 20/17 Q1018=
2009042901 - SBKP 290100Z 11011KT CAVOK 19/17 Q1018=
2009042902 - SBKP 290200Z 11012KT CAVOK 18/17 Q1017=
2009042903 - SBKP 290300Z 12013KT CAVOK 18/17 Q1017=
2009042904 - SBKP 290400Z 11011KT CAVOK 17/17 Q1017=
2009042905 - SBKP 290500Z 11011KT CAVOK 17/17 Q1017=
2009042906 - SBKP 290600Z 12009KT CAVOK 17/17 Q1017=
2009042907 - SBKP 290700Z 12006KT CAVOK 16/16 Q1017=
2009042908 - SBKP 290800Z 12009KT CAVOK 16/16 Q1017=
2009042909 - SBKP 290900Z 11008KT CAVOK 16/16 Q1017=
2009042910 - SBKP 291000Z 11006KT 8000 NSC 16/16 Q1018=
2009042911 - SBKP 291100Z 13005KT 5000 BR NSC 18/17 Q1018=
2009042912 - SBKP 291200Z 11004KT 6000 NSC 21/17 Q1019=
2009042913 - SBKP 291300Z 04003KT CAVOK 23/16 Q1019=
2009042914 - SBKP 291400Z 03005KT CAVOK 24/15 Q1018=
2009042915 - SBKP 291500Z 35005KT 9999 FEW020 25/15 Q1018=
2009042916 - SBKP 291600Z 34002KT 9999 SCT020 26/14 Q1017=
2009042917 - SBKP 291700Z 31002KT 9999 SCT040 27/12 Q1016=
2009042918 - SBKP 291800Z 24002KT 9999 SCT040 27/12 Q1015=
2009042919 - SBKP 291900Z 28006KT 9999 SCT040 27/12 Q1015=
2009042920 - SBKP 292000Z 22008KT 9999 FEW040 26/13 Q1016=
2009042921 - SBKP 292100Z 22005KT 9999 FEW040 25/14 Q1016=
2009042922 - SBKP 292200Z 18006KT 9999 FEW040 24/13 Q1016=
2009042923 - SBKP 292300Z 14006KT CAVOK 21/14 Q1017=
2009043000 - SBKP 300000Z 12006KT CAVOK 19/14 Q1017=
2009043001 - SBKP 300100Z 11008KT CAVOK 19/16 Q1017=
2009043002 - SBKP 300200Z 11009KT CAVOK 19/18 Q1017=
2009043003 - SBKP 300300Z 11010KT CAVOK 19/18 Q1017=
2009043004 - SBKP 300400Z 11008KT CAVOK 19/17 Q1017=
2009043005 - SBKP 300500Z 11008KT CAVOK 19/17 Q1017=
2009043006 - SBKP 300600Z 14006KT CAVOK 18/16 Q1017=
2009043007 - SBKP 300700Z 12007KT CAVOK 18/15 Q1017=
2009043008 - SBKP 300800Z 10005KT CAVOK 18/15 Q1017=
2009043009 - SBKP 300900Z 12006KT CAVOK 17/16 Q1017=
2009043010 - SBKP 301000Z 11004KT 9000 4000E NSC 16/16 Q1018=
2009043011 - SBKP 301100Z 18003KT 4000 BR NSC 18/15 Q1019=
2009043012 - SBKP 301200Z 18002KT 4000 HZ NSC 20/16 Q1019=
2009043013 - SBKP 301300Z 23002KT 5000 HZ NSC 23/15 Q1020=
2009043014 - SBKP 301400Z 19004KT 6000 NSC 25/14 Q1019=
2009043015 - SBKP 301500Z 18005KT 9999 FEW035 26/13 Q1018=
2009043016 - SBKP 301600Z 21011KT 9999 SCT035 27/09 Q1018=
2009043017 - SBKP 301700Z 16011KT 9999 SCT035 27/11 Q1017=
2009043018 - SBKP 301800Z 13013KT 9999 SCT035 27/10 Q1017=
2009043019 - SBKP 301900Z 14013KT 9999 SCT040 SCT070 26/10 Q1017=
2009043020 - SBKP 302000Z 14012KT CAVOK 25/11 Q1017=
2009043021 - SBKP 302100Z 14010KT 7000 NSC 24/11 Q1018=
2009043022 - SBKP 302200Z 12011KT CAVOK 21/13 Q1018=
2009043023 - SBKP 302300Z 11012KT CAVOK 20/12 Q1018=
2009050100 - SBKP 010000Z 13013KT CAVOK 19/14 Q1019=
2009050101 - SBKP 010100Z 12010KT CAVOK 18/14 Q1019=
2009050102 - SBKP 010200Z 13011KT CAVOK 17/14 Q1020=
2009050103 - SBKP 010300Z 13009KT CAVOK 17/14 Q1020=
2009050104 - SBKP 010400Z 14008KT CAVOK 17/15 Q1020=
2009050105 - SBKP 010500Z 13009KT CAVOK 15/15 Q1019=
2009050106 - SBKP 010600Z 13008KT CAVOK 15/15 Q1019=
2009050107 - SBKP 010700Z 15010KT CAVOK 17/15 Q1019=
2009050108 - SBKP 010800Z 15010KT CAVOK 17/15 Q1019=
2009050109 - SBKP 010900Z 14009KT CAVOK 16/14 Q1019=
2009050110 - SBKP 011000Z 17006KT 9000 NSC 16/14 Q1020=
2009050111 - SBKP 011100Z 14010KT 9000 NSC 18/15 Q1020=
2009050112 - SBKP 011200Z 13014KT CAVOK 19/14 Q1021=
2009050113 - SBKP 011300Z 11011KT CAVOK 21/13 Q1021=
2009050114 - SBKP 011400Z 12009KT CAVOK 23/13 Q1020=
2009050115 - SBKP 011500Z 14010KT CAVOK 24/12 Q1019=
2009050116 - SBKP 011600Z 11007KT CAVOK 25/12 Q1019=
2009050117 - SBKP 011700Z 15008KT 9999 FEW040 26/11 Q1018=
2009050118 - SBKP 011800Z 13008KT 9999 FEW040 26/10 Q1017=
2009050119 - SBKP 011900Z 18011KT 9000 FEW040 26/10 Q1017=
2009050120 - SBKP 012000Z 17013KT 7000 FEW040 24/13 Q1017=
2009050121 - SBKP 012100Z 15016KT 6000 NSC 21/15 Q1018=
2009050122 - SBKP 012200Z 17017KT 6000 NSC 20/15 Q1018=
2009050123 - SBKP 012300Z 16016KT 7000 NSC 19/15 Q1019=
2009050200 - SBKP 020000Z 16014KT 7000 NSC 18/15 Q1020=
2009050201 - SBKP 020100Z 16014KT 7000 NSC 18/15 Q1020=
2009050202 - SBKP 020200Z 16016KT 9000 FEW040 18/15 Q1019 WS R15=
2009050203 - SBKP 020300Z 14014KT CAVOK 18/15 Q1020=
2009050204 - SBKP 020400Z 14010KT CAVOK 18/15 Q1019=
2009050205 - SBKP 020500Z 13010KT CAVOK 17/15 Q1019=
2009050206 - SBKP 020600Z 13010KT CAVOK 17/16 Q1019=
2009050207 - SBKP 020700Z 14008KT CAVOK 17/16 Q1019=
2009050208 - SBKP 020800Z 13010KT CAVOK 16/15 Q1019=
2009050209 - SBKP 020900Z 14011KT CAVOK 16/15 Q1019=
2009050210 - SBKP 021000Z 14011KT CAVOK 16/15 Q1020=
2009050211 - SBKP 021100Z 11012KT CAVOK 18/16 Q1020=
2009050212 - SBKP 021200Z 11012KT CAVOK 20/15 Q1021=
2009050213 - SBKP 021300Z 10010KT CAVOK 21/15 Q1021=
2009050214 - SBKP 021400Z 11006KT 9999 FEW040 22/15 Q1020=
2009050215 - SBKP 021500Z 12005KT 9999 SCT040 23/15 Q1020=
2009050216 - SBKP 021600Z 09005KT 9999 BKN040 24/14 Q1019=
2009050217 - SBKP 021700Z 12005KT 9999 SCT040 SCT100 24/15 Q1018=
2009050218 - SBKP 021800Z 06004KT 9999 SCT040 SCT100 24/14 Q1018=
2009050219 - SBKP 021900Z 15005KT 9999 SCT040 SCT100 24/15 Q1018=
2009050220 - SBKP 022000Z 16006KT 9000 SCT040 SCT100 24/15 Q1018=
2009050221 - SBKP 022100Z 16009KT 9000 SCT040 SCT100 22/15 Q1018=
2009050222 - SBKP 022200Z 16010KT 9000 SCT040 SCT080 21/16 Q1019=
2009050223 - SBKP 022300Z 17015KT 9000 NSC 20/16 Q1019=
2009050300 - SBKP 030000Z 16014KT CAVOK 19/16 Q1019=
2009050301 - SBKP 030100Z 16013KT CAVOK 18/15 Q1019=
2009050302 - SBKP 030200Z 16012KT CAVOK 17/16 Q1019=
2009050303 - SBKP 030300Z 13014KT CAVOK 18/15 Q1019=
2009050304 - SBKP 030400Z 13011KT CAVOK 17/15 Q1019=
2009050305 - SBKP 030500Z 13012KT CAVOK 17/15 Q1018=
2009050306 - SBKP 030600Z 13012KT CAVOK 16/15 Q1018=
2009050307 - SBKP 030700Z 13011KT CAVOK 16/15 Q1017=
2009050308 - SBKP 030800Z 13011KT CAVOK 16/15 Q1017=
2009050309 - SBKP 030900Z 13010KT 9999 FEW040 16/15 Q1018=
2009050310 - SBKP 031000Z 13010KT 9999 FEW040 16/16 Q1018=
2009050311 - SBKP 031100Z 11011KT CAVOK 17/16 Q1019=
2009050312 - SBKP 031200Z 09008KT CAVOK 20/16 Q1019=
2009050313 - SBKP 031300Z 06005KT CAVOK 22/16 Q1019=
2009050314 - SBKP 031400Z 05006KT 9999 FEW030 23/15 Q1019=
2009050315 - SBKP 031500Z 02002KT 9999 SCT040 25/15 Q1018=
2009050316 - SBKP 031600Z 08004KT 9999 SCT040 25/15 Q1017=
2009050317 - SBKP 031700Z 17003KT 9999 SCT040 26/14 Q1016=
2009050318 - SBKP 031800Z 31004KT 9999 SCT040 27/14 Q1016=
2009050319 - SBKP 031900Z 07005KT 9999 BKN040 SCT080 26/14 Q1016=
2009050320 - SBKP 032000Z 16006KT 9999 SCT045 SCT080 25/15 Q1015=
2009050321 - SBKP 032100Z 14007KT 9999 SCT045 SCT080 23/16 Q1016=
2009050322 - SBKP 032200Z 16010KT 9999 FEW045 SCT080 21/16 Q1016=
2009050323 - SBKP 032300Z 15009KT 9999 SCT045 21/16 Q1017=
2009050400 - SBKP 040000Z 15009KT 9999 SCT045 21/16 Q1017=
2009050401 - SBKP 040100Z 16012KT 9999 FEW045 SCT100 19/17 Q1017=
2009050402 - SBKP 040200Z 15010KT CAVOK 19/17 Q1015=
2009050403 - SBKP 040300Z 10008KT CAVOK 18/17 Q1016=
2009050404 - SBKP 040400Z 12006KT CAVOK 18/17 Q1017=
2009050405 - SBKP 040500Z 11007KT CAVOK 17/17 Q1016=
2009050406 - SBKP 040600Z 12007KT CAVOK 17/17 Q1016=
2009050407 - SBKP 040700Z 12009KT CAVOK 17/17 Q1016=
2009050408 - SBKP 040800Z 10007KT CAVOK 17/17 Q1015=
2009050409 - SBKP 040900Z 10006KT CAVOK 17/17 Q1016=
2009050410 - SBKP 041000Z 11004KT CAVOK 17/17 Q1017=
2009050411 - SBKP 041100Z 22008KT 9999 FEW030 SCT090 19/17 Q1018=
2009050412 - SBKP 041200Z 20009KT 9999 FEW030 BKN050 20/17 Q1018=
2009050413 - SBKP 041300Z 20007KT 9999 FEW030 21/16 Q1019=
2009050414 - SBKP 041400Z 20002KT 9999 FEW030 23/16 Q1018=
2009050415 - SBKP 041500Z 33004KT 9999 FEW030 25/16 Q1018=
2009050416 - SBKP 041600Z 33010KT 9999 SCT035 25/16 Q1018=
2009050416 - SBKP 041625Z 28022G45KT 4000 HZ BKN040 BKN070 20/13 Q1018=
2009050417 - SBKP 041700Z 24021G31KT 4000 -TSRA BR FEW014 BKN030 FEW040CB BKN070 17/17 Q1019=
2009050417 - SBKP 041725Z 22016KT 9999 -RA FEW030 SCT090 16/16 Q1018 RETS=
2009050418 - SBKP 041800Z 22016KT 9999 SCT030 BKN080 17/15 Q1017 RETS=
2009050419 - SBKP 041900Z 24005KT 9999 VCTS SCT040 FEW050CB BKN080 17/15 Q1017=
2009050420 - SBKP 042000Z 27006KT 9999 FEW040 SCT080 18/15 Q1017=
2009050421 - SBKP 042100Z 04003KT 9999 FEW040 SCT080 17/15 Q1018=
2009050422 - SBKP 042200Z 13004KT 9999 FEW040 BKN090 17/16 Q1018=
2009050423 - SBKP 042300Z 07005KT 9999 FEW020 SCT090 18/16 Q1019=
2009050500 - SBKP 050000Z 08005KT CAVOK 17/16 Q1019=
2009050501 - SBKP 050100Z 07003KT CAVOK 16/15 Q1019=
2009050502 - SBKP 050200Z 00000KT CAVOK 16/15 Q1019=
2009050503 - SBKP 050300Z 10002KT CAVOK 15/15 Q1019=
2009050504 - SBKP 050400Z 13006KT CAVOK 15/15 Q1019=
2009050505 - SBKP 050500Z 09004KT CAVOK 15/15 Q1019=
2009050506 - SBKP 050600Z 08004KT CAVOK 15/15 Q1018=
2009050507 - SBKP 050700Z 33004KT CAVOK 15/15 Q1018=
2009050508 - SBKP 050800Z 20002KT CAVOK 15/15 Q1018=
2009050509 - SBKP 050900Z 09005KT CAVOK 15/15 Q1018=
2009050510 - SBKP 051000Z 09005KT CAVOK 15/15 Q1018=
2009050511 - SBKP 051100Z 05006KT 9999 FEW030 17/16 Q1019=
2009050512 - SBKP 051200Z 03007KT 9999 FEW030 19/15 Q1019=
2009050513 - SBKP 051300Z 35009KT CAVOK 21/15 Q1020=
2009050514 - SBKP 051400Z 34009KT 9999 FEW030 22/15 Q1020=
2009050515 - SBKP 051500Z 34009KT 9999 FEW030 23/14 Q1019=
2009050516 - SBKP 051600Z 33007KT 9999 FEW035 24/13 Q1018=
2009050517 - SBKP 051700Z 32008KT 9999 SCT040 24/13 Q1017=
2009050518 - SBKP 051800Z 29008KT 9999 SCT040 25/13 Q1017=
2009050519 - SBKP 051900Z 28010KT 9999 SCT040 25/11 Q1017=
2009050520 - SBKP 052000Z 27008KT 9999 FEW040 24/13 Q1017=
2009050521 - SBKP 052100Z 26006KT 9999 FEW040 22/13 Q1017=
2009050522 - SBKP 052200Z 24006KT CAVOK 21/13 Q1017=
2009050523 - SBKP 052300Z 21004KT CAVOK 21/13 Q1017=
2009050500 - SBKP 050000Z 08005KT CAVOK 17/16 Q1019=
2009050501 - SBKP 050100Z 07003KT CAVOK 16/15 Q1019=
2009050502 - SBKP 050200Z 00000KT CAVOK 16/15 Q1019=
2009050503 - SBKP 050300Z 10002KT CAVOK 15/15 Q1019=
2009050504 - SBKP 050400Z 13006KT CAVOK 15/15 Q1019=
2009050505 - SBKP 050500Z 09004KT CAVOK 15/15 Q1019=
2009050506 - SBKP 050600Z 08004KT CAVOK 15/15 Q1018=
2009050507 - SBKP 050700Z 33004KT CAVOK 15/15 Q1018=
2009050508 - SBKP 050800Z 20002KT CAVOK 15/15 Q1018=
2009050509 - SBKP 050900Z 09005KT CAVOK 15/15 Q1018=
2009050510 - SBKP 051000Z 09005KT CAVOK 15/15 Q1018=
2009050511 - SBKP 051100Z 05006KT 9999 FEW030 17/16 Q1019=
2009050512 - SBKP 051200Z 03007KT 9999 FEW030 19/15 Q1019=
2009050513 - SBKP 051300Z 35009KT CAVOK 21/15 Q1020=
2009050514 - SBKP 051400Z 34009KT 9999 FEW030 22/15 Q1020=
2009050515 - SBKP 051500Z 34009KT 9999 FEW030 23/14 Q1019=
2009050516 - SBKP 051600Z 33007KT 9999 FEW035 24/13 Q1018=
2009050517 - SBKP 051700Z 32008KT 9999 SCT040 24/13 Q1017=
2009050518 - SBKP 051800Z 29008KT 9999 SCT040 25/13 Q1017=
2009050519 - SBKP 051900Z 28010KT 9999 SCT040 25/11 Q1017=
2009050520 - SBKP 052000Z 27008KT 9999 FEW040 24/13 Q1017=
2009050521 - SBKP 052100Z 26006KT 9999 FEW040 22/13 Q1017=
2009050522 - SBKP 052200Z 24006KT CAVOK 21/13 Q1017=
2009050523 - SBKP 052300Z 21004KT CAVOK 21/13 Q1017=
2009050600 - SBKP 060000Z 16003KT CAVOK 20/13 Q1018=
2009050701 - SBKP 070100Z 14004KT CAVOK 19/14 Q1019=
2009050702 - SBKP 070200Z 10002KT CAVOK 19/14 Q1019=
2009050703 - SBKP 070300Z 11003KT CAVOK 17/15 Q1019=
2009050704 - SBKP 070400Z 11004KT CAVOK 17/15 Q1018=
2009050705 - SBKP 070500Z 08003KT CAVOK 17/15 Q1018=
2009050706 - SBKP 070600Z 11005KT CAVOK 16/15 Q1017=
2009050707 - SBKP 070700Z 11006KT CAVOK 15/15 Q1017=
2009050708 - SBKP 070800Z 11004KT CAVOK 15/15 Q1017=
2009050709 - SBKP 070900Z 11007KT CAVOK 15/15 Q1018=
2009050710 - SBKP 071000Z 11009KT 4000 BR NSC 16/16 Q1018=
2009050711 - SBKP 071100Z 13009KT 4000 BR NSC 18/17 Q1019=
2009050712 - SBKP 071200Z 13011KT 6000 NSC 20/17 Q1020=
2009050713 - SBKP 071300Z 12008KT 7000 NSC 21/15 Q1020=
2009050714 - SBKP 071400Z 08004KT 8000 NSC 23/15 Q1020=
2009050715 - SBKP 071500Z 20003KT CAVOK 24/14 Q1019=
2009050716 - SBKP 071600Z 29005KT 9999 FEW030 25/14 Q1018=
2009050717 - SBKP 071700Z 15004KT 9999 FEW030 25/14 Q1017=
2009050718 - SBKP 071800Z 24009KT 9999 FEW030 25/13 Q1017=
2009050719 - SBKP 071900Z 24008KT 9999 FEW040 25/13 Q1017=
2009050720 - SBKP 072000Z 24006KT CAVOK 25/14 Q1017=
2009050721 - SBKP 072100Z 21004KT CAVOK 23/14 Q1018=
2009050722 - SBKP 072200Z 18008KT CAVOK 23/14 Q1018=
2009050723 - SBKP 072300Z 19006KT CAVOK 22/14 Q1018=
2009050800 - SBKP 080000Z 14010KT CAVOK 19/15 Q1019=
2009050801 - SBKP 080100Z 13010KT CAVOK 18/15 Q1019=
2009050802 - SBKP 080200Z 14012KT CAVOK 17/15 Q1019=
2009050803 - SBKP 080300Z 11012KT CAVOK 17/15 Q1019=
2009050804 - SBKP 080400Z 11012KT CAVOK 17/15 Q1018=
2009050805 - SBKP 080500Z 11012KT CAVOK 16/15 Q1018=
2009050806 - SBKP 080600Z 10010KT CAVOK 16/15 Q1018=
2009050807 - SBKP 080700Z 11010KT CAVOK 16/15 Q1018=
2009050808 - SBKP 080800Z 10007KT CAVOK 16/15 Q1018=
2009050809 - SBKP 080900Z 10006KT CAVOK 15/15 Q1018=
2009050810 - SBKP 081000Z 09006KT 4000 BR NSC 15/15 Q1019=
2009050811 - SBKP 081100Z 10007KT 6000 NSC 16/16 Q1020=
2009050812 - SBKP 081200Z 12005KT 7000 NSC 19/16 Q1020=
2009050813 - SBKP 081300Z 09005KT 8000 NSC 21/16 Q1020=
2009050814 - SBKP 081400Z 07005KT CAVOK 24/16 Q1019=
2009050815 - SBKP 081500Z 34001KT 9999 FEW030 25/15 Q1019=
2009050816 - SBKP 081600Z 15003KT 9999 FEW040 25/15 Q1019=
2009050817 - SBKP 081700Z 04003KT 9999 SCT042 26/15 Q1017=
2009050818 - SBKP 081800Z 10005KT 9999 FEW042 26/15 Q1017=
2009050819 - SBKP 081900Z 12005KT 9999 FEW045 26/15 Q1017=
2009050820 - SBKP 082000Z 11004KT 9999 FEW045 25/16 Q1017=
2009050821 - SBKP 082100Z 13005KT 8000 NSC 23/16 Q1017=
2009050822 - SBKP 082200Z 12006KT CAVOK 22/16 Q1018=
2009050823 - SBKP 082300Z 12008KT CAVOK 21/17 Q1018=
2009050900 - SBKP 090000Z 12009KT CAVOK 20/16 Q1018=
2009050901 - SBKP 090100Z 12010KT CAVOK 19/16 Q1019=
2009050902 - SBKP 090200Z 12010KT CAVOK 19/15 Q1019=
2009050903 - SBKP 090300Z 12011KT CAVOK 19/15 Q1019=
2009050904 - SBKP 090400Z 11009KT CAVOK 18/15 Q1018=
2009050905 - SBKP 090500Z 11008KT CAVOK 18/14 Q1017=
2009050906 - SBKP 090600Z 11008KT CAVOK 18/14 Q1017=
2009050907 - SBKP 090700Z 11007KT CAVOK 17/15 Q1017=
2009050908 - SBKP 090800Z 11007KT CAVOK 16/15 Q1017=
2009050909 - SBKP 090900Z 10009KT CAVOK 16/15 Q1017=
2009050910 - SBKP 091000Z 10006KT 5000 BR NSC 16/16 Q1018=
2009050911 - SBKP 091100Z 11004KT 6000 NSC 17/16 Q1018=
2009050912 - SBKP 091200Z 10005KT 6000 NSC 19/17 Q1018=
2009050913 - SBKP 091300Z 04004KT 8000 NSC 22/16 Q1019=
2009050914 - SBKP 091400Z 36006KT 9000 NSC 25/16 Q1018=
2009050915 - SBKP 091500Z 36008KT CAVOK 26/16 Q1018=
2009050916 - SBKP 091600Z 34008KT 9999 FEW040 27/16 Q1017=
2009050917 - SBKP 091700Z 31008KT 9999 FEW040 28/15 Q1016=
2009050918 - SBKP 091800Z 27007KT 9999 SCT045 29/14 Q1015=
2009050919 - SBKP 091900Z 28004KT 9999 SCT045 29/14 Q1016=
2009050920 - SBKP 092000Z 22003KT 9999 FEW049 28/15 Q1015=
2009050921 - SBKP 092100Z 19005KT 8000 NSC 27/16 Q1016=
2009050922 - SBKP 092200Z 13004KT 9000 NSC 24/19 Q1016=
2009050923 - SBKP 092300Z 08002KT 9000 NSC 24/18 Q1017=
2009051000 - SBKP 100000Z 17009KT 8000 NSC 23/19 Q1017=
2009051000 - SBKP 100030Z 20017KT 8000 -TSRA BKN020 FEW035CB BKN060 OVC100 20/20 Q1018=
2009051001 - SBKP 100100Z 17015KT 9000 -TSRA BKN020 FEW035CB BKN060 OVC100 19/19 Q1019=
2009051001 - SBKP 100130Z 16008KT 4000 RA BR BKN020 BKN060 OVC100 19/19 Q1019 RETS=
2009051002 - SBKP 100200Z 13010KT 8000 -RA FEW020 BKN050 OVC100 18/18 Q1019 RETSRA=
2009051003 - SBKP 100300Z 12011KT 9999 FEW020 BKN050 BKN100 19/19 Q1018=
2009051004 - SBKP 100400Z 12010KT 9999 FEW020 BKN050 BKN100 19/19 Q1018=
2009051005 - SBKP 100500Z 12006KT 9999 FEW020 BKN050 BKN080 19/19 Q1017=
2009051006 - SBKP 100600Z 11009KT 8000 -RA SCT012 BKN050 OVC080 18/18 Q1017=
2009051007 - SBKP 100700Z 08004KT 8000 FEW012 BKN050 BKN080 18/18 Q1017=
2009051008 - SBKP 100800Z 12005KT 8000 FEW012 BKN050 BKN080 18/18 Q1017=
2009051009 - SBKP 100900Z 09006KT 7000 3200SE -RA FEW012 BKN050 BKN080 18/18 Q1017=
2009051010 - SBKP 101000Z 10005KT 5000 BR FEW030 18/18 Q1018=
2009051011 - SBKP 101100Z 10004KT 7000 NSC 19/19 Q1018=
2009051012 - SBKP 101200Z 16004KT 8000 NSC 21/21 Q1019=
2009051013 - SBKP 101300Z 07002KT 8000 FEW015 SCT100 23/21 Q1019=
2009051014 - SBKP 101400Z 36002KT CAVOK 24/20 Q1019=
2009051015 - SBKP 101500Z 26008KT 9999 SCT030 SCT100 25/18 Q1018=
2009051016 - SBKP 101600Z 24004KT 9999 SCT030 BKN080 24/20 Q1017=
2009051017 - SBKP 101700Z 24002KT 9999 FEW035 BKN100 25/19 Q1016=
2009051018 - SBKP 101800Z 24010KT 9999 FEW035 BKN100 25/17 Q1016=
2009051019 - SBKP 101900Z 21008KT 9999 FEW035 BKN100 26/17 Q1016=
2009051020 - SBKP 102000Z 22009KT 9999 FEW045 SCT100 25/17 Q1016=
2009051021 - SBKP 102100Z 23006KT CAVOK 24/18 Q1017=
2009051022 - SBKP 102200Z 18004KT CAVOK 23/19 Q1017=
2009051023 - SBKP 102300Z 11007KT CAVOK 21/21 Q1017=
2009051100 - SBKP 110000Z 11010KT 9000 NSC 20/20 Q1017=
2009051101 - SBKP 110100Z 10009KT 5000 BR NSC 19/19 Q1017=
2009051102 - SBKP 110200Z 11008KT 5000 BR NSC 19/19 Q1017=
2009051103 - SBKP 110300Z 11007KT 5000 BR NSC 18/18 Q1017=
2009051104 - SBKP 110400Z 11008KT 5000 BR NSC 18/18 Q1017=
2009051105 - SBKP 110500Z 11008KT 5000 BR NSC 18/18 Q1017=
2009051106 - SBKP 110600Z 11006KT 6000 NSC 17/17 Q1017=
2009051107 - SBKP 110700Z 10005KT 7000 NSC 17/17 Q1016=
2009051108 - SBKP 110800Z 12004KT 6000 NSC 16/16 Q1016=
2009051109 - SBKP 110900Z 11004KT 6000 NSC 16/16 Q1017=
2009051110 - SBKP 111000Z 11006KT 5000 BR NSC 16/16 Q1017=
2009051111 - SBKP 111100Z 13004KT 5000 BR NSC 18/18 Q1018=
2009051112 - SBKP 111200Z 10004KT 5000 BR NSC 20/20 Q1018=
2009051113 - SBKP 111300Z 04004KT 6000 NSC 22/21 Q1018=
2009051114 - SBKP 111400Z 31003KT 7000 NSC 24/20 Q1018=
2009051115 - SBKP 111500Z 34004KT 8000 FEW020 25/19 Q1017=
2009051116 - SBKP 111600Z 27006KT 9999 FEW020 26/16 Q1016=
2009051117 - SBKP 111700Z 27008KT 9999 FEW030 27/16 Q1015=
2009051118 - SBKP 111800Z 28008KT 9999 FEW035 28/15 Q1015=
2009051119 - SBKP 111900Z 27007KT 9999 FEW035 28/17 Q1015=
2009051120 - SBKP 112000Z 22007KT 9999 FEW035 27/17 Q1016=
2009051121 - SBKP 112100Z 19005KT CAVOK 25/17 Q1016=
2009051122 - SBKP 112200Z 16004KT CAVOK 24/17 Q1016=
2009051123 - SBKP 112300Z 12004KT CAVOK 23/17 Q1016=
2009051200 - SBKP 120000Z 11007KT CAVOK 21/18 Q1017=
2009051201 - SBKP 120100Z 12009KT CAVOK 20/18 Q1017=
2009051202 - SBKP 120200Z 11009KT CAVOK 20/20 Q1017=
2009051203 - SBKP 120300Z 11008KT 8000 NSC 19/19 Q1017=
2009051204 - SBKP 120400Z 11009KT 8000 NSC 19/19 Q1017=
2009051205 - SBKP 120500Z 09006KT 8000 NSC 18/18 Q1016=
2009051206 - SBKP 120600Z 09006KT 7000 NSC 18/18 Q1016=
2009051207 - SBKP 120700Z 09004KT 6000 NSC 17/17 Q1016=
2009051208 - SBKP 120800Z 12006KT 5000 BR NSC 17/17 Q1016=
2009051209 - SBKP 120900Z 10006KT 5000 BR NSC 17/17 Q1017=
2009051210 - SBKP 121000Z 10005KT 5000 BR NSC 16/16 Q1017=
2009051211 - SBKP 121100Z 14006KT 5000 BR NSC 18/18 Q1018=
2009051212 - SBKP 121200Z 10004KT 5000 BR NSC 21/20 Q1018=
2009051213 - SBKP 121300Z 06002KT 6000 NSC 24/18 Q1018=
2009051214 - SBKP 121400Z 36004KT 8000 NSC 25/18 Q1017=
2009051215 - SBKP 121500Z 31006KT 9999 FEW025 26/18 Q1017=
2009051216 - SBKP 121600Z 28006KT 9999 FEW030 27/16 Q1016=
2009051217 - SBKP 121700Z 30004KT 9999 FEW030 28/16 Q1015=
2009051218 - SBKP 121800Z 28006KT 9999 SCT035 29/15 Q1015=
2009051219 - SBKP 121900Z 23006KT 9999 FEW040 28/16 Q1015=
2009051220 - SBKP 122000Z 23004KT 9999 FEW040 28/16 Q1015=
2009051221 - SBKP 122100Z 19003KT CAVOK 26/17 Q1015=
2009051222 - SBKP 122200Z 17004KT CAVOK 26/16 Q1015=
2009051223 - SBKP 122300Z 16005KT CAVOK 25/17 Q1016=
2009051300 - SBKP 130000Z 12006KT CAVOK 21/19 Q1016=
2009051301 - SBKP 130100Z 12007KT CAVOK 21/19 Q1016=
2009051302 - SBKP 130200Z 12008KT CAVOK 21/19 Q1016=
2009051303 - SBKP 130300Z 13005KT CAVOK 20/20 Q1016=
2009051304 - SBKP 130400Z 16006KT CAVOK 19/19 Q1016=
2009051305 - SBKP 130500Z 16005KT CAVOK 19/19 Q1016=
2009051306 - SBKP 130600Z 12007KT CAVOK 18/18 Q1015=
2009051307 - SBKP 130700Z 14005KT CAVOK 18/18 Q1015=
2009051308 - SBKP 130800Z 13006KT CAVOK 18/18 Q1015=
2009051309 - SBKP 130900Z 09004KT 9000 NSC 17/17 Q1015=
2009051310 - SBKP 131000Z 14005KT 7000 3000N NSC 17/17 Q1015=
2009051311 - SBKP 131100Z 14006KT 8000 NSC 19/19 Q1016=
2009051312 - SBKP 131200Z 05004KT CAVOK 22/18 Q1017=
2009051313 - SBKP 131300Z 34007KT CAVOK 25/18 Q1016=
2009051314 - SBKP 131400Z 32006KT CAVOK 26/18 Q1017=
2009051315 - SBKP 131500Z 36006KT 9999 FEW040 27/17 Q1016=
2009051316 - SBKP 131600Z 29005KT 9999 SCT040 28/15 Q1015=
2009051317 - SBKP 131700Z 29003KT 9999 SCT040 29/14 Q1014=
2009051318 - SBKP 131800Z 27004KT 9999 SCT045 28/15 Q1014=
2009051319 - SBKP 131900Z 29004KT 9999 FEW045 28/15 Q1014=
2009051320 - SBKP 132000Z 24004KT 9999 FEW045 28/14 Q1014=
2009051321 - SBKP 132100Z 20004KT 9999 FEW045 27/15 Q1014=
2009051322 - SBKP 132200Z 10004KT CAVOK 24/16 Q1014=
2009051323 - SBKP 132300Z 14004KT CAVOK 23/17 Q1014=
2009051400 - SBKP 140000Z 04002KT CAVOK 22/17 Q1015=
2009051401 - SBKP 140100Z 11004KT CAVOK 21/17 Q1015=
2009051402 - SBKP 140200Z 08004KT CAVOK 20/18 Q1015=
2009051403 - SBKP 140300Z 11006KT CAVOK 19/18 Q1015=
2009051404 - SBKP 140400Z 09005KT CAVOK 19/18 Q1015=
2009051405 - SBKP 140500Z 11004KT CAVOK 19/17 Q1014=
2009051406 - SBKP 140600Z 10003KT CAVOK 19/17 Q1014=
2009051407 - SBKP 140700Z 10004KT 9999 SCT040 17/17 Q1014=
2009051408 - SBKP 140800Z 11004KT 9999 SCT040 18/17 Q1013=
2009051409 - SBKP 140900Z 11003KT 9999 SCT040 18/17 Q1014=
2009051410 - SBKP 141000Z 12003KT 9000 FEW040 17/16 Q1014=
2009051411 - SBKP 141100Z 32004KT CAVOK 19/17 Q1015=
2009051412 - SBKP 141200Z 01007KT CAVOK 21/15 Q1015=
2009051413 - SBKP 141300Z 36009KT CAVOK 24/14 Q1016=
2009051414 - SBKP 141400Z 36010KT CAVOK 26/14 Q1015=
2009051415 - SBKP 141500Z 36014KT CAVOK 28/13 Q1014=
2009051416 - SBKP 141600Z 34013KT CAVOK 28/13 Q1013=
2009051417 - SBKP 141700Z 34013KT 9999 SCT045 28/14 Q1012=
2009051418 - SBKP 141800Z 34012KT 9999 SCT040 BKN080 28/14 Q1011=
2009051419 - SBKP 141900Z 34011KT 9999 SCT040 SCT060 BKN100 28/14 Q1010=
2009051420 - SBKP 142000Z 34009KT 9999 FEW040 SCT060 BKN100 27/14 Q1010=
2009051421 - SBKP 142100Z 35007KT 9999 FEW040 BKN070 26/15 Q1011=
2009051422 - SBKP 142200Z 36006KT 9999 FEW040 BKN070 25/16 Q1010=
2009051423 - SBKP 142300Z 23024KT 9999 -RA SCT012 SCT040 BKN070 20/20 Q1012=
2009051500 - SBKP 150000Z 24013KT 9999 -RA SCT020 SCT040 BKN080 18/18 Q1014=
2009051501 - SBKP 150100Z 08003KT 9999 -RA SCT045 OVC100 18/18 Q1012=
2009051502 - SBKP 150200Z 02006KT 9999 SCT045 OVC100 18/18 Q1012=
2009051503 - SBKP 150300Z 05009KT 9000 SCT040 OVC100 18/18 Q1012=
2009051504 - SBKP 150400Z 04007KT 9000 FEW006 OVC100 18/18 Q1012=
2009051505 - SBKP 150500Z 06006KT 9000 FEW006 OVC080 18/18 Q1011=
2009051506 - SBKP 150600Z 05007KT 9000 FEW006 OVC070 18/18 Q1011=
2009051507 - SBKP 150700Z 05007KT 8000 SCT045 OVC070 18/18 Q1011=
2009051507 - SBKP 150730Z 04006KT 8000 BKN006 SCT045 OVC070 18/18 Q1011=
2009051508 - SBKP 150800Z 04007KT 8000 BKN006 SCT040 OVC070 18/18 Q1011=
2009051509 - SBKP 150900Z 02005KT 8000 BKN006 OVC070 18/18 Q1012=
2009051510 - SBKP 151000Z 04006KT 6000 BKN009 SCT015 OVC070 18/18 Q1012=
2009051510 - SBKP 151005Z 04003KT 2000 -RADZ BR BKN004 BKN010 OVC070 18/18 Q1012=
2009051511 - SBKP 151100Z 34007KT 2000 -RA OVC003 17/17 Q1013=
2009051512 - SBKP 151200Z 33006KT 4500 -DZ BR SCT003 OVC008 17/17 Q1014=
2009051513 - SBKP 151300Z 33007KT 5000 BR OVC005 18/18 Q1014=
2009051514 - SBKP 151400Z 32006KT 7000 OVC006 18/18 Q1014=
2009051515 - SBKP 151500Z 32007KT 9000 BKN007 OVC010 19/19 Q1013=
2009051516 - SBKP 151600Z 33006KT 9999 OVC012 20/20 Q1012=
2009051517 - SBKP 151700Z 26004KT 9000 -RA OVC018 20/20 Q1012=
2009051518 - SBKP 151800Z 31004KT 8000 -RA OVC020 20/20 Q1011=
2009051519 - SBKP 151900Z 18007KT 4000 -RA BR OVC010 20/20 Q1011=
2009051519 - SBKP 151910Z 19013KT 3000 RA OVC010 19/19 Q1011=
2009051519 - SBKP 151925Z 17005KT 9000 FEW010 BKN030 19/19 Q1011 RERA=
2009051520 - SBKP 152000Z 22003KT 9000 FEW010 SCT040 BKN080 20/20 Q1012 RERA=
2009051521 - SBKP 152100Z 11002KT 9000 SCT040 BKN100 19/19 Q1013=
2009051522 - SBKP 152200Z 11003KT 9999 FEW045 BKN100 19/19 Q1013=
2009051523 - SBKP 152300Z 14004KT 4000 -RA BR SCT010 BKN020 19/19 Q1014=
2009051523 - SBKP 152331Z 24004KT 9999 FEW010 SCT030 18/18 Q1014=
2009051600 - SBKP 160000Z 30004KT 9999 FEW010 SCT040 18/18 Q1014=
2009051601 - SBKP 160100Z 21004KT 9999 FEW010 SCT040 18/18 Q1015=
2009051602 - SBKP 160200Z 13010KT 9999 SCT045 16/16 Q1015=
2009051603 - SBKP 160300Z 13010KT CAVOK 15/15 Q1015=
2009051604 - SBKP 160400Z 14010KT CAVOK 14/14 Q1015=
2009051605 - SBKP 160500Z 17008KT 9999 SCT035 15/15 Q1016=
2009051606 - SBKP 160600Z 18006KT CAVOK 14/14 Q1015=
2009051607 - SBKP 160700Z 16008KT 9999 SCT013 14/14 Q1015=
2009051608 - SBKP 160800Z 16008KT 9999 FEW030 SCT100 14/14 Q1016=
2009051609 - SBKP 160900Z 16010KT 9999 BKN030 14/14 Q1016=
2009051610 - SBKP 161000Z 16010KT 9999 SCT030 14/14 Q1017=
2009051611 - SBKP 161100Z 13011KT 9999 SCT030 15/15 Q1017=
2009051612 - SBKP 161200Z 12011KT 9999 FEW035 16/16 Q1018=
2009051613 - SBKP 161300Z 12011KT 9999 FEW035 17/17 Q1018=
2009051614 - SBKP 161400Z 13011KT 9999 SCT030 19/15 Q1018=
2009051615 - SBKP 161500Z 14007KT 9999 SCT030 19/13 Q1018=
2009051616 - SBKP 161600Z 17005KT 9999 SCT030 20/11 Q1017=
2009051617 - SBKP 161700Z 14006KT 9999 SCT040 20/11 Q1016=
2009051618 - SBKP 161800Z 16001KT 9999 SCT040 21/11 Q1016=
2009051619 - SBKP 161900Z 11004KT 9999 FEW045 21/11 Q1016=
2009051620 - SBKP 162000Z 14008KT 9999 FEW045 20/12 Q1016=
2009051621 - SBKP 162100Z 13009KT CAVOK 18/12 Q1017=
2009051622 - SBKP 162200Z 12008KT CAVOK 16/12 Q1017=
2009051623 - SBKP 162300Z 12011KT CAVOK 15/14 Q1018=
2009051700 - SBKP 170000Z 12013KT CAVOK 15/14 Q1019=
2009051701 - SBKP 170100Z 11010KT CAVOK 14/14 Q1019=
2009051702 - SBKP 170200Z 11013KT CAVOK 14/14 Q1019=
2009051703 - SBKP 170300Z 14014KT CAVOK 13/13 Q1019=
2009051704 - SBKP 170400Z 13014KT CAVOK 13/13 Q1018=
2009051705 - SBKP 170500Z 13014KT CAVOK 12/12 Q1018=
2009051706 - SBKP 170600Z 13014KT CAVOK 12/12 Q1018=
2009051707 - SBKP 170700Z 13013KT CAVOK 12/12 Q1018=
2009051708 - SBKP 170800Z 13012KT CAVOK 12/12 Q1018=
2009051709 - SBKP 170900Z 13011KT CAVOK 12/12 Q1018=
2009051710 - SBKP 171000Z 13012KT CAVOK 12/12 Q1019=
2009051711 - SBKP 171100Z 11011KT CAVOK 13/13 Q1020=
2009051712 - SBKP 171200Z 10008KT CAVOK 15/15 Q1021=
2009051713 - SBKP 171300Z 11006KT CAVOK 17/16 Q1021=
2009051714 - SBKP 171400Z 11005KT CAVOK 19/16 Q1021=
2009051715 - SBKP 171500Z 04004KT CAVOK 22/14 Q1020=
2009051716 - SBKP 171600Z 36002KT CAVOK 23/14 Q1020=
2009051717 - SBKP 171700Z 01003KT CAVOK 24/14 Q1019=
2009051718 - SBKP 171800Z 36001KT 9999 FEW045 25/14 Q1019=
2009051719 - SBKP 171900Z 00000KT 9999 FEW045 25/12 Q1019=
2009051720 - SBKP 172000Z 26005KT CAVOK 24/13 Q1019=
2009051721 - SBKP 172100Z 24004KT CAVOK 22/14 Q1020=
2009051722 - SBKP 172200Z 19006KT CAVOK 20/15 Q1020=
2009051723 - SBKP 172300Z 15009KT CAVOK 18/17 Q1020=
2009051800 - SBKP 180000Z 16011KT CAVOK 17/17 Q1020=
2009051801 - SBKP 180100Z 16013KT CAVOK 16/16 Q1020=
2009051802 - SBKP 180200Z 15013KT CAVOK 16/16 Q1021=
2009051803 - SBKP 180300Z 14018KT CAVOK 16/16 Q1021=
2009051804 - SBKP 180400Z 13014KT CAVOK 15/15 Q1021=
2009051805 - SBKP 180500Z 14014KT CAVOK 15/15 Q1020=
2009051806 - SBKP 180600Z 13010KT CAVOK 15/15 Q1020=
2009051807 - SBKP 180700Z 14012KT CAVOK 15/15 Q1020=
2009051808 - SBKP 180800Z 14011KT CAVOK 15/15 Q1020=
2009051809 - SBKP 180900Z 13008KT CAVOK 15/15 Q1021=
2009051810 - SBKP 181000Z 13006KT CAVOK 14/14 Q1022=
2009051811 - SBKP 181100Z 12006KT CAVOK 16/16 Q1022=
2009051812 - SBKP 181200Z 12006KT CAVOK 18/18 Q1023=
2009051813 - SBKP 181300Z 06003KT CAVOK 20/18 Q1023=
2009051814 - SBKP 181400Z 01004KT CAVOK 22/17 Q1022=
2009051815 - SBKP 181500Z 29005KT 9999 FEW045 24/17 Q1022=
2009051816 - SBKP 181600Z 29004KT 9999 FEW035 24/17 Q1021=
2009051817 - SBKP 181700Z 30003KT 9999 FEW035 25/16 Q1020=
2009051818 - SBKP 181800Z 24002KT 9999 FEW035 25/17 Q1020=
2009051819 - SBKP 181900Z 00000KT CAVOK 25/17 Q1020=
2009051820 - SBKP 182000Z 30003KT CAVOK 25/16 Q1020=
2009051821 - SBKP 182100Z 22005KT CAVOK 24/17 Q1021=
2009051822 - SBKP 182200Z 25003KT CAVOK 23/17 Q1021=
2009051823 - SBKP 182300Z 23002KT CAVOK 22/16 Q1021=
2009051900 - SBKP 190000Z 23002KT CAVOK 22/16 Q1021=
2009051901 - SBKP 190100Z 15006KT CAVOK 18/18 Q1021=
2009051902 - SBKP 190200Z 15006KT CAVOK 18/18 Q1021=
2009051903 - SBKP 190300Z 11008KT CAVOK 18/18 Q1021=
2009051904 - SBKP 190400Z 11009KT CAVOK 17/17 Q1021=
2009051905 - SBKP 190500Z 11008KT CAVOK 17/17 Q1020=
2009051906 - SBKP 190600Z 08006KT CAVOK 16/16 Q1020=
2009051907 - SBKP 190700Z 10006KT CAVOK 16/16 Q1020=
2009051908 - SBKP 190800Z 12006KT CAVOK 15/15 Q1020=
2009051909 - SBKP 190900Z 11005KT 8000 NSC 14/14 Q1021=
2009051910 - SBKP 191000Z 10006KT 8000 NSC 14/14 Q1022=
2009051911 - SBKP 191100Z 11005KT 7000 NSC 16/16 Q1022=
2009051912 - SBKP 191200Z 10003KT 8000 NSC 19/19 Q1022=
2009051913 - SBKP 191300Z 36003KT 9000 NSC 21/19 Q1022=
2009051914 - SBKP 191400Z 28002KT 9999 FEW030 23/18 Q1022=
2009051915 - SBKP 191500Z 21004KT 9999 FEW030 24/16 Q1021=
2009051916 - SBKP 191600Z 22008KT CAVOK 25/09 Q1020=
2009051917 - SBKP 191700Z 20009KT CAVOK 26/07 Q1020=
2009051918 - SBKP 191800Z 18010KT CAVOK 27/11 Q1019=
2009051919 - SBKP 191900Z 22009KT CAVOK 26/11 Q1019=
2009051920 - SBKP 192000Z 14008KT CAVOK 25/12 Q1019=
2009051921 - SBKP 192100Z 17013KT 8000 NSC 22/15 Q1020=
2009051922 - SBKP 192200Z 16014KT 8000 NSC 19/14 Q1021=
2009051923 - SBKP 192300Z 16014KT 8000 NSC 18/15 Q1022=
2009052000 - SBKP 200000Z 17012KT 9000 NSC 17/16 Q1022=
2009052001 - SBKP 200100Z 16008KT 9000 NSC 17/16 Q1022=
2009052002 - SBKP 200200Z 18006KT CAVOK 16/16 Q1022=
2009052003 - SBKP 200300Z 11005KT CAVOK 16/16 Q1022=
2009052004 - SBKP 200400Z 13007KT CAVOK 16/16 Q1022=
2009052005 - SBKP 200500Z 10003KT 9000 NSC 16/16 Q1022=
2009052006 - SBKP 200600Z 11004KT 8000 NSC 15/15 Q1022=
2009052007 - SBKP 200700Z 12005KT 8000 NSC 14/14 Q1021=
2009052008 - SBKP 200800Z 12005KT 9000 NSC 14/14 Q1022=
2009052009 - SBKP 200900Z 12007KT 8000 NSC 14/14 Q1023=
2009052010 - SBKP 201000Z 15008KT 8000 NSC 15/15 Q1023=
2009052011 - SBKP 201100Z 13006KT 7000 NSC 17/17 Q1024=
2009052012 - SBKP 201200Z 13010KT 9000 FEW020 19/19 Q1024=
2009052013 - SBKP 201300Z 12011KT 9999 FEW020 21/18 Q1024=
2009052014 - SBKP 201400Z 13011KT 9999 FEW023 22/17 Q1023=
2009052015 - SBKP 201500Z 12010KT 9999 SCT025 23/17 Q1023=
2009052016 - SBKP 201600Z 14010KT 9999 BKN030 24/16 Q1022=
2009052017 - SBKP 201700Z 15010KT 9999 SCT035 24/16 Q1021=
2009052018 - SBKP 201800Z 13012KT 9999 SCT040 24/16 Q1021=
2009052019 - SBKP 201900Z 12010KT 9999 FEW040 24/17 Q1021=
2009052020 - SBKP 202000Z 17011KT CAVOK 23/16 Q1021=
2009052021 - SBKP 202100Z 18010KT CAVOK 21/17 Q1022=
2009052022 - SBKP 202200Z 18008KT CAVOK 20/17 Q1022=
2009052023 - SBKP 202300Z 14012KT CAVOK 19/18 Q1022=
2009052100 - SBKP 210000Z 14012KT CAVOK 18/18 Q1022=
2009052101 - SBKP 210100Z 13012KT CAVOK 18/18 Q1022=
2009052102 - SBKP 210200Z 13013KT CAVOK 17/17 Q1022=
2009052103 - SBKP 210300Z 12013KT 9999 FEW045 SCT080 17/17 Q1022=
2009052104 - SBKP 210400Z 12013KT CAVOK 17/17 Q1021=
2009052105 - SBKP 210500Z 11012KT CAVOK 16/16 Q1021=
2009052106 - SBKP 210600Z 11011KT CAVOK 16/16 Q1021=
2009052107 - SBKP 210700Z 12009KT CAVOK 16/16 Q1020=
2009052108 - SBKP 210800Z 11008KT CAVOK 15/15 Q1020=
2009052109 - SBKP 210900Z 12008KT CAVOK 15/15 Q1021=
2009052110 - SBKP 211000Z 11008KT CAVOK 15/15 Q1021=
2009052111 - SBKP 211100Z 10007KT 9000 NSC 16/16 Q1022=
2009052112 - SBKP 211200Z 11006KT CAVOK 18/18 Q1023=
2009052113 - SBKP 211300Z 08002KT CAVOK 21/17 Q1023=
2009052114 - SBKP 211400Z 02003KT 9999 FEW025 23/16 Q1023=
2009052115 - SBKP 211500Z 04002KT 9999 SCT040 24/15 Q1022=
2009052116 - SBKP 211600Z 11003KT 9999 SCT040 24/13 Q1021=
2009052117 - SBKP 211700Z 16006KT 9999 SCT042 25/13 Q1020=
2009052118 - SBKP 211800Z 13003KT 9999 FEW045 25/13 Q1019=
2009052119 - SBKP 211900Z 17006KT 9999 FEW045 25/13 Q1019=
2009052120 - SBKP 212000Z 14004KT CAVOK 25/13 Q1019=
2009052121 - SBKP 212100Z 12004KT CAVOK 22/14 Q1020=
2009052122 - SBKP 212200Z 14008KT CAVOK 20/14 Q1020=
2009052123 - SBKP 212300Z 13008KT CAVOK 19/15 Q1021=
2009052200 - SBKP 220000Z 14010KT CAVOK 18/16 Q1021=
2009052201 - SBKP 220100Z 14010KT CAVOK 18/15 Q1022=
2009052202 - SBKP 220200Z 13011KT CAVOK 18/15 Q1022=
2009052203 - SBKP 220300Z 12009KT CAVOK 17/16 Q1022=
2009052204 - SBKP 220400Z 12010KT CAVOK 16/16 Q1022=
2009052205 - SBKP 220500Z 12009KT CAVOK 16/16 Q1021=
2009052206 - SBKP 220600Z 12010KT CAVOK 16/16 Q1021=
2009052207 - SBKP 220700Z 11007KT CAVOK 15/15 Q1021=
2009052208 - SBKP 220800Z 12008KT CAVOK 15/15 Q1021=
2009052209 - SBKP 220900Z 10006KT CAVOK 15/15 Q1021=
2009052210 - SBKP 221000Z 10007KT CAVOK 14/14 Q1022=
2009052211 - SBKP 221100Z 14006KT 8000 3500S NSC 16/16 Q1023=
2009052212 - SBKP 221200Z 06004KT 8000 NSC 19/16 Q1023=
2009052213 - SBKP 221300Z 36005KT CAVOK 22/15 Q1024=
2009052214 - SBKP 221400Z 02008KT 9999 FEW020 23/14 Q1023=
2009052215 - SBKP 221500Z 33004KT 9999 FEW020 24/12 Q1022=
2009052216 - SBKP 221600Z 00000KT 9999 FEW020 24/12 Q1021=
2009052217 - SBKP 221700Z 10005KT 9999 FEW020 25/12 Q1021=
2009052218 - SBKP 221800Z 09003KT CAVOK 25/11 Q1020=
2009052219 - SBKP 221900Z 11004KT CAVOK 25/11 Q1020=
2009052220 - SBKP 222000Z 07001KT CAVOK 25/11 Q1020=
2009052221 - SBKP 222100Z 12006KT CAVOK 22/12 Q1020=
2009052222 - SBKP 222200Z 12006KT CAVOK 20/12 Q1021=
2009052223 - SBKP 222300Z 12007KT CAVOK 19/15 Q1021=
2009052300 - SBKP 230000Z 12010KT CAVOK 18/16 Q1022=
2009052301 - SBKP 230100Z 12009KT CAVOK 18/16 Q1022=
2009052302 - SBKP 230200Z 11007KT CAVOK 17/16 Q1022=
2009052303 - SBKP 230300Z 11005KT CAVOK 16/16 Q1022=
2009052304 - SBKP 230400Z 11007KT CAVOK 16/16 Q1022=
2009052305 - SBKP 230500Z 12007KT CAVOK 15/15 Q1022=
2009052306 - SBKP 230600Z 11009KT CAVOK 15/15 Q1022=
2009052307 - SBKP 230700Z 11006KT CAVOK 15/15 Q1022=
2009052308 - SBKP 230800Z 11006KT CAVOK 15/15 Q1022=
2009052309 - SBKP 230900Z 09005KT CAVOK 15/14 Q1022=
2009052310 - SBKP 231000Z 09006KT CAVOK 15/14 Q1023=
2009052311 - SBKP 231100Z 10004KT 9000 NSC 16/15 Q1023=
2009052312 - SBKP 231200Z 06007KT CAVOK 19/14 Q1024=
2009052313 - SBKP 231300Z 05006KT CAVOK 22/13 Q1024=
2009052314 - SBKP 231400Z 03006KT 9999 FEW015 23/13 Q1024=
2009052315 - SBKP 231500Z 02007KT 9999 FEW020 24/11 Q1023=
2009052316 - SBKP 231600Z 35008KT CAVOK 24/10 Q1021=
2009052317 - SBKP 231700Z 34005KT CAVOK 25/11 Q1021=
2009052318 - SBKP 231800Z 03006KT CAVOK 25/10 Q1020=
2009052319 - SBKP 231900Z 36007KT CAVOK 25/11 Q1020=
2009052320 - SBKP 232000Z 35005KT CAVOK 24/11 Q1020=
2009052321 - SBKP 232100Z 01003KT CAVOK 23/12 Q1020=
2009052322 - SBKP 232200Z 20002KT CAVOK 23/11 Q1021=
2009052323 - SBKP 232300Z 12005KT CAVOK 19/13 Q1021=
2009052400 - SBKP 240000Z 10007KT CAVOK 18/13 Q1021=
2009052401 - SBKP 240100Z 11008KT CAVOK 17/13 Q1021=
2009052402 - SBKP 240200Z 11009KT CAVOK 17/14 Q1021=
2009052403 - SBKP 240300Z 12008KT CAVOK 16/14 Q1021=
2009052404 - SBKP 240400Z 10009KT CAVOK 16/14 Q1021=
2009052405 - SBKP 240500Z 11009KT 9999 FEW040 16/15 Q1020=
2009052406 - SBKP 240600Z 10008KT 9999 FEW040 15/15 Q1020=
2009052407 - SBKP 240700Z 10009KT CAVOK 14/14 Q1019=
2009052408 - SBKP 240800Z 10008KT CAVOK 14/14 Q1020=
2009052409 - SBKP 240900Z 11008KT CAVOK 14/14 Q1020=
2009052410 - SBKP 241000Z 10008KT CAVOK 14/14 Q1020=
2009052411 - SBKP 241100Z 11006KT 9000 4000SE FEW045 16/16 Q1021=
2009052412 - SBKP 241200Z 09003KT 8000 NSC 19/15 Q1021=
2009052413 - SBKP 241300Z 04004KT 9000 NSC 21/15 Q1021=
2009052414 - SBKP 241400Z 01007KT CAVOK 24/15 Q1020=
2009052415 - SBKP 241500Z 35007KT 9999 FEW020 25/16 Q1020=
2009052416 - SBKP 241600Z 33008KT 9999 SCT040 26/16 Q1019=
2009052417 - SBKP 241700Z 31008KT 9999 SCT040 26/15 Q1018=
2009052418 - SBKP 241800Z 27006KT 9999 SCT040 26/16 Q1018=
2009052419 - SBKP 241900Z 27007KT 9999 SCT040 27/15 Q1017=
2009052420 - SBKP 242000Z 26004KT 9999 FEW045 26/15 Q1017=
2009052421 - SBKP 242100Z 22004KT CAVOK 25/16 Q1017=
2009052422 - SBKP 242200Z 17003KT CAVOK 24/15 Q1017=
2009052423 - SBKP 242300Z 09004KT CAVOK 22/16 Q1018=
2009052500 - SBKP 250000Z 11004KT CAVOK 21/16 Q1018=
2009052501 - SBKP 250100Z 10007KT CAVOK 19/17 Q1018=
2009052502 - SBKP 250200Z 10006KT CAVOK 18/17 Q1018=
2009052503 - SBKP 250300Z 11008KT CAVOK 18/18 Q1018=
2009052504 - SBKP 250400Z 10008KT CAVOK 17/17 Q1017=
2009052505 - SBKP 250500Z 10007KT CAVOK 17/17 Q1017=
2009052506 - SBKP 250600Z 10008KT CAVOK 16/16 Q1016=
2009052507 - SBKP 250700Z 10007KT CAVOK 16/16 Q1015=
2009052508 - SBKP 250800Z 10006KT CAVOK 15/15 Q1016=
2009052509 - SBKP 250900Z 10006KT CAVOK 15/15 Q1016=
2009052510 - SBKP 251000Z 09006KT CAVOK 15/15 Q1016=
2009052511 - SBKP 251100Z 10004KT 9999 4500E NSC 17/17 Q1017=
2009052512 - SBKP 251200Z 03004KT CAVOK 20/17 Q1017=
2009052513 - SBKP 251300Z 36006KT CAVOK 23/17 Q1018=
2009052514 - SBKP 251400Z 35009KT 9999 SCT045 25/17 Q1018=
2009052515 - SBKP 251500Z 33011KT 9999 SCT048 26/17 Q1017=
2009052516 - SBKP 251600Z 33009KT 9999 BKN048 27/17 Q1016=
2009052517 - SBKP 251700Z 34011KT 9999 SCT048 27/17 Q1016=
2009052518 - SBKP 251800Z 28010KT CAVOK 28/16 Q1015=
2009052519 - SBKP 251900Z 27009KT 9999 SCT045 28/16 Q1015=
2009052520 - SBKP 252000Z 24016KT 8000 -RA BKN040 FEW045TCU BKN080 23/20 Q1016=
2009052521 - SBKP 252100Z 26005KT 9000 FEW045 BKN090 21/21 Q1016=
2009052522 - SBKP 252200Z 04003KT CAVOK 21/21 Q1016=
2009052523 - SBKP 252300Z 35002KT CAVOK 21/21 Q1016=
2009052600 - SBKP 260000Z 27003KT CAVOK 21/21 Q1017=
2009052601 - SBKP 260100Z 29001KT CAVOK 21/21 Q1017=
2009052602 - SBKP 260200Z 01005KT CAVOK 20/20 Q1017=
2009052603 - SBKP 260300Z 01005KT 9999 SCT025 BKN070 20/20 Q1017=
2009052604 - SBKP 260400Z 07005KT 9999 SCT025 BKN070 20/20 Q1017=
2009052605 - SBKP 260500Z 08004KT 9999 FEW025 SCT070 19/19 Q1016=
2009052606 - SBKP 260600Z 11006KT 9999 FEW025 SCT070 19/19 Q1016=
2009052607 - SBKP 260700Z 10005KT 9999 FEW025 SCT070 18/18 Q1016=
2009052608 - SBKP 260800Z 06003KT 9999 FEW040 17/17 Q1016=
2009052609 - SBKP 260900Z 12006KT 9999 FEW035 17/17 Q1016=
2009052610 - SBKP 261000Z 10005KT 9999 FEW035 17/17 Q1017=
2009052611 - SBKP 261100Z 08004KT 8000 FEW035 19/19 Q1016=
2009052612 - SBKP 261200Z 34006KT 8000 FEW040 21/21 Q1017=
2009052613 - SBKP 261300Z 02008KT CAVOK 23/20 Q1018=
2009052614 - SBKP 261400Z 36007KT CAVOK 25/21 Q1017=
2009052615 - SBKP 261500Z 34008KT 9999 FEW030 BKN070 26/21 Q1017=
2009052616 - SBKP 261600Z 27007KT 9999 SCT030 SCT070 27/20 Q1016=
2009052617 - SBKP 261700Z 26011KT 9999 -TSRA BKN030 FEW045CB BKN070 27/20 Q1016=
2009052618 - SBKP 261800Z 21004KT 9999 SCT040 FEW045TCU BKN090 26/20 Q1016 RETS=
2009052619 - SBKP 261900Z 20009KT 9999 SCT040 FEW045TCU SCT060 26/20 Q1016=
2009052620 - SBKP 262000Z 17006KT 9999 SCT040 FEW045TCU SCT060 26/20 Q1016=
2009052621 - SBKP 262100Z 10004KT 9999 SCT035 SCT060 23/20 Q1016=
2009052622 - SBKP 262200Z 17003KT 9999 FEW035 23/20 Q1016=
2009052623 - SBKP 262300Z 14002KT CAVOK 21/21 Q1016=
2009052700 - SBKP 270000Z 10004KT CAVOK 21/21 Q1017=
2009052701 - SBKP 270100Z 07005KT CAVOK 20/20 Q1017=
2009052702 - SBKP 270200Z 13004KT CAVOK 20/20 Q1017=
2009052703 - SBKP 270300Z 11005KT 9999 FEW030 19/19 Q1017=
2009052704 - SBKP 270400Z 10006KT 9999 FEW030 SCT070 18/18 Q1017=
2009052705 - SBKP 270500Z 13005KT 9999 FEW030 BKN070 19/19 Q1017=
2009052706 - SBKP 270600Z 11007KT 9999 FEW030 BKN080 18/18 Q1016=
2009052707 - SBKP 270700Z 11004KT 9999 FEW025 SCT050 BKN070 18/18 Q1016=
2009052708 - SBKP 270800Z 21009KT 7000 SCT007 SCT040 BKN080 18/18 Q1017=
2009052709 - SBKP 270900Z 17009KT 9999 FEW020 SCT040 BKN070 18/18 Q1017=
2009052710 - SBKP 271000Z 11007KT 9999 -RA FEW020 SCT040 BKN070 18/18 Q1017=
2009052711 - SBKP 271100Z 11009KT 8000 -RA FEW020 SCT040 BKN070 18/18 Q1018=
2009052712 - SBKP 271200Z 10007KT 9999 FEW030 SCT045 BKN090 21/21 Q1019=
2009052713 - SBKP 271300Z 10007KT 9999 FEW030 SCT045 BKN090 21/21 Q1019=
2009052714 - SBKP 271400Z 05006KT 9999 FEW030 BKN090 24/20 Q1019=
2009052715 - SBKP 271500Z 01007KT 9999 FEW030 SCT100 24/20 Q1018=
2009052716 - SBKP 271600Z 35005KT 9999 FEW030 SCT100 25/19 Q1017=
2009052717 - SBKP 271700Z 33007KT 9999 SCT030 SCT070 BKN100 26/20 Q1017=
2009052718 - SBKP 271800Z 30006KT 9999 SCT030 SCT070 BKN100 25/20 Q1017=
2009052719 - SBKP 271900Z 29004KT 9999 SCT030 BKN100 25/20 Q1016=
2009052720 - SBKP 272000Z 23003KT 9999 FEW030 BKN100 25/19 Q1017=
2009052721 - SBKP 272100Z 23003KT 9999 FEW040 BKN100 24/20 Q1017=
2009052722 - SBKP 272200Z 21002KT CAVOK 24/19 Q1018=
2009052723 - SBKP 272300Z 13004KT CAVOK 22/20 Q1018=
2009052800 - SBKP 280000Z 11004KT CAVOK 21/21 Q1018=
2009052801 - SBKP 280100Z 11006KT CAVOK 20/20 Q1018=
2009052802 - SBKP 280200Z 10006KT CAVOK 20/20 Q1018=
2009052803 - SBKP 280300Z 11004KT 4000 BR FEW035 SCT100 19/19 Q1018=
2009052804 - SBKP 280400Z 17004KT 3000 BR FEW035 19/19 Q1019=
2009052805 - SBKP 280500Z 15008KT 2700 BR FEW035 19/19 Q1018=
2009052806 - SBKP 280600Z 15007KT 2500 BR FEW035 18/18 Q1018=
2009052806 - SBKP 280645Z 15005KT 1700 R33/P2000 R15/0750 BR NSC 18/18 Q1018=
2009052807 - SBKP 280700Z 16005KT 1600 R15/P2000 R33/0800 BR NSC 18/18 Q1018=
2009052807 - SBKP 280750Z 15006KT 0800 R15/0800 R33/0350 FG NSC 18/18 Q1018=
2009052808 - SBKP 280800Z 14006KT 0500 R15/0800 R33/0350 FG NSC 18/18 Q1018=
2009052808 - SBKP 280820Z 14007KT 0100 R15/M0350 R33/M0350 FG VV001 18/18 Q1018=
2009052809 - SBKP 280900Z 14007KT 0100 R15/M0350 R33/M0350 FG VV001 18/18 Q1018=
2009052809 - SBKP 280930Z 15005KT 0900 R15/1900 R33/M0350 FG BKN002 SCT080 17/17 Q1018=
2009052810 - SBKP 281000Z 15004KT 0700 R15/0400 R33/0600 FG BKN002 SCT080 17/17 Q1019=
2009052810 - SBKP 281020Z 10006KT 3000 BR FEW005 BKN080 18/18 Q1019=
2009052811 - SBKP 281100Z 12005KT 3000 BR FEW003 BKN080 18/18 Q1019=
2009052812 - SBKP 281200Z 20005KT 5000 BR FEW020 BKN080 21/21 Q1020=
2009052813 - SBKP 281300Z 13003KT 7000 SCT030 BKN080 22/22 Q1021=
2009052814 - SBKP 281400Z 30002KT 9000 SCT035 BKN080 24/21 Q1020=
2009052815 - SBKP 281500Z 32003KT 9999 FEW035 BKN080 26/19 Q1019=
2009052816 - SBKP 281600Z 28007KT 9999 SCT035 BKN080 26/19 Q1019=
2009052817 - SBKP 281700Z 21011KT 8000 SCT035 FEW040TCU BKN080 24/22 Q1018=
2009052818 - SBKP 281800Z 21011KT 8000 SCT035 FEW040TCU BKN080 24/22 Q1018=
2009052819 - SBKP 281900Z 20011KT 9999 SCT035 FEW050TCU BKN080 22/22 Q1018=
2009052820 - SBKP 282000Z 19009KT 7000 FEW050TCU BKN080 22/22 Q1018=
2009052821 - SBKP 282100Z 18006KT 5000 BR NSC 22/22 Q1019=
2009052822 - SBKP 282200Z 18008KT 7000 NSC 22/22 Q1019=
2009052823 - SBKP 282300Z 12009KT 9999 FEW020 21/21 Q1020=
2009052900 - SBKP 290000Z 12012KT CAVOK 20/20 Q1020=
2009052901 - SBKP 290100Z 11009KT CAVOK 20/20 Q1020=
2009052902 - SBKP 290200Z 15011KT 9999 FEW018 SCT100 20/20 Q1021=
2009052903 - SBKP 290300Z 18014KT 9999 BKN017 SCT080 20/20 Q1020=
2009052904 - SBKP 290400Z 18013KT 9999 BKN017 SCT080 19/19 Q1020=
2009052905 - SBKP 290500Z 16011KT 9999 FEW020 SCT080 19/19 Q1020=
2009052906 - SBKP 290600Z 18013KT 9999 SCT040 19/19 Q1020=
2009052907 - SBKP 290700Z 17011KT 9999 SCT040 18/18 Q1020=
2009052908 - SBKP 290800Z 16013KT 9999 SCT040 18/18 Q1020=
2009052909 - SBKP 290900Z 16013KT 9999 SCT040 18/18 Q1020=
2009052910 - SBKP 291000Z 17012KT 9999 SCT040 SCT080 19/19 Q1021=
2009052911 - SBKP 291100Z 13013KT 9999 BKN045 BKN080 19/19 Q1021=
2009052912 - SBKP 291200Z 12016KT 9999 FEW020 BKN060 19/19 Q1022=
2009052913 - SBKP 291300Z 12016KT CAVOK 21/18 Q1022=
2009052914 - SBKP 291400Z 13016KT CAVOK 22/17 Q1022=
2009052915 - SBKP 291500Z 12017KT CAVOK 22/17 Q1021=
2009052916 - SBKP 291600Z 12017KT 9999 FEW045 SCT080 22/17 Q1021=
2009052917 - SBKP 291700Z 15018KT 9999 FEW045 SCT080 22/17 Q1020=
2009052918 - SBKP 291800Z 13019KT 9999 FEW045 SCT080 21/17 Q1020=
2009052919 - SBKP 291900Z 14019KT 9999 FEW025 21/17 Q1020=
2009052920 - SBKP 292000Z 13018G28KT 9999 FEW025 20/17 Q1020=
2009052921 - SBKP 292100Z 13017KT 9999 FEW020 SCT080 19/17 Q1020=
2009052922 - SBKP 292200Z 13016KT 9999 FEW020 18/17 Q1021=
2009052923 - SBKP 292300Z 13015KT 9999 FEW020 17/17 Q1021=
2009053000 - SBKP 300000Z 12015KT 9999 FEW020 17/17 Q1021=
2009053001 - SBKP 300100Z 11016KT 9999 FEW020 17/16 Q1021=
2009053002 - SBKP 300200Z 12015G25KT 9999 FEW020 16/16 Q1021=
2009053003 - SBKP 300300Z 15017KT 9999 FEW020 16/16 Q1020=
2009053004 - SBKP 300400Z 15016KT 9999 FEW015 16/16 Q1020=
2009053005 - SBKP 300500Z 15015KT 9999 FEW015 16/16 Q1020=
2009053006 - SBKP 300600Z 16015KT 9999 FEW015 16/16 Q10190=
2009053007 - SBKP 300700Z 15013KT 9999 SCT015 16/16 Q1019=
2009053008 - SBKP 300800Z 14013KT 9999 SCT015 16/16 Q1019=
2009053009 - SBKP 300900Z 17011KT 9999 BKN040 17/17 Q1019=
2009053010 - SBKP 301000Z 16012KT 9999 SCT040 SCT080 17/17 Q1019=
2009053011 - SBKP 301100Z 12012KT 9999 SCT040 SCT080 18/18 Q1020=
2009053012 - SBKP 301200Z 11010KT CAVOK 19/18 Q1020=
2009053013 - SBKP 301300Z 11008KT CAVOK 21/18 Q1020=
2009053014 - SBKP 301400Z 10004KT CAVOK 22/18 Q1019=
2009053015 - SBKP 301500Z 04006KT CAVOK 24/17 Q1018=
2009053016 - SBKP 301600Z 36004KT 9999 FEW045 SCT090 25/18 Q1017=
2009053017 - SBKP 301700Z 36006KT 9999 FEW045 SCT100 26/17 Q1016=
2009053018 - SBKP 301800Z 33005KT 9999 FEW045 SCT060 BKN080 26/18 Q1016=
2009053019 - SBKP 301900Z 33006KT 9999 FEW035 SCT080 26/18 Q1015=
2009053020 - SBKP 302000Z 33005KT 9999 FEW035 SCT090 25/18 Q1016=
2009053021 - SBKP 302100Z 01004KT 9999 FEW035 BKN090 24/18 Q1016=
2009053022 - SBKP 302200Z 03002KT 9999 FEW035 BKN090 24/19 Q1016=
2009053023 - SBKP 302300Z 07004KT 9999 FEW035 BKN090 23/19 Q1016=
2009053000 - SBKP 300000Z 12015KT 9999 FEW020 17/17 Q1021=
2009053001 - SBKP 300100Z 11016KT 9999 FEW020 17/16 Q1021=
2009053002 - SBKP 300200Z 12015G25KT 9999 FEW020 16/16 Q1021=
2009053003 - SBKP 300300Z 15017KT 9999 FEW020 16/16 Q1020=
2009053004 - SBKP 300400Z 15016KT 9999 FEW015 16/16 Q1020=
2009053005 - SBKP 300500Z 15015KT 9999 FEW015 16/16 Q1020=
2009053006 - SBKP 300600Z 16015KT 9999 FEW015 16/16 Q10190=
2009053007 - SBKP 300700Z 15013KT 9999 SCT015 16/16 Q1019=
2009053008 - SBKP 300800Z 14013KT 9999 SCT015 16/16 Q1019=
2009053009 - SBKP 300900Z 17011KT 9999 BKN040 17/17 Q1019=
2009053010 - SBKP 301000Z 16012KT 9999 SCT040 SCT080 17/17 Q1019=
2009053011 - SBKP 301100Z 12012KT 9999 SCT040 SCT080 18/18 Q1020=
2009053012 - SBKP 301200Z 11010KT CAVOK 19/18 Q1020=
2009053013 - SBKP 301300Z 11008KT CAVOK 21/18 Q1020=
2009053014 - SBKP 301400Z 10004KT CAVOK 22/18 Q1019=
2009053015 - SBKP 301500Z 04006KT CAVOK 24/17 Q1018=
2009053016 - SBKP 301600Z 36004KT 9999 FEW045 SCT090 25/18 Q1017=
2009053017 - SBKP 301700Z 36006KT 9999 FEW045 SCT100 26/17 Q1016=
2009053018 - SBKP 301800Z 33005KT 9999 FEW045 SCT060 BKN080 26/18 Q1016=
2009053019 - SBKP 301900Z 33006KT 9999 FEW035 SCT080 26/18 Q1015=
2009053020 - SBKP 302000Z 33005KT 9999 FEW035 SCT090 25/18 Q1016=
2009053021 - SBKP 302100Z 01004KT 9999 FEW035 BKN090 24/18 Q1016=
2009053022 - SBKP 302200Z 03002KT 9999 FEW035 BKN090 24/19 Q1016=
2009053023 - SBKP 302300Z 07004KT 9999 FEW035 BKN090 23/19 Q1016=
2009053100 - SBKP 310000Z 06004KT 9999 FEW035 SCT040 BKN080 22/19 Q1017=
2009060101 - SBKP 010100Z 29008KT 9999 SCT020 SCT040 BKN070 20/20 Q1015=
2009060102 - SBKP 010200Z 28009KT 9999 SCT020 BKN030 BKN070 19/19 Q1015=
2009060103 - SBKP 010300Z 28008KT 4000 -RA BR SCT009 BKN020 BKN030 18/18 Q1015=
2009060104 - SBKP 010400Z 27007KT 9999 SCT010 BKN020 BKN030 17/17 Q1015=
2009060105 - SBKP 010500Z 29008KT 9999 -RA SCT010 BKN015 OVC035 17/17 Q1014=
2009060106 - SBKP 010600Z 28007KT 9999 SCT009 BKN020 OVC035 16/16 Q1014=
2009060107 - SBKP 010700Z 29009KT 9999 FEW008 OVC012 16/16 Q1014=
2009060108 - SBKP 010800Z 24011KT 8000 -RA SCT007 OVC014 14/14 Q1014=
2009060109 - SBKP 010900Z 29006KT 9999 SCT010 BKN020 BKN035 14/14 Q1014=
2009060110 - SBKP 011000Z 24008KT 9999 SCT015 BKN025 BKN070 14/14 Q1015=
2009060110 - SBKP 011020Z 26009KT 9999 BKN010 13/13 Q1016=
2009060111 - SBKP 011100Z 25008KT 9999 BKN008 13/13 Q1016=
2009060112 - SBKP 011200Z 25007KT 9999 BKN013 13/13 Q1017=
2009060113 - SBKP 011300Z 31007KT 9999 BKN025 13/13 Q1017=
2009060114 - SBKP 011400Z 31010KT 9999 BKN025 14/11 Q1018=
2009060115 - SBKP 011500Z 33008KT 9999 SCT030 16/11 Q1017=
2009060116 - SBKP 011600Z 29009KT 9999 SCT030 17/10 Q1016=
2009060117 - SBKP 011700Z 32011KT 9999 SCT035 17/09 Q1015=
2009060118 - SBKP 011800Z 32011KT 9999 FEW035 17/08 Q1015=
2009060119 - SBKP 011900Z 28010KT 9999 FEW040 17/08 Q1015=
2009060120 - SBKP 012000Z 30013KT 9999 FEW040 16/08 Q1016=
2009060121 - SBKP 012100Z 28009KT 9999 FEW040 14/08 Q1017=
2009060122 - SBKP 012200Z 27008KT 9999 FEW040 13/09 Q1017=
2009060123 - SBKP 012300Z 23007KT 9999 BKN040 11/09 Q1018=
2009060200 - SBKP 020000Z 23007KT 9999 FEW040 11/09 Q1018=
2009060201 - SBKP 020100Z 25005KT 9999 FEW035 10/09 Q1019=
2009060202 - SBKP 020200Z 24005KT 9999 BKN030 10/09 Q1019=
2009060203 - SBKP 020300Z 24004KT 9999 BKN030 10/09 Q1018=
2009060204 - SBKP 020400Z 26004KT 9999 BKN035 SCT070 10/10 Q1018=
2009060205 - SBKP 020500Z 25003KT 9999 BKN030 SCT070 10/09 Q1018=
2009060206 - SBKP 020600Z 34002KT 9999 BKN030 10/10 Q1018=
2009060207 - SBKP 020700Z 30002KT 9999 BKN030 10/09 Q1018=
2009060208 - SBKP 020800Z 30002KT 9999 OVC030 10/10 Q1018=
2009060209 - SBKP 020900Z 27003KT 9999 OVC030 10/10 Q1019=
2009060210 - SBKP 021000Z 26003KT 9999 OVC030 10/09 Q1019=
2009060211 - SBKP 021100Z 27004KT 9999 OVC027 10/08 Q1020=
2009060212 - SBKP 021200Z 21003KT 9999 OVC025 10/09 Q1020=
2009060213 - SBKP 021300Z 26004KT 9999 OVC025 11/09 Q1020=
2009060214 - SBKP 021400Z 30005KT 9999 OVC025 11/08 Q1020=
2009060215 - SBKP 021500Z 35005KT 9999 BKN030 12/07 Q1020=
2009060216 - SBKP 021600Z 31004KT 9999 SCT030 14/08 Q1019=
2009060217 - SBKP 021700Z 33006KT 9999 FEW030 15/07 Q1018=
2009060218 - SBKP 021800Z 32006KT CAVOK 16/07 Q1017=
2009060219 - SBKP 021900Z 29008KT 9999 FEW040 16/07 Q1018=
2009060220 - SBKP 022000Z 31005KT CAVOK 16/07 Q1018=
2009060221 - SBKP 022100Z 28005KT CAVOK 14/07 Q1019=
2009060222 - SBKP 022200Z 27004KT CAVOK 14/07 Q1019=
2009060223 - SBKP 022300Z 36004KT CAVOK 12/08 Q1020=
2009060300 - SBKP 030000Z 02006KT 9999 FEW040 12/08 Q1021=
2009060301 - SBKP 030100Z 31002KT CAVOK 11/09 Q1021=
2009060302 - SBKP 030200Z 01003KT 9999 FEW040 11/09 Q1021=
2009060303 - SBKP 030300Z 04004KT CAVOK 10/09 Q1021=
2009060304 - SBKP 030400Z 06003KT CAVOK 09/09 Q1021=
2009060305 - SBKP 030500Z 06002KT CAVOK 08/08 Q1021=
2009060306 - SBKP 030600Z 10006KT CAVOK 07/07 Q1020=
2009060307 - SBKP 030700Z 12005KT CAVOK 07/07 Q1020=
2009060308 - SBKP 030800Z 12005KT CAVOK 06/06 Q1021=
2009060309 - SBKP 030900Z 10006KT 6000 NSC 06/06 Q1021=
2009060309 - SBKP 030933Z 12005KT 4000 BR NSC 06/06 Q1022=
2009060310 - SBKP 031000Z 13005KT 4000 BR NSC 06/06 Q1022=
2009060311 - SBKP 031100Z 12006KT 4000 BR NSC 08/08 Q1023=
2009060312 - SBKP 031200Z 14006KT 6000 NSC 11/10 Q1023=
2009060313 - SBKP 031300Z 13013KT 8000 FEW020 13/09 Q1023=
2009060314 - SBKP 031400Z 13011KT 9999 FEW020 14/08 Q1023=
2009060315 - SBKP 031500Z 12005KT 9999 FEW020 15/04 Q1022=
2009060316 - SBKP 031600Z 13006KT CAVOK 16/02 Q1021=
2009060317 - SBKP 031700Z 14005KT CAVOK 17/02 Q1021=
2009060318 - SBKP 031800Z 12004KT CAVOK 18/02 Q1020=
2009060319 - SBKP 031900Z 10006KT CAVOK 18/02 Q1020=
2009060320 - SBKP 032000Z 11006KT CAVOK 17/03 Q1021=
2009060321 - SBKP 032100Z 11007KT CAVOK 15/04 Q1021=
2009060322 - SBKP 032200Z 12008KT CAVOK 13/05 Q1022=
2009060323 - SBKP 032300Z 13008KT CAVOK 11/06 Q1022=
2009060400 - SBKP 040000Z 14008KT CAVOK 11/07 Q1022=
2009060401 - SBKP 040100Z 12010KT CAVOK 09/09 Q1022=
2009060402 - SBKP 040200Z 12013KT CAVOK 10/10 Q1022=
2009060403 - SBKP 040300Z 12014KT CAVOK 09/09 Q1022=
2009060404 - SBKP 040400Z 12014KT CAVOK 09/09 Q1022=
2009060405 - SBKP 040500Z 12012KT CAVOK 08/08 Q1021=
2009060406 - SBKP 040600Z 12010KT CAVOK 08/08 Q1021=
2009060407 - SBKP 040700Z 11010KT CAVOK 08/08 Q1021=
2009060408 - SBKP 040800Z 11007KT CAVOK 07/07 Q1021=
2009060409 - SBKP 040900Z 11008KT CAVOK 07/07 Q1021=
2009060410 - SBKP 041000Z 11008KT CAVOK 07/07 Q1022=
2009060411 - SBKP 041100Z 11008KT CAVOK 09/08 Q1022=
2009060412 - SBKP 041200Z 09006KT CAVOK 12/08 Q1022=
2009060413 - SBKP 041300Z 06005KT CAVOK 15/06 Q1023=
2009060414 - SBKP 041400Z 02007KT CAVOK 18/03 Q1022=
2009060415 - SBKP 041500Z 35011KT CAVOK 20/01 Q1021=
2009060416 - SBKP 041600Z 36008KT CAVOK 21/02 Q1021=
2009060417 - SBKP 041700Z 35012KT CAVOK 22/01 Q1019=
2009060418 - SBKP 041800Z 36007KT CAVOK 23/03 Q1019=
2009060419 - SBKP 041900Z 34009KT CAVOK 23/02 Q1018=
2009060420 - SBKP 042000Z 33007KT CAVOK 22/04 Q1019=
2009060421 - SBKP 042100Z 28004KT CAVOK 20/03 Q1019=
2009060422 - SBKP 042200Z 24002KT CAVOK 20/05 Q1019=
2009060423 - SBKP 042300Z 12004KT CAVOK 16/05 Q1019=
2009060500 - SBKP 050000Z 11008KT CAVOK 14/06 Q1020=
2009060501 - SBKP 050100Z 10009KT CAVOK 14/07 Q1020=
2009060502 - SBKP 050200Z 11008KT CAVOK 13/07 Q1020=
2009060503 - SBKP 050300Z 10008KT CAVOK 12/07 Q1019=
2009060504 - SBKP 050400Z 11008KT CAVOK 12/08 Q1019=
2009060505 - SBKP 050500Z 10008KT CAVOK 11/09 Q1019=
2009060506 - SBKP 050600Z 10008KT CAVOK 11/10 Q1018=
2009060507 - SBKP 050700Z 11007KT CAVOK 11/10 Q1018=
2009060508 - SBKP 050800Z 11006KT CAVOK 11/11 Q1018=
2009060509 - SBKP 050900Z 10006KT CAVOK 11/11 Q1019=
2009060510 - SBKP 051000Z 09004KT CAVOK 11/11 Q1020=
2009060511 - SBKP 051100Z 08003KT 7000 NSC 14/14 Q1020=
2009060512 - SBKP 051200Z 36006KT 8000 NSC 17/15 Q1021=
2009060513 - SBKP 051300Z 36010KT CAVOK 21/16 Q1021=
2009060514 - SBKP 051400Z 35013KT CAVOK 24/16 Q1021=
2009060515 - SBKP 051500Z 33013KT 9999 FEW025 25/17 Q1020=
2009060516 - SBKP 051600Z 33011KT 9999 BKN040 26/16 Q1020=
2009060517 - SBKP 051700Z 30014G28KT 9999 4000N -RA BKN045 FEW048TCU 25/15 Q1019=
2009060518 - SBKP 051800Z 02007KT 9999 BKN048 SCT070 22/16 Q1019=
2009060519 - SBKP 051900Z 01004KT 9999 FEW040 25/17 Q1018=
2009060520 - SBKP 052000Z 31006KT 9999 FEW040 24/14 Q1018=
2009060521 - SBKP 052100Z 29004KT CAVOK 23/15 Q1019=
2009060522 - SBKP 052200Z 28007KT CAVOK 22/14 Q1020=
2009060523 - SBKP 052300Z 26008KT CAVOK 22/13 Q1020=
2009060600 - SBKP 060000Z 31005KT CAVOK 20/13 Q1020=
2009060601 - SBKP 060100Z 02002KT CAVOK 19/13 Q1021=
2009060602 - SBKP 060200Z 04002KT CAVOK 18/14 Q1021=
2009060603 - SBKP 060300Z 04004KT CAVOK 18/14 Q1020=
2009060604 - SBKP 060400Z 23002KT CAVOK 16/14 Q1021=
2009060605 - SBKP 060500Z 13004KT CAVOK 15/15 Q1021=
2009060606 - SBKP 060600Z 10004KT CAVOK 15/15 Q1020=
2009060607 - SBKP 060700Z 05003KT CAVOK 16/15 Q1020=
2009060608 - SBKP 060800Z 12003KT CAVOK 15/15 Q1021=
2009060609 - SBKP 060900Z 10003KT CAVOK 15/15 Q1021=
2009060610 - SBKP 061000Z 15005KT 8000 NSC 14/14 Q1022=
2009060611 - SBKP 061100Z 12006KT 8000 3500E NSC 15/15 Q1022=
2009060612 - SBKP 061200Z 10006KT 9000 NSC 18/15 Q1023=
2009060613 - SBKP 061300Z 12012KT CAVOK 19/12 Q1022=
2009060614 - SBKP 061400Z 11010KT CAVOK 20/11 Q1022=
2009060615 - SBKP 061500Z 10008KT CAVOK 21/11 Q1021=
2009060616 - SBKP 061600Z 10004KT 9999 FEW030 22/10 Q1021=
2009060617 - SBKP 061700Z 15004KT 9999 FEW040 23/11 Q1020=
2009060618 - SBKP 061800Z 23006KT 9999 FEW045 24/10 Q1020=
2009060619 - SBKP 061900Z 21005KT 9999 FEW045 24/10 Q1020=
2009060620 - SBKP 062000Z 21006KT 9999 FEW045 23/10 Q1020=
2009060621 - SBKP 062100Z 14008KT CAVOK 21/11 Q1020=
2009060622 - SBKP 062200Z 12012KT CAVOK 18/13 Q1021=
2009060623 - SBKP 062300Z 12013KT CAVOK 17/14 Q1021=
2009060700 - SBKP 070000Z 11012KT CAVOK 16/14 Q1022=
2009060701 - SBKP 070100Z 11014KT CAVOK 15/15 Q1022=
2009060702 - SBKP 070200Z 11015KT 8000 NSC 14/14 Q1022=
2009060703 - SBKP 070300Z 11014KT 8000 NSC 14/14 Q1022=
2009060704 - SBKP 070400Z 12016KT 8000 NSC 14/14 Q1022=
2009060705 - SBKP 070500Z 11017KT CAVOK 14/14 Q1022=
2009060706 - SBKP 070600Z 12015KT CAVOK 13/13 Q1022=
2009060707 - SBKP 070700Z 12011KT CAVOK 13/13 Q1022=
2009060708 - SBKP 070800Z 14014KT CAVOK 13/13 Q1022=
2009060709 - SBKP 070900Z 14012KT CAVOK 12/12 Q1022=
2009060710 - SBKP 071000Z 14014KT CAVOK 13/13 Q1023=
2009060711 - SBKP 071100Z 12016KT CAVOK 14/14 Q1023=
2009060712 - SBKP 071200Z 12020KT CAVOK 15/13 Q1024 WS R15=
2009060713 - SBKP 071300Z 11014G24KT CAVOK 17/13 Q1024=
2009060714 - SBKP 071400Z 11017KT CAVOK 18/12 Q1024=
2009060715 - SBKP 071500Z 12016KT CAVOK 20/12 Q1023=
2009060716 - SBKP 071600Z 12012KT CAVOK 21/11 Q1023=
2009060717 - SBKP 071700Z 12012KT CAVOK 21/10 Q1022=
2009060718 - SBKP 071800Z 12011KT CAVOK 21/11 Q1021=
2009060719 - SBKP 071900Z 13014KT CAVOK 21/11 Q1021=
2009060720 - SBKP 072000Z 14015KT CAVOK 19/11 Q1022=
2009060721 - SBKP 072100Z 13015KT CAVOK 17/11 Q1022=
2009060722 - SBKP 072200Z 12018KT CAVOK 15/11 Q1023=
2009060723 - SBKP 072300Z 12019KT CAVOK 15/10 Q1023=
2009060800 - SBKP 080000Z 12019KT CAVOK 14/11 Q1023=
2009060801 - SBKP 080100Z 12017KT CAVOK 13/11 Q1023=
2009060802 - SBKP 080200Z 11017KT CAVOK 13/11 Q1023=
2009060803 - SBKP 080300Z 12015KT CAVOK 12/12 Q1023=
2009060804 - SBKP 080400Z 12014KT CAVOK 12/12 Q1022=
2009060805 - SBKP 080500Z 12014KT CAVOK 12/12 Q1022=
2009060806 - SBKP 080600Z 11017KT CAVOK 12/12 Q1021=
2009060807 - SBKP 080700Z 13014KT CAVOK 12/12 Q1021=
2009060808 - SBKP 080800Z 11013KT CAVOK 12/12 Q1021=
2009060809 - SBKP 080900Z 14014KT CAVOK 12/12 Q1021=
2009060810 - SBKP 081000Z 13012KT CAVOK 12/12 Q1022=
2009060811 - SBKP 081100Z 10010KT CAVOK 12/12 Q1023=
2009060812 - SBKP 081200Z 11008KT CAVOK 14/13 Q1024=
2009060813 - SBKP 081300Z 12007KT CAVOK 16/13 Q1024=
2009060814 - SBKP 081400Z 12006KT CAVOK 18/13 Q1024=
2009060815 - SBKP 081500Z 06005KT CAVOK 19/13 Q1023=
2009060816 - SBKP 081600Z 06002KT CAVOK 21/12 Q1022=
2009060817 - SBKP 081700Z 36004KT 9999 FEW040 BKN090 22/12 Q1021=
2009060818 - SBKP 081800Z 32003KT 9999 FEW040 SCT090 23/11 Q1021=
2009060819 - SBKP 081900Z 32003KT 9999 FEW040 BKN090 22/12 Q1021=
2009060820 - SBKP 082000Z 32003KT 9999 FEW040 BKN090 22/12 Q1021=
2009060821 - SBKP 082100Z 31003KT CAVOK 20/13 Q1021=
2009060822 - SBKP 082200Z 31001KT CAVOK 20/12 Q1021=
2009060823 - SBKP 082300Z 13006KT CAVOK 18/14 Q1022=
2009060900 - SBKP 090000Z 14007KT CAVOK 18/14 Q1021=
2009060901 - SBKP 090100Z 11006KT CAVOK 16/15 Q1021=
2009060902 - SBKP 090200Z 09005KT CAVOK 16/14 Q1021=
2009060903 - SBKP 090300Z 05004KT CAVOK 16/14 Q1021=
2009060904 - SBKP 090400Z 09006KT CAVOK 15/14 Q1021=
2009060905 - SBKP 090500Z 11006KT CAVOK 14/14 Q1021=
2009060906 - SBKP 090600Z 10006KT CAVOK 13/13 Q1021=
2009060907 - SBKP 090700Z 11006KT CAVOK 13/13 Q1021=
2009060908 - SBKP 090800Z 09006KT CAVOK 13/13 Q1020=
2009060909 - SBKP 090900Z 11006KT CAVOK 13/13 Q1020=
2009060910 - SBKP 091000Z 11007KT CAVOK 13/13 Q1021=
2009060911 - SBKP 091100Z 10005KT CAVOK 13/13 Q1022=
2009060912 - SBKP 091200Z 09005KT CAVOK 16/15 Q1022=
2009060913 - SBKP 091300Z 04009KT CAVOK 20/14 Q1022=
2009060914 - SBKP 091400Z 36009KT CAVOK 22/14 Q1021=
2009060915 - SBKP 091500Z 34008KT 9999 FEW030 23/14 Q1021=
2009060916 - SBKP 091600Z 32009KT 9999 FEW030 24/14 Q1019=
2009060917 - SBKP 091700Z 32008KT 9999 FEW030 25/10 Q1019=
2009060918 - SBKP 091800Z 33006KT 9999 FEW030 25/10 Q1019=
2009060919 - SBKP 091900Z 36006KT 9999 FEW030 25/09 Q1019=
2009060920 - SBKP 092000Z 02005KT 9999 FEW030 24/10 Q1018=
2009060921 - SBKP 092100Z 03005KT 9000 NSC 23/11 Q1019=
2009060922 - SBKP 092200Z 04005KT CAVOK 22/12 Q1019=
2009060923 - SBKP 092300Z 03005KT CAVOK 21/12 Q1020=
2009061000 - SBKP 100000Z 08005KT 9999 FEW045 BKN090 19/13 Q1020=
2009061001 - SBKP 100100Z 08005KT 9999 FEW045 BKN090 19/13 Q1020=
2009061002 - SBKP 100200Z 10005KT CAVOK 18/13 Q1020=
2009061003 - SBKP 100300Z 12005KT CAVOK 16/14 Q1020=
2009061004 - SBKP 100400Z 10007KT CAVOK 16/14 Q1019=
2009061005 - SBKP 100500Z 11007KT CAVOK 15/14 Q1019=
2009061006 - SBKP 100600Z 10006KT CAVOK 15/14 Q1018=
2009061007 - SBKP 100700Z 11006KT CAVOK 15/14 Q1018=
2009061008 - SBKP 100800Z 11006KT CAVOK 14/14 Q1018=
2009061009 - SBKP 100900Z 10007KT CAVOK 14/14 Q1019=
2009061010 - SBKP 101000Z 10005KT 9999 FEW048 BKN100 15/15 Q1019=
2009061011 - SBKP 101100Z 10004KT 9999 FEW048 BKN100 16/15 Q1020=
2009061012 - SBKP 101200Z 08003KT 9999 FEW048 BKN100 17/15 Q1021=
2009061013 - SBKP 101300Z 22003KT 9999 FEW048 BKN100 19/16 Q1021=
2009061014 - SBKP 101400Z 08004KT 9999 VCSH FEW030 BKN070 18/18 Q1020=
2009061014 - SBKP 101440Z 23015KT 4000 -RA BR SCT010 SCT030 BKN070 16/16 Q1022=
2009061015 - SBKP 101500Z 22015KT 2500 -RA BR BKN005 SCT010 OVC100 16/16 Q1021=
2009061016 - SBKP 101600Z 19009KT 5000 BR SCT005 OVC100 16/16 Q1021=
2009061017 - SBKP 101700Z 10006KT 7000 NSC 16/16 Q1019=
2009061017 - SBKP 101720Z 20005KT 4000 -RA BR FEW010 BKN070 OVC100 17/17 Q1020=
2009061017 - SBKP 101745Z 20005KT 3000 RA BR FEW010 BKN070 OVC100 16/16 Q1020=
2009061018 - SBKP 101800Z 17005KT 3000 -RA BR SCT010 BKN070 OVC100 16/16 Q1020 RERA=
2009061019 - SBKP 101900Z 12005KT 5000 -RA BR FEW012 SCT060 OVC100 16/16 Q1019=
2009061020 - SBKP 102000Z 09004KT 3000 -RA BR BKN005 BKN045 OVC100 16/16 Q1020=
2009061020 - SBKP 102035Z 22012KT 4000 -RA BR BKN010 BKN045 OVC100 16/16 Q1021=
2009061021 - SBKP 102100Z 19007KT 4000 -RA BR SCT010 BKN040 OVC100 16/16 Q1020=
2009061021 - SBKP 102120Z 08008KT 6000 -RA SCT010 BKN040 OVC100 15/15 Q1020=
2009061022 - SBKP 102200Z 08006KT 9999 FEW020 BKN045 OVC100 15/15 Q1020=
2009061023 - SBKP 102300Z 18015G30KT 8000 -RA SCT015 BKN035 OVC100 16/16 Q1021=
2009061100 - SBKP 110000Z 15007KT 7000 -RA FEW010 BKN033 OVC090 16/16 Q1021=
2009061100 - SBKP 110040Z 10005KT 9999 TS BKN035 FEW040CB OVC090 16/16 Q1021=
2009061101 - SBKP 110100Z 08005KT 7000 -TSRA BKN035 FEW040CB OVC090 16/16 Q1021=
2009061102 - SBKP 110200Z 12003KT 9999 -TSRA BKN035 FEW040CB OVC090 16/16 Q1022=
2009061103 - SBKP 110300Z 10004KT 9999 -TSRA BKN035 FEW040CB OVC090 15/15 Q1022 WS R15=
2009061104 - SBKP 110400Z 08006KT 9999 -RA BKN035 OVC090 15/15 Q1021 RETS=
2009061105 - SBKP 110500Z 10004KT 9999 SCT035 BKN050 OVC090 15/15 Q1021=
2009061106 - SBKP 110600Z 10005KT 9999 SCT035 BKN050 OVC090 15/15 Q1020=
2009061107 - SBKP 110700Z 12003KT 9999 SCT035 BKN050 OVC090 15/15 Q1020=
2009061108 - SBKP 110800Z 19006KT 9999 -RA SCT035 BKN050 OVC090 15/15 Q1020=
2009061109 - SBKP 110900Z 14005KT 9999 FEW030 BKN050 OVC090 15/15 Q1020=
2009061109 - SBKP 110943Z 17005KT 3000 -RA BR SCT006 BKN050 OVC090 15/15 Q1021=
2009061110 - SBKP 111000Z 17004KT 3000 -RA BR SCT008 BKN040 OVC080 15/15 Q1021=
2009061110 - SBKP 111045Z 06005KT 6000 FEW008 BKN070 BKN100 15/15 Q1021=
2009061111 - SBKP 111100Z 06006KT 6000 FEW010 SCT070 BKN100 15/15 Q1021=
2009061112 - SBKP 111200Z 03003KT 9999 FEW030 SCT070 BKN100 16/16 Q1022=
2009061113 - SBKP 111300Z 09003KT 9999 FEW010 BKN100 18/18 Q1022=
2009061114 - SBKP 111400Z 02004KT 9999 FEW010 SCT100 20/20 Q1022=
2009061115 - SBKP 111500Z 34005KT 9999 BKN018 SCT100 20/20 Q1022=
2009061116 - SBKP 111600Z 34006KT 9999 FEW018 SCT030 20/19 Q1021=
2009061117 - SBKP 111700Z 32005KT 9999 FEW020 BKN030 20/19 Q1021=
2009061118 - SBKP 111800Z 26006KT 9999 FEW020 SCT030 FEW035TCU 21/19 Q1020=
2009061119 - SBKP 111900Z 20004KT 9999 FEW030 FEW035TCU 21/19 Q1020=
2009061120 - SBKP 112000Z 24004KT 9999 FEW030 FEW035TCU 20/19 Q1021=
2009061121 - SBKP 112100Z 22005KT 9999 FEW040TCU BKN060 20/19 Q1021=
2009061122 - SBKP 112200Z 17006KT 9999 FEW045 19/19 Q1021=
2009061123 - SBKP 112300Z 12005KT CAVOK 18/18 Q1022=
2009061200 - SBKP 120000Z 10004KT 9999 FEW045 17/17 Q1022=
2009061201 - SBKP 120100Z 10008KT CAVOK 16/16 Q1021=
2009061202 - SBKP 120200Z 11010KT CAVOK 16/16 Q1021=
2009061203 - SBKP 120300Z 13010KT CAVOK 15/15 Q1021=
2009061204 - SBKP 120400Z 15010KT CAVOK 15/15 Q1021=
2009061205 - SBKP 120500Z 14010KT CAVOK 15/15 Q1021=
2009061206 - SBKP 120600Z 18007KT CAVOK 15/15 Q1021=
2009061207 - SBKP 120700Z 16004KT 9999 FEW030 BKN070 15/15 Q1021=
2009061208 - SBKP 120800Z 18005KT 9999 BKN030 BKN070 14/14 Q1021=
2009061209 - SBKP 120900Z 16005KT 9999 SCT030 BKN100 15/15 Q1021=
2009061210 - SBKP 121000Z 09003KT 9999 SCT030 BKN100 15/15 Q1022=
2009061211 - SBKP 121100Z 13007KT 7000 FEW015 SCT030 OVC090 15/15 Q1022=
2009061212 - SBKP 121200Z 13006KT 6000 -RA SCT030 OVC090 15/15 Q1022=
2009061213 - SBKP 121300Z 09005KT 9999 FEW020 SCT035 BKN085 16/16 Q1023=
2009061214 - SBKP 121400Z 10003KT 9999 FEW020 SCT040 BKN090 17/17 Q1023=
2009061215 - SBKP 121500Z 15005KT 9999 SCT022 BKN075 18/17 Q1023=
2009061216 - SBKP 121600Z 03005KT 9999 VCSH SCT025 FEW040TCU BKN075 18/17 Q1022=
2009061217 - SBKP 121700Z 34001KT 9999 VCSH FEW020 BKN035 FEW040TCU BKN075 19/15 Q1021=
2009061218 - SBKP 121800Z 12009KT 9999 SCT035 FEW040TCU BKN075 BKN085 17/17 Q1021=
2009061219 - SBKP 121900Z 11009KT 9999 BKN030 BKN085 17/17 Q1021=
2009061220 - SBKP 122000Z 12014KT 9999 FEW030 SCT085 16/16 Q1021=
2009061221 - SBKP 122100Z 12010KT 9999 FEW030 15/15 Q1021=
2009061222 - SBKP 122200Z 13008KT CAVOK 14/14 Q1022=
2009061223 - SBKP 122300Z 12010KT CAVOK 13/13 Q1022=
2009061300 - SBKP 130000Z 12011KT CAVOK 13/13 Q1022=
2009061301 - SBKP 130100Z 11010KT CAVOK 13/13 Q1022=
2009061302 - SBKP 130200Z 11010KT CAVOK 13/13 Q1022=
2009061303 - SBKP 130300Z 17010KT CAVOK 12/12 Q1022=
2009061304 - SBKP 130400Z 16010KT 9000 NSC 12/12 Q1022=
2009061305 - SBKP 130500Z 17004KT CAVOK 12/12 Q1022=
2009061306 - SBKP 130600Z 16007KT CAVOK 12/12 Q1022=
2009061307 - SBKP 130700Z 16007KT CAVOK 11/11 Q1021=
2009061308 - SBKP 130800Z 10004KT CAVOK 11/11 Q1021=
2009061309 - SBKP 130900Z 17004KT CAVOK 11/11 Q1021=
2009061310 - SBKP 131000Z 14005KT 9000 NSC 11/11 Q1022=
2009061311 - SBKP 131100Z 13006KT CAVOK 12/12 Q1022=
2009061312 - SBKP 131200Z 13009KT CAVOK 14/13 Q1022=
2009061313 - SBKP 131300Z 14007KT CAVOK 16/12 Q1023=
2009061314 - SBKP 131400Z 13010KT 9999 FEW020 17/12 Q1022=
2009061315 - SBKP 131500Z 12006KT 9999 FEW030 18/12 Q1022=
2009061316 - SBKP 131600Z 15006KT 9999 SCT030 19/10 Q1021=
2009061317 - SBKP 131700Z 21007KT 9999 SCT030 19/11 Q1020=
2009061318 - SBKP 131800Z 20009KT 9999 SCT040 19/10 Q1020=
2009061319 - SBKP 131900Z 19008KT 9999 SCT045 SCT070 19/09 Q1020=
2009061320 - SBKP 132000Z 22006KT 9999 FEW045 18/09 Q1020=
2009061321 - SBKP 132100Z 19008KT 9999 FEW045 17/11 Q1020=
2009061322 - SBKP 132200Z 18007KT CAVOK 14/13 Q1021=
2009061323 - SBKP 132300Z 13010KT CAVOK 13/13 Q1021=
2009061400 - SBKP 140000Z 12011KT CAVOK 13/13 Q1021=
2009061401 - SBKP 140100Z 13010KT CAVOK 12/12 Q1022=
2009061402 - SBKP 140200Z 11008KT CAVOK 12/12 Q1022=
2009061403 - SBKP 140300Z 14008KT CAVOK 11/11 Q1021=
2009061404 - SBKP 140400Z 14009KT CAVOK 11/11 Q1021=
2009061405 - SBKP 140500Z 12008KT CAVOK 11/11 Q1021=
2009061406 - SBKP 140600Z 11010KT CAVOK 11/11 Q1020=
2009061407 - SBKP 140700Z 16012KT CAVOK 11/11 Q1020=
2009061408 - SBKP 140800Z 11011KT CAVOK 11/11 Q1020=
2009061409 - SBKP 140900Z 11012KT CAVOK 11/11 Q1020=
2009061410 - SBKP 141000Z 11011KT CAVOK 11/11 Q1020=
2009061411 - SBKP 141100Z 11012KT CAVOK 12/12 Q1021=
2009061412 - SBKP 141200Z 11013KT CAVOK 14/13 Q1021=
2009061413 - SBKP 141300Z 11011KT CAVOK 15/12 Q1022=
2009061414 - SBKP 141400Z 10008KT CAVOK 17/11 Q1021=
2009061415 - SBKP 141500Z 06006KT 9999 FEW037 19/11 Q1020=
2009061416 - SBKP 141600Z 05008KT 9999 SCT045 20/09 Q1020=
2009061417 - SBKP 141700Z 14003KT 9999 SCT045 20/09 Q1019=
2009061418 - SBKP 141800Z 11003KT 9999 FEW045 21/08 Q1019=
2009061419 - SBKP 141900Z 19004KT 9999 FEW045 21/09 Q1019=
2009061420 - SBKP 142000Z 12007KT 9999 FEW045 20/09 Q1019=
2009061421 - SBKP 142100Z 12010KT CAVOK 17/09 Q1019=
2009061422 - SBKP 142200Z 11009KT CAVOK 15/10 Q1019=
2009061423 - SBKP 142300Z 12014KT CAVOK 15/12 Q1020=
2009061500 - SBKP 150000Z 11015KT CAVOK 14/13 Q1021=
2009061501 - SBKP 150100Z 11016KT CAVOK 13/13 Q1021=
2009061502 - SBKP 150200Z 11015KT CAVOK 13/13 Q1021=
2009061503 - SBKP 150300Z 11015KT CAVOK 12/12 Q1021=
2009061504 - SBKP 150400Z 12015KT CAVOK 12/12 Q1020=
2009061505 - SBKP 150500Z 12015KT CAVOK 12/12 Q1020=
2009061506 - SBKP 150600Z 12014KT CAVOK 11/11 Q1019=
2009061507 - SBKP 150700Z 12013KT CAVOK 11/11 Q1019=
2009061508 - SBKP 150800Z 11011KT CAVOK 11/11 Q1019=
2009061509 - SBKP 150900Z 11010KT CAVOK 10/10 Q1020=
2009061510 - SBKP 151000Z 11009KT CAVOK 11/11 Q1020=
2009061511 - SBKP 151100Z 13007KT CAVOK 12/12 Q1021=
2009061512 - SBKP 151200Z 13007KT CAVOK 14/13 Q1021=
2009061513 - SBKP 151300Z 12004KT CAVOK 16/13 Q1021=
2009061514 - SBKP 151400Z 05003KT CAVOK 18/12 Q1021=
2009061515 - SBKP 151500Z 20002KT CAVOK 20/11 Q1020=
2009061516 - SBKP 151600Z 17003KT CAVOK 21/09 Q1019=
2009061517 - SBKP 151700Z 35002KT CAVOK 22/09 Q1018=
2009061518 - SBKP 151800Z 01002KT CAVOK 22/08 Q1018=
2009061519 - SBKP 151900Z 10003KT CAVOK 22/07 Q1017=
2009061520 - SBKP 152000Z 30004KT CAVOK 22/07 Q1018=
2009061521 - SBKP 152100Z 28002KT CAVOK 20/07 Q1018=
2009061522 - SBKP 152200Z 36002KT CAVOK 18/08 Q1018=
2009061523 - SBKP 152300Z 00000KT CAVOK 16/09 Q1019=
2009061600 - SBKP 160000Z 12008KT CAVOK 15/13 Q1019=
2009061601 - SBKP 160100Z 11008KT CAVOK 14/14 Q1019=
2009061602 - SBKP 160200Z 11007KT CAVOK 14/14 Q1019=
2009061603 - SBKP 160300Z 11008KT CAVOK 13/13 Q1018=
2009061604 - SBKP 160400Z 10008KT CAVOK 13/13 Q1018=
2009061605 - SBKP 160500Z 11008KT CAVOK 12/12 Q1017=
2009061606 - SBKP 160600Z 11009KT CAVOK 12/12 Q1016=
2009061607 - SBKP 160700Z 11011KT CAVOK 12/12 Q1016=
2009061608 - SBKP 160800Z 10009KT CAVOK 12/12 Q1016=
2009061609 - SBKP 160900Z 10007KT CAVOK 12/12 Q1016=
2009061610 - SBKP 161000Z 11007KT CAVOK 13/13 Q1017=
2009061611 - SBKP 161100Z 10006KT CAVOK 13/13 Q1017=
2009061612 - SBKP 161200Z 18001KT 9000 -RA FEW045 SCT070 14/14 Q1018=
2009061613 - SBKP 161300Z 01003KT 9000 -RA FEW045 SCT070 15/13 Q1019=
2009061614 - SBKP 161400Z 07004KT 5000 -RA BR FEW006 BKN030 OVC100 16/13 Q1019=
2009061615 - SBKP 161500Z 26007KT 5000 BR BKN040 OVC100 15/15 Q1018=
2009061616 - SBKP 161600Z 08003KT 350V100 7000 SCT040 BKN100 18/14 Q1017=
2009061617 - SBKP 161700Z 03008KT 9000 SCT040 BKN090 20/14 Q1016=
2009061618 - SBKP 161800Z 05007KT 9999 BKN045 SCT090 20/14 Q1015=
2009061619 - SBKP 161900Z 35007KT 9999 BKN045 SCT090 20/15 Q1015=
2009061620 - SBKP 162000Z 35004KT 9999 SCT040 SCT090 20/16 Q1015=
2009061621 - SBKP 162100Z 36005KT 9999 SCT040 19/16 Q1015=
2009061622 - SBKP 162200Z 34004KT 9999 FEW040 SCT080 19/16 Q1015=
2009061623 - SBKP 162300Z 06003KT CAVOK 18/16 Q1015=
2009061700 - SBKP 170000Z 05005KT 9999 FEW045 SCT080 18/18 Q1016=
2009061701 - SBKP 170100Z 06006KT 9999 FEW045 SCT080 18/18 Q1016=
2009061702 - SBKP 170200Z 05008KT 9999 SCT045 18/18 Q1016=
2009061703 - SBKP 170300Z 01008KT 9999 BKN020 SCT100 18/18 Q1016=
2009061704 - SBKP 170400Z 01010KT 9999 SCT020 SCT100 17/17 Q1016=
2009061705 - SBKP 170500Z 36009KT 9999 SCT008 BKN020 17/17 Q1015=
2009061706 - SBKP 170600Z 34006KT 9999 FEW020 16/16 Q1016=
2009061707 - SBKP 170700Z 32003KT 9999 FEW020 16/16 Q1016=
2009061708 - SBKP 170800Z 34005KT 4000 BR BKN007 16/16 Q1016=
2009061709 - SBKP 170900Z 29006KT 3000 BR OVC005 16/16 Q1016=
2009061710 - SBKP 171000Z 29005KT 2500 BR OVC005 16/16 Q1017=
2009061710 - SBKP 171020Z 31006KT 1500 R15/P2000 R33/P2000 BR OVC003 16/16 Q1017=
2009061711 - SBKP 171100Z 31006KT 3000 BR OVC003 16/16 Q1017=
2009061712 - SBKP 171200Z 29006KT 5000 BR OVC005 16/16 Q1018=
2009061712 - SBKP 171235Z 29006KT 8000 FEW006 BKN011 16/16 Q1018=
2009061713 - SBKP 171300Z 29008KT 9999 SCT012 17/17 Q1018=
2009061714 - SBKP 171400Z 31009KT 9999 SCT020 19/16 Q1018=
2009061715 - SBKP 171500Z 32010KT 9999 SCT030 20/15 Q1018=
2009061716 - SBKP 171600Z 30010KT 9999 BKN040 20/14 Q1017=
2009061717 - SBKP 171700Z 32011KT 9999 BKN040 22/13 Q1016=
2009061718 - SBKP 171800Z 32013KT 9999 SCT040 22/11 Q1016=
2009061719 - SBKP 171900Z 33010KT 9999 SCT045 21/10 Q1016=
2009061720 - SBKP 172000Z 31009KT 9999 FEW045 21/09 Q1017=
2009061721 - SBKP 172100Z 31008KT 9999 FEW045 19/08 Q1017=
2009061722 - SBKP 172200Z 30006KT 9999 FEW045 18/09 Q1018=
2009061723 - SBKP 172300Z 32004KT 9999 FEW045 17/08 Q1018=
2009061800 - SBKP 180000Z 27005KT 9999 FEW045 17/07 Q1019=
2009061801 - SBKP 180100Z 35003KT 9999 FEW030 15/07 Q1019=
2009061802 - SBKP 180200Z 00000KT CAVOK 15/08 Q1019=
2009061803 - SBKP 180300Z 12004KT CAVOK 12/09 Q1019=
2009061804 - SBKP 180400Z 11005KT CAVOK 11/10 Q1019=
2009061805 - SBKP 180500Z 12006KT CAVOK 11/10 Q1019=
2009061806 - SBKP 180600Z 10006KT CAVOK 10/10 Q1018=
2009061807 - SBKP 180700Z 10006KT CAVOK 10/10 Q1018=
2009061808 - SBKP 180800Z 12006KT CAVOK 09/09 Q1019=
2009061809 - SBKP 180900Z 10006KT CAVOK 09/09 Q1019=
2009061810 - SBKP 181000Z 09006KT 8000 NSC 09/09 Q1019=
2009061811 - SBKP 181100Z 11004KT CAVOK 11/11 Q1020=
2009061812 - SBKP 181200Z 07003KT CAVOK 14/12 Q1021=
2009061813 - SBKP 181300Z 08003KT CAVOK 17/12 Q1021=
2009061814 - SBKP 181400Z 01004KT CAVOK 19/11 Q1021=
2009061815 - SBKP 181500Z 02003KT CAVOK 20/08 Q1020=
2009061816 - SBKP 181600Z 35004KT CAVOK 20/08 Q1019=
2009061817 - SBKP 181700Z 31004KT CAVOK 21/07 Q1019=
2009061818 - SBKP 181800Z 19003KT CAVOK 21/07 Q1019=
2009061819 - SBKP 181900Z 20004KT CAVOK 21/07 Q1019=
2009061820 - SBKP 182000Z 24003KT CAVOK 21/07 Q1019=
2009061821 - SBKP 182100Z 22005KT CAVOK 19/09 Q1020=
2009061822 - SBKP 182200Z 20004KT CAVOK 19/07 Q1020=
2009061823 - SBKP 182300Z 14005KT CAVOK 15/09 Q1020=
2009061900 - SBKP 190000Z 12008KT CAVOK 14/11 Q1020=
2009061901 - SBKP 190100Z 12011KT CAVOK 14/14 Q1021=
2009061902 - SBKP 190200Z 11011KT 9000 NSC 13/13 Q1020=
2009061903 - SBKP 190300Z 12013KT 7000 NSC 13/13 Q1020=
2009061904 - SBKP 190400Z 11012KT 6000 NSC 13/13 Q1020=
2009061905 - SBKP 190500Z 12014KT 4500 BR NSC 12/12 Q1020=
2009061906 - SBKP 190600Z 12013KT 3500 BR NSC 12/12 Q1020=
2009061907 - SBKP 190700Z 12014KT 2700 BR NSC 11/11 Q1019=
2009061908 - SBKP 190800Z 11013KT 2500 BR NSC 11/11 Q1019=
2009061909 - SBKP 190900Z 11013KT 2700 BR NSC 11/11 Q1020=
2009061910 - SBKP 191000Z 10009KT 2700 BR NSC 11/11 Q1021=
2009061911 - SBKP 191100Z 10011KT 3500 BR NSC 12/12 Q1021=
2009061912 - SBKP 191200Z 09008KT 4500 BR NSC 13/13 Q1022=
2009061913 - SBKP 191300Z 10008KT 5000 BR NSC 15/14 Q1022=
2009061914 - SBKP 191400Z 10006KT 6000 NSC 17/13 Q1021=
2009061915 - SBKP 191500Z 12004KT 9000 NSC 19/12 Q1021=
2009061916 - SBKP 191600Z 00000KT CAVOK 21/10 Q1020=
2009061917 - SBKP 191700Z 04003KT CAVOK 21/09 Q1020=
2009061918 - SBKP 191800Z 03003KT CAVOK 22/08 Q1019=
2009061919 - SBKP 191900Z 25004KT CAVOK 22/07 Q1019=
2009061920 - SBKP 192000Z 18004KT CAVOK 22/08 Q1019=
2009061921 - SBKP 192100Z 18005KT CAVOK 20/08 Q1019=
2009061922 - SBKP 192200Z 16004KT CAVOK 19/09 Q1020=
2009061923 - SBKP 192300Z 12008KT CAVOK 16/12 Q1020=
2009062000 - SBKP 200000Z 12011KT CAVOK 15/13 Q1020=
2009062001 - SBKP 200100Z 12012KT CAVOK 15/13 Q1020=
2009062002 - SBKP 200200Z 12012KT CAVOK 14/14 Q1020=
2009062003 - SBKP 200300Z 12014KT 8000 NSC 13/13 Q1020=
2009062004 - SBKP 200400Z 12013KT 6000 NSC 13/13 Q1020=
2009062005 - SBKP 200500Z 11014KT 4000 BR NSC 13/13 Q1020=
2009062006 - SBKP 200600Z 11013KT 4000 BR NSC 13/13 Q1019=
2009062007 - SBKP 200700Z 11013KT 5000 BR NSC 12/12 Q1019=
2009062008 - SBKP 200800Z 11012KT 6000 NSC 12/12 Q1020=
2009062009 - SBKP 200900Z 12013KT 6000 NSC 12/12 Q1020=
2009062010 - SBKP 201000Z 12014KT 4000 BR NSC 12/12 Q1021=
2009062011 - SBKP 201100Z 11011KT 6000 NSC 13/13 Q1022=
2009062012 - SBKP 201200Z 11010KT 8000 NSC 15/15 Q1022=
2009062013 - SBKP 201300Z 11008KT 8000 NSC 17/15 Q1023=
2009062014 - SBKP 201400Z 07004KT 9000 NSC 20/14 Q1023=
2009062015 - SBKP 201500Z 07003KT CAVOK 22/14 Q1022=
2009062016 - SBKP 201600Z 34003KT CAVOK 24/12 Q1021=
2009062017 - SBKP 201700Z 31007KT CAVOK 25/12 Q1020=
2009062018 - SBKP 201800Z 31007KT CAVOK 25/10 Q1019=
2009062019 - SBKP 201900Z 31006KT CAVOK 25/11 Q1019=
2009062020 - SBKP 202000Z 27003KT CAVOK 24/09 Q1019=
2009062021 - SBKP 202100Z 21002KT CAVOK 23/09 Q1020=
2009062022 - SBKP 202200Z 17004KT CAVOK 21/11 Q1020=
2009062023 - SBKP 202300Z 12007KT CAVOK 17/12 Q1020=
2009062100 - SBKP 210000Z 12009KT CAVOK 17/13 Q1021=
2009062101 - SBKP 210100Z 11013KT 6000 NSC 16/16 Q1021=
2009062102 - SBKP 210200Z 12015KT 3500 BR NSC 15/15 Q1021=
2009062103 - SBKP 210300Z 14015KT 4000 BR NSC 15/15 Q1021=
2009062104 - SBKP 210400Z 14015KT 5000 BR NSC 15/15 Q1021=
2009062105 - SBKP 210500Z 14013KT 5000 BR NSC 15/15 Q1021=
2009062106 - SBKP 210600Z 14013KT 5000 BR NSC 14/14 Q1020=
2009062107 - SBKP 210700Z 12009KT 6000 NSC 14/14 Q1020=
2009062108 - SBKP 210800Z 12006KT 6000 NSC 13/13 Q1020=
2009062109 - SBKP 210900Z 12006KT 6000 NSC 13/13 Q1020=
2009062109 - SBKP 210935Z 13007KT 2500 BR SCT002 12/12 Q1021=
2009062110 - SBKP 211000Z 14007KT 0600 R15/0750 R33/1100 FG BKN001 12/12 Q1021-=
2009062111 - SBKP 211100Z 14008KT 1400 R15/1600 R33/1600 BR OVC002 12/12 Q1021=
2009062111 - SBKP 211125Z 15008KT 1900 R15/P2000 R33/P2000 BR BKN003 12/12 Q1021=
2009062111 - SBKP 211140Z 14008KT 4000 BR SCT003 13/13 Q1022=
2009062112 - SBKP 211200Z 14007KT 8000 FEW003 14/14 Q1022=
2009062113 - SBKP 211300Z 16005KT 9000 NSC 17/17 Q1022=
2009062114 - SBKP 211400Z 16005KT CAVOK 17/17 Q1022=
2009062115 - SBKP 211500Z 36004KT CAVOK 23/14 Q1021=
2009062116 - SBKP 211600Z 00000KT CAVOK 24/11 Q1020=
2009062117 - SBKP 211700Z 00000KT CAVOK 25/10 Q1019=
2009062118 - SBKP 211800Z 00000KT CAVOK 25/08 Q1018=
2009062119 - SBKP 211900Z 15002KT CAVOK 25/08 Q1018=
2009062120 - SBKP 212000Z 21003KT CAVOK 25/07 Q1018=
2009062121 - SBKP 212100Z 25003KT CAVOK 23/09 Q1018=
2009062122 - SBKP 212200Z 20005KT CAVOK 21/10 Q1019=
2009062123 - SBKP 212300Z 12004KT CAVOK 18/10 Q1019=
2009062200 - SBKP 220000Z 11008KT CAVOK 17/11 Q1019=
2009062201 - SBKP 220100Z 12009KT CAVOK 16/12 Q1020=
2009062202 - SBKP 220200Z 11009KT CAVOK 16/14 Q1020=
2009062203 - SBKP 220300Z 13010KT CAVOK 15/14 Q1020=
2009062204 - SBKP 220400Z 13009KT CAVOK 15/14 Q1019=
2009062205 - SBKP 220500Z 12008KT CAVOK 14/14 Q1019=
2009062206 - SBKP 220600Z 13008KT CAVOK 13/13 Q1019=
2009062207 - SBKP 220700Z 13009KT CAVOK 13/13 Q1018=
2009062208 - SBKP 220800Z 13007KT CAVOK 12/12 Q1018=
2009062209 - SBKP 220900Z 14008KT CAVOK 12/12 Q1018=
2009062210 - SBKP 221000Z 14006KT CAVOK 12/12 Q1019=
2009062211 - SBKP 221100Z 11008KT 9000 4000SE NSC 13/13 Q1019=
2009062212 - SBKP 221200Z 10005KT 9999 4800SE NSC 16/15 Q1020=
2009062213 - SBKP 221300Z 04003KT 7000 NSC 19/13 Q1021=
2009062214 - SBKP 221400Z 05005KT 9000 NSC 21/11 Q1020=
2009062215 - SBKP 221500Z 03005KT CAVOK 23/08 Q1019=
2009062216 - SBKP 221600Z 03006KT 300V080 CAVOK 24/07 Q1018=
2009062217 - SBKP 221700Z 33006KT CAVOK 25/06 Q1017=
2009062218 - SBKP 221800Z 30004KT CAVOK 25/07 Q1017=
2009062219 - SBKP 221900Z 26001KT CAVOK 25/07 Q1017=
2009062220 - SBKP 222000Z 29002KT CAVOK 24/07 Q1017=
2009062221 - SBKP 222100Z 21003KT CAVOK 23/07 Q1017=
2009062222 - SBKP 222200Z 21003KT CAVOK 22/08 Q1018=
2009062223 - SBKP 222300Z 12003KT CAVOK 18/09 Q1018=
2009062300 - SBKP 230000Z 10008KT CAVOK 17/09 Q1018=
2009062301 - SBKP 230100Z 11008KT CAVOK 16/10 Q1018=
2009062302 - SBKP 230200Z 10007KT CAVOK 15/10 Q1018=
2009062303 - SBKP 230300Z 11008KT CAVOK 14/10 Q1018=
2009062304 - SBKP 230400Z 13008KT CAVOK 14/11 Q1018=
2009062305 - SBKP 230500Z 13009KT CAVOK 13/11 Q1018=
2009062306 - SBKP 230600Z 12007KT CAVOK 13/11 Q1018=
2009062307 - SBKP 230700Z 12009KT CAVOK 12/11 Q1017=
2009062308 - SBKP 230800Z 12008KT CAVOK 11/11 Q1017=
2009062309 - SBKP 230900Z 12007KT CAVOK 11/11 Q1017=
2009062310 - SBKP 231000Z 12007KT CAVOK 11/11 Q1018=
2009062311 - SBKP 231100Z 10006KT 8000 NSC 12/11 Q1019=
2009062312 - SBKP 231200Z 09005KT 8000 NSC 15/11 Q1020=
2009062313 - SBKP 231300Z 02004KT 8000 NSC 19/10 Q1020=
2009062314 - SBKP 231400Z 36006KT CAVOK 22/08 Q1020=
2009062315 - SBKP 231500Z 06008KT CAVOK 23/07 Q1019=
2009062316 - SBKP 231600Z 34008KT CAVOK 24/07 Q1018=
2009062317 - SBKP 231700Z 34011KT CAVOK 24/07 Q1017=
2009062318 - SBKP 231800Z 34009KT CAVOK 24/08 Q1016=
2009062319 - SBKP 231900Z 34006KT CAVOK 24/09 Q1016=
2009062320 - SBKP 232000Z 36005KT CAVOK 23/09 Q1016=
2009062321 - SBKP 232100Z 36006KT CAVOK 22/09 Q1017=
2009062322 - SBKP 232200Z 01005KT CAVOK 20/10 Q1017=
2009062323 - SBKP 232300Z 02006KT CAVOK 20/10 Q1018=
2009062400 - SBKP 240000Z 04005KT CAVOK 19/10 Q1018=
2009062401 - SBKP 240100Z 06004KT CAVOK 18/10 Q1018=
2009062402 - SBKP 240200Z 05005KT CAVOK 17/10 Q1018=
2009062403 - SBKP 240300Z 06005KT CAVOK 17/10 Q1018=
2009062404 - SBKP 240400Z 06004KT CAVOK 17/10 Q1018=
2009062405 - SBKP 240500Z 11004KT CAVOK 15/10 Q1018=
2009062406 - SBKP 240600Z 10005KT CAVOK 14/11 Q1018=
2009062407 - SBKP 240700Z 10005KT CAVOK 14/11 Q1018=
2009062408 - SBKP 240800Z 10003KT 9999 FEW048 BKN090 14/12 Q1018=
2009062409 - SBKP 240900Z 12003KT 9999 FEW048 SCT070 BKN100 14/12 Q1019=
2009062410 - SBKP 241000Z 10004KT 9999 FEW048 SCT080 BKN100 14/12 Q1019=
2009062411 - SBKP 241100Z 21006KT 8000 NSC 15/13 Q1020=
2009062412 - SBKP 241200Z 23003KT 8000 NSC 16/13 Q1021=
2009062413 - SBKP 241300Z 24002KT 6000 NSC 18/12 Q1021=
2009062414 - SBKP 241400Z 02002KT 6000 NSC 21/12 Q1021=
2009062415 - SBKP 241500Z 32005KT 9000 NSC 22/12 Q1020=
2009062416 - SBKP 241600Z 29004KT CAVOK 23/12 Q1020=
2009062417 - SBKP 241700Z 21007KT CAVOK 23/11 Q1019=
2009062418 - SBKP 241800Z 19007KT CAVOK 22/11 Q1019=
2009062419 - SBKP 241900Z 18008KT 9999 FEW045 BKN072 22/13 Q1019=
2009062420 - SBKP 242000Z 17006KT 9999 FEW045 BKN075 22/12 Q1019=
2009062421 - SBKP 242100Z 16005KT 9999 FEW045 BKN070 21/13 Q1019=
2009062422 - SBKP 242200Z 12006KT 9999 FEW045 BKN070 20/13 Q1019=
2009062423 - SBKP 242300Z 12010KT 9999 FEW045 SCT055 BKN070 19/16 Q1020=
2009062400 - SBKP 240000Z 04005KT CAVOK 19/10 Q1018=
2009062401 - SBKP 240100Z 06004KT CAVOK 18/10 Q1018=
2009062402 - SBKP 240200Z 05005KT CAVOK 17/10 Q1018=
2009062403 - SBKP 240300Z 06005KT CAVOK 17/10 Q1018=
2009062404 - SBKP 240400Z 06004KT CAVOK 17/10 Q1018=
2009062405 - SBKP 240500Z 11004KT CAVOK 15/10 Q1018=
2009062406 - SBKP 240600Z 10005KT CAVOK 14/11 Q1018=
2009062407 - SBKP 240700Z 10005KT CAVOK 14/11 Q1018=
2009062408 - SBKP 240800Z 10003KT 9999 FEW048 BKN090 14/12 Q1018=
2009062409 - SBKP 240900Z 12003KT 9999 FEW048 SCT070 BKN100 14/12 Q1019=
2009062410 - SBKP 241000Z 10004KT 9999 FEW048 SCT080 BKN100 14/12 Q1019=
2009062411 - SBKP 241100Z 21006KT 8000 NSC 15/13 Q1020=
2009062412 - SBKP 241200Z 23003KT 8000 NSC 16/13 Q1021=
2009062413 - SBKP 241300Z 24002KT 6000 NSC 18/12 Q1021=
2009062414 - SBKP 241400Z 02002KT 6000 NSC 21/12 Q1021=
2009062415 - SBKP 241500Z 32005KT 9000 NSC 22/12 Q1020=
2009062416 - SBKP 241600Z 29004KT CAVOK 23/12 Q1020=
2009062417 - SBKP 241700Z 21007KT CAVOK 23/11 Q1019=
2009062418 - SBKP 241800Z 19007KT CAVOK 22/11 Q1019=
2009062419 - SBKP 241900Z 18008KT 9999 FEW045 BKN072 22/13 Q1019=
2009062420 - SBKP 242000Z 17006KT 9999 FEW045 BKN075 22/12 Q1019=
2009062421 - SBKP 242100Z 16005KT 9999 FEW045 BKN070 21/13 Q1019=
2009062422 - SBKP 242200Z 12006KT 9999 FEW045 BKN070 20/13 Q1019=
2009062423 - SBKP 242300Z 12010KT 9999 FEW045 SCT055 BKN070 19/16 Q1020=
2009062500 - SBKP 250000Z 12011KT CAVOK 18/17 Q1020=
2009062601 - SBKP 260100Z 10003KT 2200 BR BKN006 OVC012 17/17 Q1022=
2009062602 - SBKP 260200Z 11003KT 2500 BR BKN006 OVC012 17/17 Q1022=
2009062603 - SBKP 260300Z 15005KT 2500 BR BKN008 OVC012 17/17 Q1022=
2009062604 - SBKP 260400Z 19004KT 2000 BR BKN005 OVC012 17/17 Q1022=
2009062605 - SBKP 260500Z 19004KT 1200 R33/1500 R15/2000 BR OVC002 17/17 Q1022=
2009062606 - SBKP 260600Z 18006KT 1500 R33/2000 R15/P2000 BR BKN006 BKN009 OVC012 16/16 Q1021=
2009062606 - SBKP 260622Z 13006KT 5000 BR BKN008 BKN012 16/16 Q1021=
2009062607 - SBKP 260700Z 12008KT 9999 FEW009 SCT012 15/15 Q1021=
2009062608 - SBKP 260800Z 14008KT 9999 FEW012 14/14 Q1021=
2009062609 - SBKP 260900Z 14006KT 9999 FEW015 14/14 Q1022=
2009062610 - SBKP 261000Z 14008KT 9999 FEW020 14/14 Q1022=
2009062611 - SBKP 261100Z 13010KT 9999 FEW020 15/15 Q1023=
2009062612 - SBKP 261200Z 11011KT 9999 FEW020 17/17 Q1023=
2009062613 - SBKP 261300Z 11011KT 9999 FEW020 18/17 Q1024=
2009062614 - SBKP 261400Z 13010KT 9999 FEW020 19/17 Q1024=
2009062615 - SBKP 261500Z 11008KT 9999 FEW025 20/16 Q1023=
2009062616 - SBKP 261600Z 14009KT 9999 FEW025 21/16 Q1023=
2009062617 - SBKP 261700Z 14009KT 9999 FEW025 21/16 Q1022=
2009062618 - SBKP 261800Z 12009KT 9999 FEW030 22/14 Q1021=
2009062619 - SBKP 261900Z 15011KT 9999 FEW035 BKN070 21/16 Q1022=
2009062620 - SBKP 262000Z 13013KT 9999 FEW035 BKN070 20/17 Q1022=
2009062621 - SBKP 262100Z 14014KT 9999 FEW035 BKN070 18/17 Q1022=
2009062622 - SBKP 262200Z 14013KT CAVOK 18/18 Q1023=
2009062623 - SBKP 262300Z 11015KT CAVOK 17/17 Q1022=
2009062700 - SBKP 270000Z 15011KT CAVOK 17/17 Q1024=
2009062701 - SBKP 270100Z 11014KT 9999 FEW020 SCT060 BKN070 17/17 Q1023=
2009062702 - SBKP 270200Z 11012KT 9999 FEW020 BKN070 16/16 Q1023=
2009062703 - SBKP 270300Z 11015KT 9999 FEW040 BKN070 16/16 Q1024=
2009062704 - SBKP 270400Z 11013KT 9999 FEW040 BKN090 16/16 Q1023=
2009062705 - SBKP 270500Z 11012KT 9999 FEW005 BKN090 15/15 Q1022=
2009062706 - SBKP 270600Z 12013KT 9999 FEW005 BKN090 15/15 Q1022=
2009062707 - SBKP 270700Z 11010KT 9999 FEW010 BKN090 15/15 Q1022=
2009062708 - SBKP 270800Z 11011KT CAVOK 15/15 Q1022=
2009062709 - SBKP 270900Z 11007KT CAVOK 15/15 Q1022=
2009062710 - SBKP 271000Z 11007KT 9999 VCSH SCT040 BKN100 15/15 Q1022=
2009062711 - SBKP 271100Z 11009KT 9999 SCT045 BKN100 15/15 Q1023=
2009062712 - SBKP 271200Z 11012KT CAVOK 16/16 Q1024=
2009062713 - SBKP 271300Z 09006KT CAVOK 19/18 Q1023=
2009062714 - SBKP 271400Z 04004KT 9999 FEW035 21/17 Q1023=
2009062715 - SBKP 271500Z 03003KT 9999 FEW035 SCT090 22/16 Q1022=
2009062716 - SBKP 271600Z 34001KT 9999 FEW035 23/17 Q1021=
2009062717 - SBKP 271700Z 25003KT 9999 VCSH FEW035 FEW045TCU SCT090 24/17 Q1021=
2009062718 - SBKP 271800Z 30004KT 9999 VCSH SCT035 FEW045TCU 24/16 Q1020=
2009062719 - SBKP 271900Z 21015KT 9999 TS VCSH SCT035 FEW045CB BKN075 21/18 Q1020=
2009062719 - SBKP 271920Z 21018G36KT 8000 -TSRA BKN010 FEW045CB BKN075 20/18 Q1021=
2009062719 - SBKP 271930Z 25021G32KT 0500 R15/1400 R33/0900 +TSGRRA BKN010 FEW045CB BKN075 16/16 Q1021=
2009062719 - SBKP 271950Z 21018G28KT 2000 -TSRA BR BKN010 FEW045CB OVC070 16/16 Q1021 REGRRA=
2009062720 - SBKP 272000Z 21017G27KT 2500 -TSRA BR BKN007 FEW045CB OVC070 17/17 Q1021 REGRRA=
2009062720 - SBKP 272025Z 20010KT 3500 -TSRA BR SCT010 FEW045CB BKN048 OVC070 17/17 Q1022=
2009062721 - SBKP 272100Z 06005KT 6000 -TSRA FEW010 FEW045CB BKN048 OVC070 17/17 Q1022=
2009062721 - SBKP 272130Z 09005KT 9999 FEW048 SCT070 OVC100 16/16 Q1021 RETS=
2009062722 - SBKP 272200Z 10005KT 9999 FEW048 BKN100 16/16 Q1022 RETS=
2009062723 - SBKP 272300Z 03004KT CAVOK 17/17 Q1022=
2009062723 - SBKP 272325Z 21007KT 7000 BKN010 16/16 Q1023=
2009062800 - SBKP 280000Z 17006KT 6000 BKN012 17/17 Q1023=
2009062800 - SBKP 280045Z 14005KT 8000 SCT014 16/16 Q1023=
2009062801 - SBKP 280100Z 12004KT 9000 FEW015 16/16 Q1023=
2009062802 - SBKP 280200Z 11003KT 9999 FEW015 16/16 Q1023=
2009062803 - SBKP 280300Z 00000KT 6000 BKN012 16/16 Q1023=
2009062803 - SBKP 280335Z 00000KT 2500 BR OVC007 16/16 Q1023=
2009062804 - SBKP 280400Z 05003KT 2400 BR OVC005 16/16 Q1022=
2009062805 - SBKP 280500Z 01005KT 2200 BR BKN006 OVC012 16/16 Q1022=
2009062805 - SBKP 280530Z 02004KT 7000 3000SE SCT007 BKN015 15/15 Q1021=
2009062806 - SBKP 280600Z 36003KT 3000 BR SCT007 SCT015 15/15 Q1021=
2009062807 - SBKP 280700Z 16003KT 3000 BR SCT010 BKN015 15/15 Q1021=
2009062808 - SBKP 280800Z 10003KT 5000 BR BKN010 BKN015 15/15 Q1021=
2009062809 - SBKP 280900Z 14001KT 7000 BKN010 BKN015 15/15 Q1021=
2009062809 - SBKP 280930Z 13001KT 4000 BR BKN009 15/15 Q1022=
2009062810 - SBKP 281000Z 10003KT 4000 BR BKN009 15/15 Q1022=
2009062811 - SBKP 281100Z 11002KT 4000 BR SCT010 16/16 Q1022=
2009062811 - SBKP 281115Z 13003KT 4000 BR BKN008 16/16 Q1022=
2009062812 - SBKP 281200Z 11005KT 2500 BR BKN007 16/16 Q1022=
2009062813 - SBKP 281300Z 12004KT 2500 BR SCT003 BKN007 16/16 Q1023=
2009062813 - SBKP 281325Z 13005KT 5000 BR SCT010 SCT017 17/17 Q1023=
2009062814 - SBKP 281400Z 16004KT 8000 3500NW SCT010 BKN014 18/18 Q1022=
2009062815 - SBKP 281500Z 21007KT 8000 BKN018 19/19 Q1022=
2009062816 - SBKP 281600Z 17005KT 9999 SCT020 19/19 Q1020=
2009062817 - SBKP 281700Z 12005KT 9999 SCT025 20/17 Q1020=
2009062818 - SBKP 281800Z 13009KT 9999 FEW025 21/18 Q1020=
2009062819 - SBKP 281900Z 13009KT 9999 FEW025 20/17 Q1020=
2009062820 - SBKP 282000Z 12010KT 9999 FEW025 19/17 Q1020=
2009062821 - SBKP 282100Z 12007KT CAVOK 17/17 Q1021=
2009062822 - SBKP 282200Z 11007KT CAVOK 17/17 Q1021=
2009062823 - SBKP 282300Z 12007KT CAVOK 16/16 Q1021=
2009062900 - SBKP 290000Z 11009KT CAVOK 15/15 Q1021=
2009062901 - SBKP 290100Z 12012KT CAVOK 15/15 Q1021=
2009062902 - SBKP 290200Z 12012KT CAVOK 15/15 Q1021=
2009062903 - SBKP 290300Z 12013KT 7000 NSC 14/14 Q1020=
2009062904 - SBKP 290400Z 11008KT 7000 NSC 14/14 Q1020=
2009062905 - SBKP 290500Z 11009KT 8000 NSC 14/14 Q1020=
2009062906 - SBKP 290600Z 11010KT CAVOK 14/14 Q1019=
2009062907 - SBKP 290700Z 11012KT CAVOK 14/14 Q1019=
2009062908 - SBKP 290800Z 11012KT CAVOK 14/14 Q1019=
2009062909 - SBKP 290900Z 11011KT CAVOK 14/14 Q1020=
2009062910 - SBKP 291000Z 11009KT 5000 BR NSC 13/13 Q1020=
2009062911 - SBKP 291100Z 11009KT CAVOK 14/14 Q1020=
2009062912 - SBKP 291200Z 10007KT CAVOK 16/16 Q1021=
2009062913 - SBKP 291300Z 09005KT CAVOK 18/17 Q1021=
2009062914 - SBKP 291400Z 07002KT CAVOK 21/16 Q1020=
2009062915 - SBKP 291500Z 04003KT CAVOK 23/14 Q1020=
2009062916 - SBKP 291600Z 29004KT CAVOK 24/14 Q1019=
2009062917 - SBKP 291700Z 33006KT 9999 FEW045 25/13 Q1018=
2009062918 - SBKP 291800Z 33007KT CAVOK 25/13 Q1018=
2009062919 - SBKP 291900Z 32006KT CAVOK 25/14 Q1017=
2009062920 - SBKP 292000Z 34006KT CAVOK 25/14 Q1017=
2009062921 - SBKP 292100Z 01004KT CAVOK 23/14 Q1017=
2009062922 - SBKP 292200Z 05004KT CAVOK 22/14 Q1017=
2009062923 - SBKP 292300Z 08005KT CAVOK 20/15 Q1017=
2009063000 - SBKP 300000Z 09004KT CAVOK 19/16 Q1017=
2009063001 - SBKP 300100Z 08005KT CAVOK 19/16 Q1017=
2009063002 - SBKP 300200Z 10006KT CAVOK 18/16 Q1017=
2009063003 - SBKP 300300Z 10005KT CAVOK 17/16 Q1017=
2009063004 - SBKP 300400Z 10006KT CAVOK 16/16 Q1017=
2009063005 - SBKP 300500Z 11007KT CAVOK 15/15 Q1016=
2009063006 - SBKP 300600Z 09006KT CAVOK 15/15 Q1015=
2009063007 - SBKP 300700Z 10006KT CAVOK 15/15 Q1015=
2009063008 - SBKP 300800Z 10005KT CAVOK 15/15 Q1015=
2009063009 - SBKP 300900Z 09005KT CAVOK 15/15 Q1016=
2009063010 - SBKP 301000Z 10004KT CAVOK 14/14 Q1016=
2009063011 - SBKP 301100Z 08002KT CAVOK 16/16 Q1017=
2009063012 - SBKP 301200Z 04004KT CAVOK 18/18 Q1017=
2009063013 - SBKP 301300Z 02005KT CAVOK 19/17 Q1018=
2009063014 - SBKP 301400Z 36005KT CAVOK 20/17 Q1017=
2009063015 - SBKP 301500Z 36005KT CAVOK 21/17 Q1017=
2009063016 - SBKP 301600Z 02010KT CAVOK 24/17 Q1016=
2009063017 - SBKP 301700Z 03010KT CAVOK 25/17 Q1014=
2009063018 - SBKP 301800Z 01010KT 9999 FEW045 BKN080 25/16 Q1014=
2009063019 - SBKP 301900Z 30012KT 9999 SCT045 BKN080 25/15 Q1014=
2009063020 - SBKP 302000Z 31006KT 9999 FEW030 SCT045 FEW050TCU BKN070 24/16 Q1014=
2009063021 - SBKP 302100Z 32005KT 9999 SCT048 BKN070 BKN100 23/16 Q1015=
2009063022 - SBKP 302200Z 34004KT 9999 FEW048 SCT070 BKN100 22/16 Q1015=
2009063023 - SBKP 302300Z 34005KT 9999 FEW048 SCT080 BKN100 22/17 Q1015=
2009070100 - SBKP 010000Z 33004KT 9999 FEW048 SCT070 BKN100 21/17 Q1015=
2009070101 - SBKP 010100Z 31003KT CAVOK 21/17 Q1016=
2009070102 - SBKP 010200Z 35004KT CAVOK 20/17 Q1016=
2009070103 - SBKP 010300Z 35002KT CAVOK 20/17 Q1016=
2009070104 - SBKP 010400Z 19001KT CAVOK 19/18 Q1016=
2009070105 - SBKP 010500Z 07003KT CAVOK 18/18 Q1016=
2009070106 - SBKP 010600Z 10006KT CAVOK 17/17 Q1016=
2009070107 - SBKP 010700Z 10005KT CAVOK 17/17 Q1015=
2009070108 - SBKP 010800Z 09004KT CAVOK 16/16 Q1016=
2009070109 - SBKP 010900Z 11007KT CAVOK 16/16 Q1016=
2009070110 - SBKP 011000Z 12005KT 9000 FEW040 15/15 Q1017=
2009070111 - SBKP 011100Z 10004KT CAVOK 17/17 Q1017=
2009070112 - SBKP 011200Z 07003KT CAVOK 20/19 Q1018=
2009070113 - SBKP 011300Z 01003KT 9000 NSC 22/19 Q1018=
2009070114 - SBKP 011400Z 25003KT CAVOK 23/19 Q1018=
2009070115 - SBKP 011500Z 34008KT 9999 SCT030 24/19 Q1018=
2009070116 - SBKP 011600Z 29008KT 9999 SCT035 25/18 Q1017=
2009070117 - SBKP 011700Z 27006KT 9999 SCT035 25/17 Q1016=
2009070118 - SBKP 011800Z 25011KT 9999 SCT040 SCT100 26/16 Q1016=
2009070119 - SBKP 011900Z 28007KT 9999 SCT040 SCT100 26/16 Q1016=
2009070120 - SBKP 012000Z 27005KT 9999 SCT040 25/16 Q1016=
2009070121 - SBKP 012100Z 22003KT 9999 FEW045 SCT100 24/15 Q1017=
2009070122 - SBKP 012200Z 00000KT 9999 FEW045 23/16 Q1017=
2009070123 - SBKP 012300Z 07004KT 9999 FEW045 20/18 Q1017=
2009070200 - SBKP 020000Z 06005KT CAVOK 20/18 Q1017=
2009070201 - SBKP 020100Z 05004KT CAVOK 20/18 Q1018=
2009070202 - SBKP 020200Z 04004KT CAVOK 20/18 Q1018=
2009070203 - SBKP 020300Z 08005KT CAVOK 19/18 Q1017=
2009070204 - SBKP 020400Z 08005KT CAVOK 18/18 Q1017=
2009070205 - SBKP 020500Z 04005KT CAVOK 19/18 Q1016=
2009070206 - SBKP 020600Z 02005KT CAVOK 18/17 Q1016=
2009070207 - SBKP 020700Z 36004KT CAVOK 17/17 Q1016=
2009070208 - SBKP 020800Z 01006KT CAVOK 17/17 Q1016=
2009070209 - SBKP 020900Z 04005KT CAVOK 17/17 Q1016=
2009070210 - SBKP 021000Z 04006KT CAVOK 18/17 Q1017=
2009070211 - SBKP 021100Z 18005KT CAVOK 18/18 Q1018=
2009070212 - SBKP 021200Z 10005KT CAVOK 18/18 Q1018=
2009070213 - SBKP 021300Z 13007KT CAVOK 18/18 Q1019=
2009070214 - SBKP 021400Z 17007KT 8000 NSC 19/19 Q1020=
2009070215 - SBKP 021500Z 20012KT 5000 -RA BR BKN010 SCT030 BKN080 17/17 Q1021=
2009070216 - SBKP 021600Z 20010KT 3500 RA BR BKN010 SCT030 OVC080 16/16 Q1020=
2009070216 - SBKP 021635Z 20003KT 3500 -RA BR FEW004 BKN010 OVC080 16/16 Q1020 RERA=
2009070217 - SBKP 021700Z 21004KT 4500 -RA BR BKN006 BKN010 OVC080 16/16 Q1020 RERA=
2009070218 - SBKP 021800Z 15006KT 9999 FEW010 SCT030 OVC080 16/16 Q1019=
2009070219 - SBKP 021900Z 11005KT 9000 4000S -RA SCT007 BKN030 OVC080 16/16 Q1019=
2009070220 - SBKP 022000Z 08005KT 6000 -RA SCT007 BKN030 OVC080 16/16 Q1019=
2009070221 - SBKP 022100Z 04006KT 6000 -RA FEW007 SCT030 BKN080 16/16 Q1019=
2009070222 - SBKP 022200Z 10005KT 9000 -RA FEW010 SCT030 BKN080 16/16 Q1019=
2009070223 - SBKP 022300Z 11007KT 9999 -RA SCT030 BKN080 16/16 Q1019=
2009070300 - SBKP 030000Z 06004KT 9999 FEW030 BKN090 15/15 Q1020=
2009070301 - SBKP 030100Z 11004KT 9999 FEW030 BKN090 15/15 Q1020=
2009070302 - SBKP 030200Z 14004KT CAVOK 15/15 Q1020=
2009070303 - SBKP 030300Z 15005KT CAVOK 15/15 Q1019=
2009070304 - SBKP 030400Z 10006KT CAVOK 14/14 Q1019=
2009070305 - SBKP 030500Z 10006KT CAVOK 14/14 Q1018=
2009070306 - SBKP 030600Z 12005KT CAVOK 14/14 Q1018=
2009070307 - SBKP 030700Z 16005KT CAVOK 14/14 Q1018=
2009070308 - SBKP 030800Z 15008KT CAVOK 14/14 Q1018=
2009070309 - SBKP 030900Z 14006KT CAVOK 14/14 Q1018=
2009070310 - SBKP 031000Z 16008KT 8000 NSC 14/14 Q1019=
2009070311 - SBKP 031100Z 19006KT 6000 NSC 14/14 Q1020=
2009070312 - SBKP 031200Z 16008KT 7000 NSC 15/15 Q1021=
2009070313 - SBKP 031300Z 15015KT 5000 BR NSC 16/16 Q1021=
2009070314 - SBKP 031400Z 13009KT 6000 NSC 18/18 Q1021=
2009070315 - SBKP 031500Z 11008KT CAVOK 18/18 Q1020=
2009070316 - SBKP 031600Z 14005KT CAVOK 20/18 Q1019=
2009070317 - SBKP 031700Z 14007KT 9999 FEW040 SCT070 20/18 Q1018=
2009070318 - SBKP 031800Z 17006KT 9999 FEW040 SCT070 21/18 Q1018=
2009070319 - SBKP 031900Z 16005KT 9999 SCT045 SCT080 21/18 Q1018=
2009070320 - SBKP 032000Z 12007KT 9000 BKN045 SCT080 20/19 Q1019=
2009070321 - SBKP 032100Z 11007KT 4500 BR SCT045 SCT080 18/18 Q1019=
2009070322 - SBKP 032200Z 11009KT 4500 BR SCT045 17/17 Q1019=
2009070323 - SBKP 032300Z 11009KT 3000 BR FEW045 16/16 Q1020=
2009070400 - SBKP 040000Z 11010KT 3000 BR NSC 15/15 Q1020=
2009070401 - SBKP 040100Z 12011KT 3000 BR NSC 15/15 Q1020=
2009070402 - SBKP 040200Z 11009KT 3000 BR NSC 14/14 Q1020=
2009070403 - SBKP 040300Z 11007KT 3000 BR NSC 14/14 Q1019=
2009070404 - SBKP 040400Z 12011KT 3000 BR NSC 14/14 Q1020=
2009070404 - SBKP 040420Z 12011KT 0800 R15/1200 R33/1000 FG NSC 14/14 Q1020=
2009070404 - SBKP 040445Z 11012KT 0900 R15/1200 R33/1400 FG OVC001 14/14 Q1019=
2009070405 - SBKP 040500Z 12013KT 0900 R15/1100 R33/1700 FG OVC001 14/14 Q1019=
2009070406 - SBKP 040600Z 11011KT 0900 R15/1400 R33/1600 FG OVC002 14/14 Q1019=
2009070407 - SBKP 040700Z 11007KT 1500 R15/P2000 R33/P2000 BR BKN002 14/14 Q1018=
2009070408 - SBKP 040800Z 11007KT 2000 BR BKN002 14/14 Q1019=
2009070409 - SBKP 040900Z 10007KT 2000 BR BKN002 13/13 Q1019=
2009070410 - SBKP 041000Z 11007KT 1500 R15/1500 R33/P2000 BR OVC002 14/14 Q1020=
2009070411 - SBKP 041100Z 12009KT 2000 BR OVC003 14/14 Q1021=
2009070411 - SBKP 041135Z 12011KT 3500 BR OVC005 14/14 Q1021=
2009070412 - SBKP 041200Z 12010KT 4000 BR BKN006 15/15 Q1022=
2009070412 - SBKP 041220Z 11012KT 6000 FEW008 15/15 Q1022=
2009070413 - SBKP 041300Z 09009KT 8000 FEW020 16/16 Q1022=
2009070414 - SBKP 041400Z 11008KT CAVOK 18/18 Q1022=
2009070415 - SBKP 041500Z 11009KT CAVOK 19/19 Q1021=
2009070416 - SBKP 041600Z 12008KT CAVOK 20/18 Q1020=
2009070417 - SBKP 041700Z 11005KT CAVOK 21/17 Q1020=
2009070418 - SBKP 041800Z 13006KT CAVOK 22/16 Q1019=
2009070419 - SBKP 041900Z 14007KT CAVOK 22/15 Q1020=
2009070420 - SBKP 042000Z 13006KT CAVOK 21/15 Q1020=
2009070421 - SBKP 042100Z 14006KT 9000 NSC 19/16 Q1020=
2009070422 - SBKP 042200Z 15013KT 9000 NSC 18/17 Q1021=
2009070423 - SBKP 042300Z 14016KT 9000 NSC 16/16 Q1021=
2009070500 - SBKP 050000Z 14016KT 9000 NSC 15/15 Q1021=
2009070501 - SBKP 050100Z 14018KT 9000 NSC 15/15 Q1021=
2009070502 - SBKP 050200Z 13014KT CAVOK 15/15 Q1022=
2009070503 - SBKP 050300Z 11016KT CAVOK 15/15 Q1022=
2009070504 - SBKP 050400Z 11016KT CAVOK 14/14 Q1022=
2009070505 - SBKP 050500Z 11016KT CAVOK 14/14 Q1021=
2009070506 - SBKP 050600Z 11016KT CAVOK 14/14 Q1021=
2009070507 - SBKP 050700Z 11015KT CAVOK 14/14 Q1021=
2009070508 - SBKP 050800Z 11015KT CAVOK 14/14 Q1021=
2009070509 - SBKP 050900Z 12013KT CAVOK 14/14 Q1021=
2009070510 - SBKP 051000Z 11013KT CAVOK 14/14 Q1022=
2009070511 - SBKP 051100Z 11014KT CAVOK 15/15 Q1023=
2009070512 - SBKP 051200Z 11014KT CAVOK 16/16 Q1024=
2009070513 - SBKP 051300Z 10011KT CAVOK 18/16 Q1024=
2009070514 - SBKP 051400Z 12008KT CAVOK 20/16 Q1024=
2009070515 - SBKP 051500Z 12009KT CAVOK 21/16 Q1023=
2009070516 - SBKP 051600Z 06007KT 9999 FEW025 SCT100 22/15 Q1022=
2009070517 - SBKP 051700Z 09004KT 9999 FEW025 SCT100 23/15 Q1021=
2009070518 - SBKP 051800Z 11005KT 9999 FEW030 BKN100 23/15 Q1021=
2009070519 - SBKP 051900Z 14007KT 9999 FEW030 BKN100 23/14 Q1021=
2009070520 - SBKP 052000Z 16009KT 9999 FEW030 BKN100 22/15 Q1021=
2009070521 - SBKP 052100Z 15011KT CAVOK 20/16 Q1022=
2009070522 - SBKP 052200Z 14010KT CAVOK 20/16 Q1022=
2009070523 - SBKP 052300Z 14013KT CAVOK 19/16 Q1022=
2009070600 - SBKP 060000Z 14013KT CAVOK 18/17 Q1023=
2009070601 - SBKP 060100Z 13013KT CAVOK 17/17 Q1023=
2009070602 - SBKP 060200Z 14013KT CAVOK 17/17 Q1023=
2009070603 - SBKP 060300Z 14013KT CAVOK 16/16 Q1023=
2009070604 - SBKP 060400Z 13011KT CAVOK 16/16 Q1023=
2009070605 - SBKP 060500Z 13010KT CAVOK 16/16 Q1022=
2009070606 - SBKP 060600Z 13009KT CAVOK 15/15 Q1022=
2009070607 - SBKP 060700Z 11008KT CAVOK 15/15 Q1022=
2009070608 - SBKP 060800Z 11009KT CAVOK 14/14 Q1022=
2009070609 - SBKP 060900Z 11009KT CAVOK 14/14 Q1022=
2009070610 - SBKP 061000Z 11007KT CAVOK 14/14 Q1023=
2009070611 - SBKP 061100Z 10006KT 9000 4000SE NSC 15/15 Q1023 =
2009070612 - SBKP 061200Z 10005KT 9000 NSC 17/17 Q1024=
2009070613 - SBKP 061300Z 10002KT 9000 NSC 19/15 Q1025=
2009070614 - SBKP 061400Z 13003KT CAVOK 21/14 Q1024=
2009070615 - SBKP 061500Z 36003KT CAVOK 22/14 Q1024=
2009070616 - SBKP 061600Z 05003KT CAVOK 24/14 Q1022=
2009070617 - SBKP 061700Z 33003KT 9999 FEW035 24/13 Q1021=
2009070618 - SBKP 061800Z 36004KT 9999 FEW035 25/13 Q1021=
2009070619 - SBKP 061900Z 33004KT 9999 FEW035 25/13 Q1021=
2009070620 - SBKP 062000Z 36003KT 9999 FEW035 24/13 Q1021=
2009070621 - SBKP 062100Z 34002KT CAVOK 23/14 Q1021=
2009070622 - SBKP 062200Z 07002KT CAVOK 22/13 Q1021=
2009070623 - SBKP 062300Z 09005KT CAVOK 20/15 Q1022=
2009070700 - SBKP 070000Z 11006KT CAVOK 19/16 Q1022=
2009070701 - SBKP 070100Z 10006KT CAVOK 17/17 Q1022=
2009070702 - SBKP 070200Z 10005KT CAVOK 17/17 Q1022=
2009070703 - SBKP 070300Z 11006KT CAVOK 16/16 Q1022=
2009070704 - SBKP 070400Z 10007KT CAVOK 15/15 Q1022=
2009070705 - SBKP 070500Z 10007KT CAVOK 15/15 Q1021=
2009070706 - SBKP 070600Z 10006KT CAVOK 14/14 Q1021=
2009070707 - SBKP 070700Z 10006KT CAVOK 14/14 Q1020=
2009070708 - SBKP 070800Z 12007KT CAVOK 14/14 Q1020=
2009070709 - SBKP 070900Z 12007KT CAVOK 14/14 Q1021=
2009070710 - SBKP 071000Z 12007KT CAVOK 14/14 Q1021=
2009070711 - SBKP 071100Z 10005KT 9000 3000SE NSC 15/15 Q1022=
2009070712 - SBKP 071200Z 09004KT 9000 3000SE NSC 18/17 Q1023=
2009070713 - SBKP 071300Z 05004KT 9000 NSC 20/16 Q1023=
2009070714 - SBKP 071400Z 33005KT 9000 NSC 22/17 Q1023=
2009070715 - SBKP 071500Z 34006KT 9999 FEW025 23/16 Q1023=
2009070716 - SBKP 071600Z 33006KT 9999 FEW025 24/16 Q1022=
2009070717 - SBKP 071700Z 30005KT 9999 FEW025 25/15 Q1021=
2009070718 - SBKP 071800Z 01004KT 9999 FEW025 25/14 Q1020=
2009070719 - SBKP 071900Z 31004KT CAVOK 26/13 Q1020=
2009070720 - SBKP 072000Z 28003KT CAVOK 25/14 Q1020=
2009070721 - SBKP 072100Z 32001KT CAVOK 24/14 Q1020=
2009070722 - SBKP 072200Z 05002KT CAVOK 21/15 Q1020=
2009070723 - SBKP 072300Z 09004KT CAVOK 20/15 Q1021=
2009070800 - SBKP 080000Z 08006KT CAVOK 18/16 Q1021=
2009070801 - SBKP 080100Z 10006KT CAVOK 18/16 Q1021=
2009070802 - SBKP 080200Z 10006KT CAVOK 17/16 Q1021=
2009070803 - SBKP 080300Z 13006KT CAVOK 16/16 Q1021=
2009070804 - SBKP 080400Z 12008KT CAVOK 16/16 Q1021=
2009070805 - SBKP 080500Z 12007KT CAVOK 15/15 Q1021=
2009070806 - SBKP 080600Z 12008KT CAVOK 15/15 Q1020=
2009070807 - SBKP 080700Z 10008KT CAVOK 15/15 Q1020=
2009070808 - SBKP 080800Z 10006KT CAVOK 14/14 Q1020=
2009070809 - SBKP 080900Z 10008KT CAVOK 14/14 Q1020=
2009070810 - SBKP 081000Z 11009KT CAVOK 14/14 Q1020=
2009070811 - SBKP 081100Z 10007KT 9000 4000SE NSC 15/15 Q1021=
2009070812 - SBKP 081200Z 11006KT 9000 3000SE NSC 17/17 Q1022=
2009070813 - SBKP 081300Z 06003KT 9000 3000SE NSC 20/15 Q1022=
2009070814 - SBKP 081400Z 36008KT CAVOK 23/15 Q1022=
2009070815 - SBKP 081500Z 36008KT 9999 FEW025 24/15 Q1021=
2009070816 - SBKP 081600Z 33007KT 9999 FEW025 24/15 Q1020=
2009070817 - SBKP 081700Z 32006KT 9999 SCT025 25/14 Q1019=
2009070818 - SBKP 081800Z 35007KT 9999 SCT030 25/14 Q1019=
2009070819 - SBKP 081900Z 35007KT 9999 SCT030 25/13 Q1018=
2009070820 - SBKP 082000Z 36005KT 9999 SCT040 SCT080 25/13 Q1018=
2009070821 - SBKP 082100Z 02004KT CAVOK 24/13 Q1019=
2009070822 - SBKP 082200Z 01004KT CAVOK 23/13 Q1019=
2009070823 - SBKP 082300Z 04006KT CAVOK 21/14 Q1020=
2009070900 - SBKP 090000Z 04004KT CAVOK 20/14 Q1020=
2009070901 - SBKP 090100Z 08006KT CAVOK 19/15 Q1020=
2009070902 - SBKP 090200Z 08006KT CAVOK 18/15 Q1020=
2009070903 - SBKP 090300Z 07005KT CAVOK 18/15 Q1019=
2009070904 - SBKP 090400Z 07006KT CAVOK 17/15 Q1019=
2009070905 - SBKP 090500Z 07005KT CAVOK 17/15 Q1019=
2009070906 - SBKP 090600Z 10005KT CAVOK 15/15 Q1018=
2009070907 - SBKP 090700Z 10005KT CAVOK 15/15 Q1019=
2009070908 - SBKP 090800Z 12003KT CAVOK 14/14 Q1019=
2009070909 - SBKP 090900Z 10004KT CAVOK 14/14 Q1019=
2009070910 - SBKP 091000Z 11003KT 9999 FEW040 SCT070 14/14 Q1019=
2009070911 - SBKP 091100Z 12004KT 9000 NSC 16/16 Q1020=
2009070912 - SBKP 091200Z 09004KT CAVOK 19/17 Q1020=
2009070913 - SBKP 091300Z 02007KT CAVOK 22/16 Q1021=
2009070914 - SBKP 091400Z 03011KT CAVOK 23/16 Q1020=
2009070915 - SBKP 091500Z 01010KT 9999 FEW030 24/14 Q1019=
2009070916 - SBKP 091600Z 33011KT 9999 FEW030 26/14 Q1018=
2009070917 - SBKP 091700Z 34009KT 9999 SCT030 26/13 Q1018=
2009070918 - SBKP 091800Z 36008KT 9999 SCT040 26/13 Q1017=
2009070919 - SBKP 091900Z 33007KT 9999 SCT040 SCT100 27/12 Q1016=
2009070920 - SBKP 092000Z 01006KT 9999 SCT040 BKN100 25/13 Q1017=
2009070921 - SBKP 092100Z 01004KT CAVOK 24/13 Q1017=
2009070922 - SBKP 092200Z 02004KT CAVOK 23/14 Q1017=
2009070923 - SBKP 092300Z 05004KT CAVOK 22/14 Q1017=
2009071000 - SBKP 100000Z 04004KT CAVOK 21/15 Q1018=
2009071001 - SBKP 100100Z 05005KT CAVOK 21/14 Q1018=
2009071002 - SBKP 100200Z 03006KT CAVOK 21/14 Q1017=
2009071003 - SBKP 100300Z 04005KT 9999 FEW030 BKN080 21/14 Q1017=
2009071004 - SBKP 100400Z 01003KT 9999 FEW030 SCT080 20/14 Q1017=
2009071005 - SBKP 100500Z 01003KT 9999 FEW030 BKN090 19/14 Q1017=
2009071006 - SBKP 100600Z 36006KT 9999 FEW012 BKN090 18/14 Q1017=
2009071007 - SBKP 100700Z 36006KT 9999 FEW030 BKN090 17/15 Q1016=
2009071008 - SBKP 100800Z 24008KT 9999 FEW030 BKN070 17/15 Q1016=
2009071009 - SBKP 100900Z 22006KT 9999 FEW030 BKN070 17/16 Q1017=
2009071010 - SBKP 101000Z 02001KT 9999 FEW030 SCT070 17/16 Q1017=
2009071011 - SBKP 101100Z 12003KT 9999 FEW040 BKN070 17/17 Q1018=
2009071012 - SBKP 101200Z 10004KT 9000 NSC 18/17 Q1018=
2009071013 - SBKP 101300Z 04003KT 9000 NSC 20/16 Q1018=
2009071014 - SBKP 101400Z 01007KT CAVOK 21/17 Q1018=
2009071015 - SBKP 101500Z 35008KT 9999 FEW040 BKN070 22/17 Q1017=
2009071016 - SBKP 101600Z 29006KT 9999 FEW040 BKN070 22/17 Q1016=
2009071017 - SBKP 101700Z 27004KT 9999 FEW040 BKN070 21/18 Q1015=
2009071018 - SBKP 101800Z 23007KT 9999 FEW040 BKN070 20/19 Q1015=
2009071019 - SBKP 101900Z 22012KT 8000 FEW040 BKN070 18/18 Q1015=
2009071019 - SBKP 101915Z 21012KT 4000 -RA BR SCT015 SCT040 OVC080 18/18 Q1015=
2009071020 - SBKP 102000Z 16004KT 4000 -RA BR FEW020 SCT040 18/18 Q1015=
2009071021 - SBKP 102100Z 20002KT 5000 BR SCT045 OVC100 18/18 Q1015=
2009071022 - SBKP 102200Z 08005KT 7000 FEW045 OVC100 18/18 Q1014=
2009071023 - SBKP 102300Z 10006KT 5000 BR FEW045 OVC100 18/18 Q1013=
2009071100 - SBKP 110000Z 10005KT 9000 NSC 17/17 Q1014=
2009071101 - SBKP 110100Z 05005KT CAVOK 17/17 Q1013=
2009071102 - SBKP 110200Z 04006KT CAVOK 18/18 Q1013=
2009071103 - SBKP 110300Z 02010KT CAVOK 20/20 Q1012=
2009071104 - SBKP 110400Z 36010KT 9999 FEW030 BKN090 20/20 Q1012=
2009071105 - SBKP 110500Z 01008KT 9999 FEW030 BKN090 19/19 Q1012=
2009071106 - SBKP 110600Z 36009KT 9999 FEW030 BKN090 19/19 Q1012=
2009071107 - SBKP 110700Z 02008KT CAVOK 19/19 Q1011=
2009071108 - SBKP 110800Z 24011KT 9999 -RA FEW020 OVC080 18/18 Q1012=
2009071109 - SBKP 110900Z 26008KT 9999 FEW040 BKN080 18/18 Q1012=
2009071110 - SBKP 111000Z 15005KT 5000 -RA BR FEW010 SCT040 OVC080 17/17 Q1013=
2009071110 - SBKP 111015Z 21008KT 2000 -RA BR FEW007 SCT040 OVC080 17/17 Q1014=
2009071111 - SBKP 111100Z 22010KT 3000 BR FEW010 SCT040 OVC080 17/17 Q1014=
2009071112 - SBKP 111200Z 15004KT 9999 BKN040 17/17 Q1014=
2009071113 - SBKP 111300Z 14005KT 9000 FEW015 BKN040 17/17 Q1014=
2009071114 - SBKP 111400Z 30002KT 6000 FEW015 BKN040 18/18 Q1013=
2009071115 - SBKP 111500Z 02004KT 3000 BR FEW020 BKN040 18/18 Q1012=
2009071116 - SBKP 111600Z 34004KT 3000 -RA BR FEW020 BKN035 19/19 Q1012=
2009071117 - SBKP 111700Z 35005KT 3000 -RA BR FEW020 BKN035 19/19 Q1011=
2009071118 - SBKP 111800Z 33006KT 3000 -RA BR FEW015 BKN030 18/18 Q1011=
2009071119 - SBKP 111900Z 32012KT 3000 -RA BR SCT015 BKN030 18/18 Q1011=
2009071120 - SBKP 112000Z 22016KT 3000 -RA BR BKN010 BKN030 16/16 Q1011=
2009071121 - SBKP 112100Z 22006KT 6000 -RA SCT015 BKN040 15/15 Q1013=
2009071122 - SBKP 112200Z 07006KT 9999 SCT040 OVC090 15/15 Q1012=
2009071123 - SBKP 112300Z 32003KT 9999 SCT040 15/15 Q1013=
2009071200 - SBKP 120000Z 33008KT 9999 SCT030 15/15 Q1014=
2009071201 - SBKP 120100Z 34007KT 9999 BKN012 15/15 Q1014=
2009071202 - SBKP 120200Z 30012KT 9999 BKN012 SCT040 15/15 Q1015=
2009071203 - SBKP 120300Z 30008KT 9999 SCT004 SCT012 BKN100 15/15 Q1015=
2009071204 - SBKP 120400Z 30008KT 9999 FEW013 BKN040 15/15 Q1015=
2009071205 - SBKP 120500Z 28009KT 9999 FEW012 BKN040 14/14 Q1015=
2009071206 - SBKP 120600Z 28011KT 9999 FEW012 BKN040 13/13 Q1016=
2009071207 - SBKP 120700Z 30010KT 9999 SCT018 SCT040 13/13 Q1016=
2009071208 - SBKP 120800Z 31005KT 9999 SCT010 BKN040 12/12 Q1016=
2009071209 - SBKP 120900Z 30004KT 9999 SCT003 SCT010 BKN040 12/12 Q1017=
2009071209 - SBKP 120932Z 30007KT 9999 BKN003 SCT030 12/12 Q1017=
2009071210 - SBKP 121000Z 30006KT 5000 BR OVC003 12/12 Q1018 =
2009071211 - SBKP 121100Z 32006KT 5000 BR BKN004 12/12 Q1018=
2009071212 - SBKP 121200Z 29007KT 8000 BKN007 BKN030 12/12 Q1020=
2009071213 - SBKP 121300Z 22006KT 8000 FEW005 SCT030 BKN045 12/12 Q1020=
2009071214 - SBKP 121400Z 22002KT 9999 SCT017 BKN040 14/14 Q1020=
2009071215 - SBKP 121500Z 19004KT 9999 BKN035 14/12 Q1020=
2009071216 - SBKP 121600Z 01002KT 9999 BKN035 16/11 Q1019=
2009071217 - SBKP 121700Z 00000KT 9999 SCT045 17/10 Q1019=
2009071218 - SBKP 121800Z 09001KT 9999 SCT045 18/09 Q1018=
2009071219 - SBKP 121900Z 24001KT 9999 BKN035 18/09 Q1018=
2009071220 - SBKP 122000Z 11002KT 9999 SCT035 SCT050 17/09 Q1019=
2009071221 - SBKP 122100Z 34003KT 9999 FEW035 BKN050 16/10 Q1019=
2009071222 - SBKP 122200Z 33001KT 9999 FEW035 16/10 Q1020=
2009071223 - SBKP 122300Z 12009KT CAVOK 13/13 Q1020=
2009071300 - SBKP 130000Z 12008KT CAVOK 12/12 Q1021=
2009071301 - SBKP 130100Z 11008KT CAVOK 12/12 Q1021=
2009071302 - SBKP 130200Z 12008KT CAVOK 11/11 Q1021=
2009071303 - SBKP 130300Z 12008KT CAVOK 11/11 Q1021=
2009071304 - SBKP 130400Z 12009KT CAVOK 10/10 Q1021=
2009071305 - SBKP 130500Z 11012KT 9000 NSC 10/10 Q1021=
2009071306 - SBKP 130600Z 11011KT 8000 NSC 10/10 Q1020=
2009071307 - SBKP 130700Z 12012KT 7000 NSC 09/09 Q1020=
2009071308 - SBKP 130800Z 10006KT CAVOK 09/09 Q1020=
2009071309 - SBKP 130900Z 11009KT CAVOK 09/09 Q1021=
2009071310 - SBKP 131000Z 11008KT 5000 BR NSC 09/09 Q1021=
2009071311 - SBKP 131100Z 10008KT 8000 NSC 10/10 Q1022=
2009071312 - SBKP 131200Z 10009KT CAVOK 12/12 Q1022=
2009071313 - SBKP 131300Z 08005KT CAVOK 16/12 Q1023=
2009071314 - SBKP 131400Z 03003KT CAVOK 18/08 Q1023=
2009071315 - SBKP 131500Z 34005KT CAVOK 19/08 Q1023=
2009071316 - SBKP 131600Z 02003KT CAVOK 20/06 Q1022=
2009071317 - SBKP 131700Z 28004KT CAVOK 21/05 Q1021=
2009071318 - SBKP 131800Z 31002KT CAVOK 22/05 Q1021=
2009071319 - SBKP 131900Z 31002KT CAVOK 23/05 Q1021=
2009071320 - SBKP 132000Z 27004KT CAVOK 22/06 Q1021=
2009071321 - SBKP 132100Z 23003KT CAVOK 20/06 Q1021=
2009071322 - SBKP 132200Z 27002KT CAVOK 19/05 Q1022=
2009071323 - SBKP 132300Z 13002KT CAVOK 17/08 Q1022=
2009071400 - SBKP 140000Z 10006KT CAVOK 14/09 Q1022=
2009071401 - SBKP 140100Z 11007KT CAVOK 13/09 Q1022=
2009071402 - SBKP 140200Z 11007KT CAVOK 13/09 Q1023=
2009071403 - SBKP 140300Z 11005KT CAVOK 11/10 Q1023=
2009071404 - SBKP 140400Z 08006KT 9000 NSC 11/11 Q1022=
2009071405 - SBKP 140500Z 12007KT 8000 NSC 10/10 Q1022=
2009071406 - SBKP 140600Z 12006KT 9000 NSC 10/10 Q1022=
2009071407 - SBKP 140700Z 10008KT 9000 NSC 10/10 Q1022=
2009071408 - SBKP 140800Z 12005KT CAVOK 10/10 Q1022=
2009071409 - SBKP 140900Z 10006KT CAVOK 10/10 Q1022=
2009071410 - SBKP 141000Z 10006KT 5000 BR NSC 10/10 Q1023=
2009071411 - SBKP 141100Z 12004KT 8000 NSC 12/11 Q1024=
2009071412 - SBKP 141200Z 16003KT CAVOK 15/11 Q1024=
2009071413 - SBKP 141300Z 05003KT CAVOK 17/10 Q1024=
2009071414 - SBKP 141400Z 03004KT CAVOK 20/10 Q1023=
2009071415 - SBKP 141500Z 15002KT CAVOK 21/09 Q1023=
2009071416 - SBKP 141600Z 13003KT CAVOK 22/09 Q1022=
2009071417 - SBKP 141700Z 18003KT CAVOK 23/07 Q1022=
2009071418 - SBKP 141800Z 20003KT CAVOK 24/09 Q1022=
2009071419 - SBKP 141900Z 18006KT CAVOK 23/11 Q1021=
2009071420 - SBKP 142000Z 13010KT CAVOK 20/12 Q1022=
2009071421 - SBKP 142100Z 12012KT CAVOK 18/11 Q1022=
2009071422 - SBKP 142200Z 12015KT CAVOK 16/11 Q1022=
2009071423 - SBKP 142300Z 12015KT CAVOK 16/10 Q1023=
2009071500 - SBKP 150000Z 12014KT CAVOK 15/12 Q1023=
2009071501 - SBKP 150100Z 12012KT CAVOK 15/13 Q1024=
2009071502 - SBKP 150200Z 12013KT CAVOK 14/14 Q1024=
2009071503 - SBKP 150300Z 14016KT CAVOK 15/15 Q1023=
2009071504 - SBKP 150400Z 13011KT CAVOK 15/15 Q1023=
2009071505 - SBKP 150500Z 14010KT CAVOK 14/14 Q1022=
2009071506 - SBKP 150600Z 15012KT CAVOK 14/14 Q1022=
2009071507 - SBKP 150700Z 15011KT CAVOK 14/14 Q1022=
2009071508 - SBKP 150800Z 14010KT CAVOK 14/14 Q1022=
2009071509 - SBKP 150900Z 14011KT CAVOK 14/14 Q1022=
2009071510 - SBKP 151000Z 13013KT CAVOK 14/14 Q1023=
2009071511 - SBKP 151100Z 12012KT CAVOK 15/15 Q1023=
2009071512 - SBKP 151200Z 11016KT CAVOK 17/16 Q1024=
2009071513 - SBKP 151300Z 11012KT CAVOK 18/16 Q1024=
2009071514 - SBKP 151400Z 09010KT CAVOK 20/15 Q1024=
2009071515 - SBKP 151500Z 11008KT CAVOK 21/14 Q1023=
2009071516 - SBKP 151600Z 08006KT CAVOK 23/14 Q1022=
2009071517 - SBKP 151700Z 13004KT CAVOK 23/15 Q1021=
2009071518 - SBKP 151800Z 11007KT CAVOK 23/15 Q1021=
2009071519 - SBKP 151900Z 13009KT CAVOK 23/15 Q1021=
2009071520 - SBKP 152000Z 13009KT CAVOK 22/16 Q1021=
2009071521 - SBKP 152100Z 13010KT CAVOK 20/16 Q1021=
2009071522 - SBKP 152200Z 12013KT CAVOK 18/17 Q1022=
2009071523 - SBKP 152300Z 12014KT 9000 NSC 17/17 Q1022=
2009071600 - SBKP 160000Z 12014KT 8000 NSC 16/16 Q1023=
2009071601 - SBKP 160100Z 11014KT 9000 NSC 16/16 Q1023=
2009071602 - SBKP 160200Z 12013KT CAVOK 16/16 Q1023=
2009071603 - SBKP 160300Z 13012KT CAVOK 15/15 Q1023=
2009071604 - SBKP 160400Z 13010KT CAVOK 15/15 Q1023=
2009071605 - SBKP 160500Z 13008KT CAVOK 15/15 Q1022=
2009071606 - SBKP 160600Z 12007KT CAVOK 14/14 Q1022=
2009071607 - SBKP 160700Z 13007KT CAVOK 14/14 Q1022=
2009071608 - SBKP 160800Z 13006KT CAVOK 14/14 Q1021=
2009071609 - SBKP 160900Z 13007KT CAVOK 14/14 Q1022=
2009071610 - SBKP 161000Z 13007KT 8000 NSC 14/14 Q1022=
2009071611 - SBKP 161100Z 11005KT CAVOK 15/15 Q1023=
2009071612 - SBKP 161200Z 10005KT CAVOK 17/17 Q1023=
2009071613 - SBKP 161300Z 05004KT CAVOK 20/16 Q1023=
2009071614 - SBKP 161400Z 03008KT CAVOK 22/15 Q1022=
2009071615 - SBKP 161500Z 02007KT CAVOK 23/14 Q1022=
2009071616 - SBKP 161600Z 01006KT CAVOK 24/15 Q1021=
2009071617 - SBKP 161700Z 36008KT CAVOK 25/15 Q1020=
2009071618 - SBKP 161800Z 35008KT CAVOK 26/14 Q1020=
2009071619 - SBKP 161900Z 36008KT 9999 FEW025 25/15 Q1020=
2009071620 - SBKP 162000Z 36005KT 9999 FEW025 25/15 Q1020=
2009071621 - SBKP 162100Z 02003KT CAVOK 24/15 Q1020=
2009071622 - SBKP 162200Z 36002KT CAVOK 23/15 Q1021=
2009071623 - SBKP 162300Z 08004KT CAVOK 21/16 Q1022=
2009071700 - SBKP 170000Z 08004KT CAVOK 20/16 Q1022=
2009071701 - SBKP 170100Z 07005KT CAVOK 20/16 Q1022=
2009071702 - SBKP 170200Z 09005KT CAVOK 18/16 Q1022=
2009071703 - SBKP 170300Z 10006KT CAVOK 18/15 Q1022=
2009071704 - SBKP 170400Z 07006KT CAVOK 18/15 Q1021=
2009071705 - SBKP 170500Z 11004KT CAVOK 17/14 Q1021=
2009071706 - SBKP 170600Z 09005KT CAVOK 16/15 Q1021=
2009071707 - SBKP 170700Z 16003KT CAVOK 15/15 Q1021=
2009071708 - SBKP 170800Z 12002KT CAVOK 16/15 Q1021=
2009071709 - SBKP 170900Z 14004KT CAVOK 14/14 Q1022=
2009071710 - SBKP 171000Z 12005KT 9000 NSC 14/14 Q1022=
2009071711 - SBKP 171100Z 10005KT CAVOK 15/15 Q1023=
2009071712 - SBKP 171200Z 10003KT CAVOK 19/16 Q1024=
2009071713 - SBKP 171300Z 04006KT CAVOK 21/15 Q1024=
2009071714 - SBKP 171400Z 04008KT CAVOK 23/13 Q1024=
2009071715 - SBKP 171500Z 36010KT CAVOK 24/12 Q1023=
2009071716 - SBKP 171600Z 36009KT CAVOK 25/12 Q1022=
2009071717 - SBKP 171700Z 01006KT 9999 FEW045 SCT080 25/11 Q1021=
2009071718 - SBKP 171800Z 01005KT 9999 FEW045 SCT080 26/11 Q1021=
2009071719 - SBKP 171900Z 36004KT 9999 FEW045 26/11 Q1021=
2009071720 - SBKP 172000Z 36004KT 9999 FEW045 26/11 Q1021=
2009071721 - SBKP 172100Z 36003KT 9999 FEW035 24/11 Q1022=
2009071722 - SBKP 172200Z 26002KT CAVOK 24/11 Q1022=
2009071723 - SBKP 172300Z 13004KT CAVOK 22/13 Q1022=
2009071800 - SBKP 180000Z 10006KT CAVOK 20/14 Q1022=
2009071801 - SBKP 180100Z 10007KT CAVOK 18/15 Q1022=
2009071802 - SBKP 180200Z 10007KT CAVOK 18/15 Q1023=
2009071803 - SBKP 180300Z 12006KT CAVOK 17/15 Q1022=
2009071804 - SBKP 180400Z 13006KT CAVOK 16/15 Q1022=
2009071805 - SBKP 180500Z 12006KT CAVOK 16/15 Q1022=
2009071806 - SBKP 180600Z 12006KT CAVOK 16/16 Q1022=
2009071807 - SBKP 180700Z 09004KT CAVOK 15/15 Q1021=
2009071808 - SBKP 180800Z 13005KT CAVOK 15/15 Q1022=
2009071809 - SBKP 180900Z 10005KT CAVOK 15/15 Q1022=
2009071810 - SBKP 181000Z 12006KT CAVOK 15/15 Q1022=
2009071811 - SBKP 181100Z 11005KT 9999 FEW030 BKN080 16/16 Q1023=
2009071812 - SBKP 181200Z 09004KT 9000 FEW030 SCT080 18/16 Q1023=
2009071813 - SBKP 181300Z 03002KT 9000 FEW030 SCT080 21/15 Q1023=
2009071814 - SBKP 181400Z 31005KT 9999 SCT035 BKN070 23/14 Q1023=
2009071815 - SBKP 181500Z 27006KT 9999 BKN040 BKN070 24/14 Q1023=
2009071816 - SBKP 181600Z 16006KT 9999 VCSH FEW025 BKN040 BKN070 21/16 Q1022=
2009071817 - SBKP 181700Z 10003KT 9999 FEW025 SCT040 BKN070 21/18 Q1020=
2009071818 - SBKP 181800Z 03001KT 9999 FEW035 SCT080 24/15 Q1020=
2009071819 - SBKP 181900Z 27002KT 9999 FEW035 BKN080 25/15 Q1019=
2009071820 - SBKP 182000Z 12003KT 9999 VCSH SCT040 FEW050TCU BKN080 23/16 Q1019=
2009071821 - SBKP 182100Z 11003KT 9999 SCT040 BKN080 22/17 Q1019=
2009071822 - SBKP 182200Z 27003KT 9999 FEW035 BKN080 21/18 Q1019=
2009071823 - SBKP 182300Z 23004KT 9999 FEW035 BKN080 21/17 Q1020=
2009071900 - SBKP 190000Z 30003KT 9999 FEW035 SCT100 20/17 Q1020=
2009071901 - SBKP 190100Z 24001KT CAVOK 20/17 Q1020=
2009071902 - SBKP 190200Z 13003KT CAVOK 19/18 Q1020=
2009071903 - SBKP 190300Z 12006KT 8000 SCT045 BKN080 18/18 Q1020=
2009071904 - SBKP 190400Z 12007KT 8000 NSC 17/17 Q1019=
2009071905 - SBKP 190500Z 11009KT 8000 SCT035 BKN080 17/17 Q1019=
2009071906 - SBKP 190600Z 11009KT 7000 BKN030 BKN090 17/17 Q1018=
2009071907 - SBKP 190700Z 11009KT 5000 BR BKN025 BKN090 17/17 Q1018=
2009071908 - SBKP 190800Z 12009KT 5000 BR OVC025 17/17 Q1018=
2009071909 - SBKP 190900Z 12009KT 4000 BR SCT006 OVC020 16/16 Q1018=
2009071910 - SBKP 191000Z 11011KT 4000 BR FEW006 BKN025 OVC100 16/16 Q1019=
2009071911 - SBKP 191100Z 13011KT 4500 BR SCT008 BKN025 BKN100 16/16 Q1019=
2009071912 - SBKP 191200Z 11009KT 6000 FEW010 BKN025 BKN100 17/17 Q1020=
2009071913 - SBKP 191300Z 13011KT 8000 FEW014 SCT030 BKN080 18/18 Q1021=
2009071914 - SBKP 191400Z 14010KT 9999 FEW018 SCT030 BKN080 19/17 Q1021=
2009071915 - SBKP 191500Z 13010KT 9999 SCT023 SCT035 BKN080 19/16 Q1020=
2009071916 - SBKP 191600Z 11009KT 9999 SCT025 SCT035 BKN080 19/16 Q1019=
2009071917 - SBKP 191700Z 12010KT 9999 SCT028 19/15 Q1018=
2009071918 - SBKP 191800Z 14008KT 9999 SCT028 BKN035 BKN080 20/15 Q1018=
2009071919 - SBKP 191900Z 14013KT 9999 SCT028 BKN035 18/15 Q1018=
2009071920 - SBKP 192000Z 14011KT 9999 SCT040 SCT080 17/14 Q1019=
2009071921 - SBKP 192100Z 15014KT 9999 BKN040 17/14 Q1019=
2009071922 - SBKP 192200Z 15013KT 9999 BKN040 15/13 Q1020=
2009071923 - SBKP 192300Z 16010KT 9999 BKN045 15/13 Q1021=
2009071900 - SBKP 190000Z 30003KT 9999 FEW035 SCT100 20/17 Q1020=
2009071901 - SBKP 190100Z 24001KT CAVOK 20/17 Q1020=
2009071902 - SBKP 190200Z 13003KT CAVOK 19/18 Q1020=
2009071903 - SBKP 190300Z 12006KT 8000 SCT045 BKN080 18/18 Q1020=
2009071904 - SBKP 190400Z 12007KT 8000 NSC 17/17 Q1019=
2009071905 - SBKP 190500Z 11009KT 8000 SCT035 BKN080 17/17 Q1019=
2009071906 - SBKP 190600Z 11009KT 7000 BKN030 BKN090 17/17 Q1018=
2009071907 - SBKP 190700Z 11009KT 5000 BR BKN025 BKN090 17/17 Q1018=
2009071908 - SBKP 190800Z 12009KT 5000 BR OVC025 17/17 Q1018=
2009071909 - SBKP 190900Z 12009KT 4000 BR SCT006 OVC020 16/16 Q1018=
2009071910 - SBKP 191000Z 11011KT 4000 BR FEW006 BKN025 OVC100 16/16 Q1019=
2009071911 - SBKP 191100Z 13011KT 4500 BR SCT008 BKN025 BKN100 16/16 Q1019=
2009071912 - SBKP 191200Z 11009KT 6000 FEW010 BKN025 BKN100 17/17 Q1020=
2009071913 - SBKP 191300Z 13011KT 8000 FEW014 SCT030 BKN080 18/18 Q1021=
2009071914 - SBKP 191400Z 14010KT 9999 FEW018 SCT030 BKN080 19/17 Q1021=
2009071915 - SBKP 191500Z 13010KT 9999 SCT023 SCT035 BKN080 19/16 Q1020=
2009071916 - SBKP 191600Z 11009KT 9999 SCT025 SCT035 BKN080 19/16 Q1019=
2009071917 - SBKP 191700Z 12010KT 9999 SCT028 19/15 Q1018=
2009071918 - SBKP 191800Z 14008KT 9999 SCT028 BKN035 BKN080 20/15 Q1018=
2009071919 - SBKP 191900Z 14013KT 9999 SCT028 BKN035 18/15 Q1018=
2009071920 - SBKP 192000Z 14011KT 9999 SCT040 SCT080 17/14 Q1019=
2009071921 - SBKP 192100Z 15014KT 9999 BKN040 17/14 Q1019=
2009071922 - SBKP 192200Z 15013KT 9999 BKN040 15/13 Q1020=
2009071923 - SBKP 192300Z 16010KT 9999 BKN045 15/13 Q1021=
2009072000 - SBKP 200000Z 16012KT CAVOK 14/12 Q1021=
2009072101 - SBKP 210100Z 14011KT CAVOK 12/12 Q1020=
2009072102 - SBKP 210200Z 14011KT CAVOK 12/12 Q1020=
2009072103 - SBKP 210300Z 12010KT CAVOK 12/12 Q1020=
2009072104 - SBKP 210400Z 12012KT CAVOK 11/11 Q1019=
2009072105 - SBKP 210500Z 12014KT CAVOK 11/11 Q1019=
2009072106 - SBKP 210600Z 12012KT CAVOK 11/11 Q1018=
2009072107 - SBKP 210700Z 13012KT CAVOK 11/11 Q1018=
2009072108 - SBKP 210800Z 14012KT CAVOK 11/11 Q1017=
2009072109 - SBKP 210900Z 13012KT CAVOK 11/11 Q1018=
2009072110 - SBKP 211000Z 13010KT CAVOK 11/11 Q1019=
2009072111 - SBKP 211100Z 12012KT CAVOK 11/11 Q1019=
2009072112 - SBKP 211200Z 10008KT CAVOK 14/14 Q1020=
2009072113 - SBKP 211300Z 10006KT CAVOK 17/14 Q1020=
2009072114 - SBKP 211400Z 07003KT CAVOK 20/13 Q1019=
2009072115 - SBKP 211500Z 04002KT CAVOK 22/10 Q1018=
2009072116 - SBKP 211600Z 03002KT CAVOK 24/10 Q1017=
2009072117 - SBKP 211700Z 27002KT CAVOK 25/10 Q1016=
2009072118 - SBKP 211800Z 01004KT CAVOK 25/11 Q1015=
2009072119 - SBKP 211900Z 02005KT CAVOK 25/10 Q1016=
2009072120 - SBKP 212000Z 01003KT CAVOK 25/12 Q1015=
2009072121 - SBKP 212100Z 03003KT CAVOK 23/12 Q1015=
2009072122 - SBKP 212200Z 11004KT CAVOK 22/12 Q1015=
2009072123 - SBKP 212300Z 13007KT CAVOK 19/13 Q1015=
2009072200 - SBKP 220000Z 13010KT CAVOK 18/14 Q1015=
2009072201 - SBKP 220100Z 13007KT CAVOK 17/15 Q1016=
2009072202 - SBKP 220200Z 12008KT CAVOK 17/16 Q1015=
2009072203 - SBKP 220300Z 09006KT CAVOK 17/16 Q1015=
2009072204 - SBKP 220400Z 07005KT CAVOK 18/15 Q1015=
2009072205 - SBKP 220500Z 10002KT CAVOK 19/14 Q1015=
2009072206 - SBKP 220600Z 08004KT CAVOK 16/15 Q1015=
2009072207 - SBKP 220700Z 12005KT CAVOK 16/16 Q1015=
2009072208 - SBKP 220800Z 12005KT CAVOK 15/15 Q1015=
2009072209 - SBKP 220900Z 06004KT CAVOK 16/16 Q1015=
2009072210 - SBKP 221000Z 36004KT CAVOK 16/16 Q1016=
2009072211 - SBKP 221100Z 35007KT 9000 NSC 18/17 Q1017=
2009072212 - SBKP 221200Z 01008KT 9000 NSC 20/17 Q1017=
2009072213 - SBKP 221300Z 01014KT CAVOK 23/17 Q1017=
2009072214 - SBKP 221400Z 35018KT CAVOK 26/15 Q1016=
2009072215 - SBKP 221500Z 34018KT CAVOK 27/15 Q1016=
2009072216 - SBKP 221600Z 34016KT CAVOK 27/15 Q1015=
2009072217 - SBKP 221700Z 33019KT 9999 FEW035 29/13 Q1014=
2009072218 - SBKP 221800Z 32015KT 9999 FEW035 29/14 Q1014=
2009072219 - SBKP 221900Z 31012KT 9999 FEW035 29/13 Q1013=
2009072220 - SBKP 222000Z 32010KT 9999 FEW040 28/13 Q1014=
2009072221 - SBKP 222100Z 33005KT 9999 FEW045 SCT080 26/14 Q1014=
2009072222 - SBKP 222200Z 02006KT CAVOK 25/14 Q1015=
2009072223 - SBKP 222300Z 04004KT CAVOK 24/14 Q1015=
2009072300 - SBKP 230000Z 02006KT CAVOK 23/15 Q1016=
2009072301 - SBKP 230100Z 02006KT CAVOK 23/14 Q1016=
2009072302 - SBKP 230200Z 02007KT CAVOK 23/14 Q1016=
2009072303 - SBKP 230300Z 03008KT CAVOK 22/14 Q1016=
2009072304 - SBKP 230400Z 02004KT CAVOK 22/14 Q1015=
2009072305 - SBKP 230500Z 08007KT CAVOK 19/15 Q1015=
2009072306 - SBKP 230600Z 10007KT CAVOK 18/15 Q1015=
2009072307 - SBKP 230700Z 15008KT CAVOK 18/15 Q1015=
2009072308 - SBKP 230800Z 14007KT CAVOK 18/16 Q1016=
2009072309 - SBKP 230900Z 13011KT CAVOK 17/15 Q1015=
2009072310 - SBKP 231000Z 13012KT CAVOK 17/15 Q1015=
2009072311 - SBKP 231100Z 11008KT 9000 NSC 17/15 Q1015=
2009072312 - SBKP 231200Z 11006KT 9000 NSC 19/16 Q1015=
2009072313 - SBKP 231300Z 13003KT 9000 FEW035 BKN090 21/16 Q1016=
2009072314 - SBKP 231400Z 14003KT 9999 FEW040 SCT100 23/17 Q1015=
2009072315 - SBKP 231500Z 21009KT 9999 FEW040 BKN100 22/16 Q1015=
2009072316 - SBKP 231600Z 16004KT 9000 FEW040 SCT100 23/17 Q1014=
2009072317 - SBKP 231700Z 23008KT 9000 FEW040 SCT100 23/17 Q1014=
2009072318 - SBKP 231800Z 22004KT 7000 FEW040 SCT100 21/17 Q1013=
2009072319 - SBKP 231900Z 20018KT 8000 FEW035 BKN045 BKN080 18/18 Q1015=
2009072320 - SBKP 232000Z 18009KT 9999 FEW035 BKN080 18/18 Q1016=
2009072321 - SBKP 232100Z 19007KT 5000 -RA BR FEW015 SCT035 BKN080 17/17 Q1017=
2009072322 - SBKP 232200Z 11005KT 8000 -RA SCT040 BKN090 17/17 Q1016=
2009072323 - SBKP 232300Z 09006KT 9000 -RA SCT040 BKN090 17/17 Q1016=
2009072400 - SBKP 240000Z 10007KT CAVOK 17/17 Q1016=
2009072401 - SBKP 240100Z 05004KT CAVOK 17/17 Q1017=
2009072402 - SBKP 240200Z 10003KT CAVOK 17/17 Q1017=
2009072403 - SBKP 240300Z 04002KT 9999 -RA SCT022 BKN080 OVC100 17/17 Q1017=
2009072404 - SBKP 240400Z 05002KT 9999 FEW005 SCT022 BKN080 17/17 Q1017=
2009072404 - SBKP 240445Z 30002KT 4500 -RA BR FEW005 SCT022 BKN070 17/17 Q1017=
2009072405 - SBKP 240500Z 02002KT 8000 FEW005 SCT022 BKN070 17/17 Q1017=
2009072406 - SBKP 240600Z 12003KT 8000 -RA FEW010 SCT022 BKN070 17/17 Q1016=
2009072407 - SBKP 240700Z 07002KT 7000 -RA BKN020 BKN070 OVC100 17/17 Q1017=
2009072408 - SBKP 240800Z 13002KT 7000 BKN018 BKN070 OVC100 17/17 Q1017=
2009072408 - SBKP 240847Z 13001KT 2000 -RA BR BKN010 BKN017 OVC100 17/17 Q1018=
2009072409 - SBKP 240900Z 18006KT 2000 -RA BR SCT003 BKN010 OVC100 17/17 Q1018=
2009072410 - SBKP 241000Z 12012KT 3000 -RA BR FEW005 BKN012 OVC100 14/14 Q1018=
2009072410 - SBKP 241045Z 13014KT 3000 RA BR FEW005 BKN012 OVC100 14/14 Q1019=
2009072411 - SBKP 241100Z 13011KT 3000 RA BR FEW005 BKN012 OVC100 14/14 Q1019=
2009072411 - SBKP 241120Z 13015KT 9999 BKN025 OVC100 14/14 Q1019 RERA=
2009072411 - SBKP 241140Z 13015KT 3000 -RA BR BKN025 OVC100 14/14 Q1019=
2009072412 - SBKP 241200Z 13015KT 3000 -RA BR BKN019 OVC100 14/14 Q1019=
2009072412 - SBKP 241230Z 13012KT 3000 RA BR FEW010 BKN019 OVC100 13/13 Q1020=
2009072413 - SBKP 241300Z 13014KT 5000 BR FEW009 BKN019 OVC100 14/14 Q1020 RERA=
2009072414 - SBKP 241400Z 13014KT 5000 -RA BR FEW009 BKN019 OVC100 14/14 Q1020=
2009072415 - SBKP 241500Z 13013KT 9999 FEW010 BKN025 OVC100 15/15 Q1020=
2009072416 - SBKP 241600Z 12012KT 9999 FEW010 BKN025 OVC100 15/15 Q1019=
2009072417 - SBKP 241700Z 14013KT 9999 FEW010 BKN025 OVC100 15/15 Q1018=
2009072418 - SBKP 241800Z 13011KT 5000 -RA BR FEW012 BKN025 OVC100 15/15 Q1018=
2009072419 - SBKP 241900Z 12012KT 5000 -RA BR BKN020 OVC100 14/14 Q1018=
2009072420 - SBKP 242000Z 11012KT 5000 -RA BR BKN020 OVC080 14/14 Q1018=
2009072421 - SBKP 242100Z 12011KT 5000 -RA BR BKN017 OVC080 14/14 Q1019=
2009072422 - SBKP 242200Z 12011KT 8000 OVC017 14/14 Q1019=
2009072423 - SBKP 242300Z 12009KT 7000 -RA FEW005 OVC016 14/14 Q1020=
2009072423 - SBKP 242345Z 12012KT 7000 RA OVC015 13/13 Q1020=
2009072500 - SBKP 250000Z 12012KT 7000 -RA OVC015 13/13 Q1020 RERA=
2009072501 - SBKP 250100Z 11013KT 8000 -RA OVC017 13/13 Q1020=
2009072502 - SBKP 250200Z 10011KT 7000 -RA OVC015 13/13 Q1020=
2009072503 - SBKP 250300Z 12010KT 9000 -RA FEW006 BKN012 OVC080 13/13 Q1020=
2009072504 - SBKP 250400Z 15006KT 7000 -RA SCT005 BKN012 OVC080 13/13 Q1021=
2009072505 - SBKP 250500Z 08009KT 7000 -RA FEW005 BKN012 OVC080 13/13 Q1019=
2009072506 - SBKP 250600Z 20006KT 7000 -RA SCT006 BKN011 OVC080 13/13 Q1020=
2009072507 - SBKP 250700Z 25003KT 6000 -RA FEW002 BKN007 OVC080 13/13 Q1020=
2009072507 - SBKP 250715Z 21002KT 2000 -RA BR BKN003 BKN006 OVC080 13/13 Q1020=
2009072508 - SBKP 250800Z 24006KT 0700 R15/P2000 R33/P2000 -RA FG BKN002 OVC006 13/13 Q1020=
2009072508 - SBKP 250825Z 08006KT 1500 R15/P2000 R33/P2000 -RA BR SCT002 BKN006 OVC080 13/13 Q1019=
2009072508 - SBKP 250840Z 08007KT 5000 -RA BR SCT003 BKN010 OVC080 13/13 Q1019=
2009072509 - SBKP 250900Z 08006KT 7000 -RA SCT004 BKN012 OVC080 13/13 Q1020=
2009072509 - SBKP 250935Z 19003KT 4000 -RA BR SCT005 BKN010 OVC080 13/13 Q1019=
2009072510 - SBKP 251000Z 10005KT 5000 -RA BR FEW007 BKN011 OVC080 13/13 Q1020=
2009072511 - SBKP 251100Z 17006KT 5000 BR FEW007 BKN011 OVC080 14/14 Q1021=
2009072512 - SBKP 251200Z 20007KT 4000 -RA BR FEW005 BKN020 OVC100 14/14 Q1022=
2009072513 - SBKP 251300Z 16008KT 5000 -RA BR FEW010 BKN020 OVC100 14/14 Q1022=
2009072514 - SBKP 251400Z 19006KT 5000 -RA BR SCT010 BKN020 OVC100 14/14 Q1023=
2009072515 - SBKP 251500Z 15009KT 5000 -RA BR FEW008 BKN015 OVC100 15/15 Q1022=
2009072516 - SBKP 251600Z 13008KT 7000 FEW008 BKN015 OVC100 15/15 Q1021=
2009072517 - SBKP 251700Z 13006KT 7000 BKN015 OVC100 17/17 Q1020=
2009072518 - SBKP 251800Z 14006KT 8000 BKN020 OVC090 18/18 Q1019=
2009072519 - SBKP 251900Z 13004KT 8000 BKN019 OVC090 17/17 Q1020=
2009072520 - SBKP 252000Z 15005KT 6000 -RA BKN020 OVC090 17/17 Q1020=
2009072521 - SBKP 252100Z 11005KT 8000 SCT020 OVC100 16/16 Q1020=
2009072522 - SBKP 252200Z 11007KT 9000 SCT030 OVC080 16/16 Q1020=
2009072523 - SBKP 252300Z 09007KT 9000 SCT030 OVC080 16/16 Q1019=
2009072600 - SBKP 260000Z 11007KT CAVOK 16/16 Q1019=
2009072601 - SBKP 260100Z 12007KT CAVOK 16/16 Q1019=
2009072602 - SBKP 260200Z 12006KT CAVOK 16/16 Q1020=
2009072603 - SBKP 260300Z 15007KT 9999 FEW040 BKN070 16/16 Q1020=
2009072604 - SBKP 260400Z 17005KT 9999 FEW040 BKN070 16/16 Q1020=
2009072605 - SBKP 260500Z 17004KT 8000 -RA SCT040 OVC070 16/16 Q1021=
2009072605 - SBKP 260515Z 25008KT 2000 R15/1900 R33/P2000 -RA BR BKN003 OVC070 16/16 Q1021=
2009072606 - SBKP 260600Z 19006KT 1500 -RA BR R15/2000 R33/P2000 BKN003 OVC070 15/15 Q1021=
2009072607 - SBKP 260700Z 08007KT 3000 -RA BR BKN003 OVC070 15/15 Q1020=
2009072607 - SBKP 260725Z 08007KT 6000 SCT003 SCT020 OVC070 15/15 Q1020=
2009072608 - SBKP 260800Z 10005KT 8000 FEW006 SCT020 OVC080 16/16 Q1019=
2009072609 - SBKP 260900Z 11003KT 9999 SCT020 BKN080 16/16 Q1020=
2009072610 - SBKP 261000Z 21005KT 5000 BR FEW010 BKN040 BKN070 16/16 Q1021=
2009072610 - SBKP 261035Z 23003KT 1500 R15/P2000 R33/P2000 -RA BR FEW010 BKN040 BKN070 16/16 Q1021=
2009072611 - SBKP 261100Z 09002KT 0800 R15/P2000 R33/P2000 FG FEW003 BKN040 BKN070 16/16 Q1022=
2009072612 - SBKP 261200Z 13003KT 1200 R15/P2000 R33/P2000 -RA BR FEW003 SCT030 BKN070 16/16 Q1022=
2009072613 - SBKP 261300Z 05003KT 3000 -RA BR FEW003 SCT030 BKN070 18/18 Q1022=
2009072613 - SBKP 261320Z 03003KT 6000 SCT030 BKN070 OVC100 18/18 Q1022=
2009072614 - SBKP 261400Z 35004KT 5000 -RA BR SCT030 BKN070 OVC100 18/18 Q1022=
2009072615 - SBKP 261500Z 03005KT 6000 FEW003 SCT040 BKN080 19/19 Q1022=
2009072616 - SBKP 261600Z 04006KT 9999 SCT040 BKN080 20/20 Q1021=
2009072617 - SBKP 261700Z 02004KT 9999 SCT040 BKN080 21/21 Q1020=
2009072618 - SBKP 261800Z 35003KT 9999 SCT040 BKN100 21/21 Q1020=
2009072619 - SBKP 261900Z 28003KT 9999 FEW040 BKN100 21/21 Q1020=
2009072620 - SBKP 262000Z 24004KT 9999 FEW040 BKN100 20/20 Q1020=
2009072621 - Mensagem METAR de 'SBKP' para 26/07/2009 as 21(UTC) não localizada na base de dados da REDEMET
2009072622 - Mensagem METAR de 'SBKP' para 26/07/2009 as 22(UTC) não localizada na base de dados da REDEMET
2009072623 - Mensagem METAR de 'SBKP' para 26/07/2009 as 23(UTC) não localizada na base de dados da REDEMET
2009072700 - SBKP 270000Z 08004KT 8000 NSC 19/19 Q1022=
2009072701 - SBKP 270100Z 17004KT CAVOK 19/19 Q1022=
2009072702 - SBKP 270200Z 19006KT 7000 -RA SCT015 SCT060 BKN100 19/19 Q1023=
2009072702 - SBKP 270245Z 16005KT 3000 BR FEW001 SCT015 BKN100 18/18 Q1022=
2009072703 - SBKP 270300Z 18007KT 3000 BR FEW001 SCT015 BKN100 18/18 Q1022=
2009072703 - SBKP 270328Z 17005KT 7000 FEW015 BKN100 18/18 Q1022=
2009072704 - SBKP 270400Z 09004KT 9999 FEW015 BKN100 18/18 Q1021=
2009072705 - SBKP 270500Z 07006KT 6000 FEW015 BKN100 18/18 Q1020=
2009072706 - SBKP 270600Z 13005KT 6000 FEW020 BKN100 18/18 Q1020=
2009072707 - SBKP 270700Z 11004KT 7000 3000N -RA NSC 17/17 Q1019=
2009072708 - SBKP 270800Z 12004KT 7000 NSC 17/17 Q1019=
2009072709 - SBKP 270900Z 14005KT 6000 NSC 17/17 Q1019=
2009072709 - SBKP 270920Z 16003KT 4500 1200NW R15/1600 R33/P2000 BR BCFG FEW001 BKN100 17/17 Q1019=
2009072710 - SBKP 271000Z 16004KT 5000 1200NW R15/1900 R33/P2000 BR BCFG FEW001 BKN100 17/17 Q1020=
2009072711 - SBKP 271100Z 16005KT 5000 2000E BR BCFG FEW015 BKN090 17/17 Q1020=
2009072712 - SBKP 271200Z 12004KT 7000 FEW020 SCT050 BKN090 19/19 Q1021=
2009072713 - SBKP 271300Z 13006KT 8000 FEW025 SCT050 BKN090 21/21 Q1021=
2009072714 - SBKP 271400Z 13005KT 9999 FEW030 SCT050 BKN090 22/21 Q1021=
2009072715 - SBKP 271500Z 23003KT 9999 FEW030 BKN045 BKN090 22/21 Q1021=
2009072716 - SBKP 271600Z 19002KT 9999 -RA FEW030 BKN045 BKN070 22/22 Q1020=
2009072717 - SBKP 271700Z 22002KT 9999 SCT045 BKN100 22/21 Q1019=
2009072718 - SBKP 271800Z 24002KT 9999 SCT045 BKN090 22/22 Q1019=
2009072719 - SBKP 271900Z 21005KT 9999 SCT045 BKN080 22/22 Q1019=
2009072720 - SBKP 272000Z 20007KT 6000 SCT045 BKN090 21/21 Q1020=
2009072721 - SBKP 272100Z 19006KT 8000 NSC 20/20 Q1020=
2009072722 - SBKP 272200Z 19006KT CAVOK 20/20 Q1020=
2009072723 - SBKP 272300Z 19007KT CAVOK 20/20 Q1021=
2009072800 - SBKP 280000Z 16005KT CAVOK 19/19 Q1021=
2009072801 - SBKP 280100Z 11004KT CAVOK 19/19 Q1021=
2009072802 - SBKP 280200Z 13004KT CAVOK 19/19 Q1020=
2009072803 - SBKP 280300Z 07004KT CAVOK 18/18 Q1020=
2009072804 - SBKP 280400Z 12004KT CAVOK 18/18 Q1020=
2009072805 - SBKP 280500Z 14003KT CAVOK 18/18 Q1020=
2009072806 - SBKP 280600Z 12004KT 8000 NSC 18/18 Q1019=
2009072807 - SBKP 280700Z 10007KT 6000 NSC 18/18 Q1018=
2009072808 - SBKP 280800Z 13008KT 6000 NSC 18/18 Q1018=
2009072809 - SBKP 280900Z 09006KT 8000 NSC 18/18 Q1018=
2009072810 - SBKP 281000Z 10005KT 6000 FEW035 BKN100 17/17 Q1018=
2009072811 - SBKP 281100Z 09004KT 5000 BR FEW035 BKN100 18/18 Q1018=
2009072812 - SBKP 281200Z 08003KT 9999 FEW040 SCT090 21/20 Q1018=
2009072813 - SBKP 281300Z 23001KT 9999 FEW040 SCT090 23/18 Q1018=
2009072814 - SBKP 281400Z 00000KT 9999 FEW040 BKN090 24/19 Q1018=
2009072815 - SBKP 281500Z 05005KT CAVOK 25/19 Q1018=
2009072816 - SBKP 281600Z 35006KT 9999 FEW040 BKN082 26/20 Q1017=
2009072817 - SBKP 281700Z 35007KT 9999 FEW040 BKN090 26/20 Q1016=
2009072818 - SBKP 281800Z 36008KT 9999 FEW040 BKN090 27/19 Q1016=
2009072818 - SBKP 281830Z 24008KT 9999 4000SE -TSRA FEW035 FEW040CB BKN090 26/20 Q1015=
2009072819 - SBKP 281900Z 23008KT 9999 4500S -TSRA FEW035 FEW040CB BKN090 26/20 Q1015=
2009072819 - SBKP 281925Z 21010KT 9999 FEW035 SCT040TCU 25/20 Q1016 RETS=
2009072820 - SBKP 282000Z 21012KT 9999 FEW035 SCT040TCU 24/21 Q1016 RETS=
2009072821 - SBKP 282100Z 19007KT 9000 FEW035 FEW040TCU SCT090 22/22 Q1016=
2009072822 - SBKP 282200Z 11010KT 8000 VCTS FEW035 FEW040CB BKN080 20/20 Q1017=
2009072823 - SBKP 282300Z 11011KT 8000 VCTS FEW035 FEW040CB BKN080 19/19 Q1017=
2009072900 - SBKP 290000Z 12012KT 9000 FEW040 SCT090 19/19 Q1017=
2009072901 - SBKP 290100Z 11008KT 9999 FEW040 SCT100 18/18 Q1017=
2009072902 - SBKP 290200Z 10008KT 9000 FEW040 SCT100 18/18 Q1017=
2009072903 - SBKP 290300Z 09007KT 7000 NSC 18/18 Q1017=
2009072904 - SBKP 290400Z 10007KT 9000 NSC 18/18 Q1017=
2009072905 - SBKP 290500Z 10006KT CAVOK 18/18 Q1016=
2009072906 - SBKP 290600Z 09007KT 6000 VCTS FEW040CB SCT100 17/17 Q1015=
2009072907 - SBKP 290700Z 08005KT 6000 VCTS FEW025 FEW040CB SCT100 17/17 Q1016=
2009072908 - SBKP 290800Z 22017G27KT 1500 R15/1200 R33/1600 TSGRRA FEW025 BKN040CB 18/18 Q1017=
2009072908 - SBKP 290815Z 17003KT 8000 TS FEW025 SCT040 18/18 Q1016 REGRRA=
2009072909 - SBKP 290900Z 03003KT 8000 TS FEW035 FEW040CB SCT090 18/18 Q1017 REGRRA=
2009072910 - SBKP 291000Z 10004KT 5000 BR FEW035 FEW040TCU SCT090 18/18 Q1017 RETS=
2009072911 - SBKP 291100Z 09003KT 6000 FEW045 BKN090 18/18 Q1018=
2009072912 - SBKP 291200Z 13003KT 6000 SCT045 BKN090 20/20 Q1018=
2009072913 - SBKP 291300Z 00000KT 7000 FEW030 SCT050 BKN090 21/21 Q1019=
2009072914 - SBKP 291400Z 22003KT 4000 -TSRA BR SCT030 SCT040CB BKN050 21/21 Q1019=
2009072914 - SBKP 291415Z 22005KT 2000 TSRA SCT030 FEW040CB BKN050 BKN090 20/20 Q1018=
2009072914 - SBKP 291430Z 19004KT 6000 SCT030 FEW050TCU BKN090 20/20 Q1019 RETSRA=
2009072915 - SBKP 291500Z 25004KT 6000 SCT030 FEW050TCU BKN090 21/21 Q1018 RETSRA=
2009072916 - SBKP 291600Z 22005KT 4000 -RA BR FEW007 SCT030 FEW040TCU BKN090 21/21 Q1018=
2009072916 - SBKP 291620Z 21003KT 6000 -RA FEW007 SCT030 FEW040TCU BKN090 21/21 Q1018=
2009072917 - SBKP 291700Z 26003KT 9999 SCT030 FEW040TCU BKN090 22/22 Q1017=
2009072918 - SBKP 291800Z 28004KT 9999 SCT035 FEW050TCU BKN074 22/22 Q1017=
2009072919 - SBKP 291900Z 22003KT 9999 FEW012 SCT035 FEW045TCU BKN070 23/22 Q1017=
2009072919 - SBKP 291910Z 22005KT 9999 -TSRA FEW012 SCT035 FEW045CB BKN070 22/22 Q1017=
2009072920 - SBKP 292000Z 32004KT 9999 FEW015 SCT035 22/22 Q1018 RETS=
2009072921 - SBKP 292100Z 12002KT 9999 SCT035 FEW040TCU SCT080 21/21 Q1018=
2009072921 - SBKP 292115Z 08003KT 9999 TS SCT035 FEW040CB SCT080 21/21 Q1018=
2009072921 - SBKP 292133Z 13003KT 4000 TSGRRA BR SCT035 FEW040CB SCT080 21/21 Q1019=
2009072921 - SBKP 292139Z 13003KT 2000 +TSGRRA BR SCT035 FEW040CB SCT080 20/20 Q1019=
2009072922 - SBKP 292200Z 02003KT 8000 -TSRA FEW012 SCT035 FEW040CB BKN080 20/20 Q1019 REGRRA=
2009072923 - SBKP 292300Z 08003KT 9000 -TSRA FEW012 SCT038CB BKN080 19/19 Q1019=
2009072923 - SBKP 292320Z 04004KT 9999 VCTS FEW015 FEW038CB BKN080 19/19 Q1020 RETS=
2009073000 - SBKP 300000Z 05002KT 9999 FEW015 SCT050 BKN080 19/19 Q1020 RETS=
2009073001 - SBKP 300100Z 09003KT 9999 FEW045 BKN085 19/19 Q1019=
2009073002 - SBKP 300200Z 10005KT 9999 FEW040 SCT080 18/18 Q1019=
2009073003 - SBKP 300300Z 12005KT CAVOK 18/18 Q1020=
2009073004 - SBKP 300400Z 13006KT CAVOK 18/18 Q1020=
2009073005 - SBKP 300500Z 15008KT 9999 FEW035 17/17 Q1019=
2009073005 - SBKP 300515Z 12007KT 4000 BR FEW035 17/17 Q1019=
2009073005 - SBKP 300530Z 13008KT 2000 BR OVC001 17/17 Q1019=
2009073005 - SBKP 300540Z 13007KT 0650 R15/0650 R33/1900 FG VV001 17/17 Q1019=
2009073006 - SBKP 300600Z 12006KT 0500 R15/0500 R33/0550 FG VV001 17/17 Q1019=
2009073007 - SBKP 300700Z 15008KT 0500 R15/0900 R33/0900 FG VV001 17/17 Q1019=
2009073008 - SBKP 300800Z 15008KT 2000 BR BKN003 17/17 Q1019=
2009073009 - SBKP 300900Z 17009KT 5000 BR BKN022 17/17 Q1020=
2009073009 - SBKP 300920Z 15011KT 9999 SCT030 16/16 Q1020=
2009073010 - SBKP 301000Z 14010KT 4000 BR SCT035 16/16 Q1020=
2009073011 - SBKP 301100Z 12010KT 4000 BR BKN035 16/16 Q1021=
2009073011 - SBKP 301130Z 12009KT 2000 R15/1400 R33/P2000 BR OVC035 17/17 Q1021=
2009073012 - SBKP 301200Z 12013KT 3500 1500E R15/1400 R33/P2000 BR BKN035 17/17 Q1021=
2009073013 - SBKP 301300Z 12011KT 4000 1500E R15/1600 R33/P2000 BR BKN035 SCT100 18/18 Q1022=
2009073014 - SBKP 301400Z 14009KT 5000 2000E BR SCT035 SCT100 20/20 Q1022=
2009073015 - SBKP 301500Z 14010KT 5000 BR SCT035 SCT100 21/21 Q1021=
2009073016 - SBKP 301600Z 13008KT 5000 BR SCT035 SCT100 21/20 Q1021=
2009073017 - SBKP 301700Z 14008KT 5000 BR SCT035 SCT100 22/20 Q1021=
2009073018 - SBKP 301800Z 12011KT 5000 BR SCT030 FEW050TCU SCT100 22/20 Q1020=
2009073019 - SBKP 301900Z 12013KT 4000 BR FEW030 BKN080 20/20 Q1020=
2009073020 - SBKP 302000Z 12016KT 3500 BR FEW030 BKN100 18/18 Q1021=
2009073021 - SBKP 302100Z 12015KT 3500 BR FEW025 BKN100 17/17 Q1021=
2009073022 - SBKP 302200Z 13016KT 5000 BR FEW025 SCT100 16/16 Q1022=
2009073023 - SBKP 302300Z 12015KT 6000 FEW025 SCT100 16/16 Q1022=
2009073100 - SBKP 310000Z 12016KT 7000 FEW030 16/16 Q1023=
2009073101 - SBKP 310100Z 12017KT 8000 FEW030 SCT090 16/16 Q1023=
2009073102 - SBKP 310200Z 13015KT 9000 FEW025 SCT100 16/16 Q1023=
2009073103 - SBKP 310300Z 14015KT 9999 FEW025 BKN110 16/16 Q1022=
2009073104 - SBKP 310400Z 14015KT 9999 BKN014 16/16 Q1022=
2009073104 - SBKP 310420Z 13016KT 9999 SCT010 16/16 Q1022=
2009073105 - SBKP 310500Z 15016KT 9999 SCT012 15/15 Q1022=
2009073106 - SBKP 310600Z 15014KT 9999 FEW012 SCT100 15/15 Q1021=
2009073107 - SBKP 310700Z 14012KT 9999 FEW012 SCT100 15/15 Q1021=
2009073108 - SBKP 310800Z 14013KT 9999 FEW015 SCT100 15/15 Q1021=
2009073109 - SBKP 310900Z 14013KT 9999 FEW030 SCT095 15/15 Q1022=
2009073110 - SBKP 311000Z 13013KT 9999 FEW030 SCT095 15/15 Q1022=
2009073111 - SBKP 311100Z 11013KT 9999 SCT035 SCT095 16/16 Q1023=
2009073112 - SBKP 311200Z 12013KT 9999 FEW040 SCT080 16/16 Q1023=
2009073113 - SBKP 311300Z 12014KT 9999 FEW040 SCT080 17/17 Q1024=
2009073114 - SBKP 311400Z 12014KT 9999 FEW040 SCT080 18/18 Q1023=
2009073115 - SBKP 311500Z 12014KT CAVOK 19/18 Q1023=
2009073116 - SBKP 311600Z 14015KT CAVOK 20/18 Q1023=
2009073117 - SBKP 311700Z 13018KT CAVOK 20/18 Q1021=
2009073118 - SBKP 311800Z 13018KT CAVOK 20/18 Q1020=
2009073119 - SBKP 311900Z 12016KT 9999 FEW030 SCT090 20/18 Q1020=
2009073120 - SBKP 312000Z 12016KT 9999 FEW030 SCT090 19/18 Q1020=
2009073121 - SBKP 312100Z 12015KT CAVOK 18/18 Q1020=
2009073122 - SBKP 312200Z 12016KT CAVOK 17/17 Q1020=
2009073123 - SBKP 312300Z 12016KT CAVOK 17/17 Q1020=
2009080100 - SBKP 010000Z 12015KT CAVOK 17/17 Q1020=
2009080101 - SBKP 010100Z 11014KT CAVOK 17/17 Q1020=
2009080102 - SBKP 010200Z 12014KT CAVOK 17/17 Q1020=
2009080103 - SBKP 010300Z 13013KT CAVOK 17/17 Q1020=
2009080104 - SBKP 010400Z 14011KT CAVOK 16/16 Q1019=
2009080105 - SBKP 010500Z 13008KT CAVOK 16/16 Q1019=
2009080106 - SBKP 010600Z 14009KT CAVOK 16/16 Q1019=
2009080107 - SBKP 010700Z 12006KT CAVOK 16/16 Q1018=
2009080108 - SBKP 010800Z 10005KT CAVOK 15/15 Q1018=
2009080109 - SBKP 010900Z 18004KT CAVOK 15/15 Q1019=
2009080110 - SBKP 011000Z 10003KT 9000 NSC 15/15 Q1019=
2009080111 - SBKP 011100Z 12003KT 6000 NSC 15/15 Q1020=
2009080112 - SBKP 011200Z 08005KT 6000 NSC 18/18 Q1020=
2009080113 - SBKP 011300Z 23003KT 8000 FEW040 BKN090 20/18 Q1021=
2009080114 - SBKP 011400Z 24006KT 8000 FEW040 21/18 Q1021=
2009080115 - SBKP 011500Z 22004KT 8000 NSC 23/16 Q1021=
2009080116 - SBKP 011600Z 24003KT 8000 NSC 24/15 Q1020=
2009080117 - SBKP 011700Z 33002KT 8000 NSC 25/15 Q1019=
2009080118 - SBKP 011800Z 31002KT 8000 NSC 25/15 Q1019=
2009080119 - SBKP 011900Z 08002KT CAVOK 26/14 Q1019=
2009080120 - SBKP 012000Z 18002KT CAVOK 25/15 Q1019=
2009080121 - SBKP 012100Z 14010KT 5000 BR NSC 21/19 Q1019=
2009080122 - SBKP 012200Z 14012KT 8000 NSC 19/19 Q1019=
2009080123 - SBKP 012300Z 14011KT 8000 NSC 19/19 Q1020=
2009080200 - SBKP 020000Z 13011KT 7000 NSC 18/18 Q1019=
2009080201 - SBKP 020100Z 13008KT 7000 NSC 18/18 Q1020=
2009080202 - SBKP 020200Z 10007KT CAVOK 18/18 Q1019=
2009080203 - SBKP 020300Z 10006KT CAVOK 17/17 Q1019=
2009080204 - SBKP 020400Z 11005KT CAVOK 17/17 Q1019=
2009080205 - SBKP 020500Z 10006KT CAVOK 17/17 Q1018=
2009080206 - SBKP 020600Z 10004KT CAVOK 16/16 Q1018=
2009080207 - SBKP 020700Z 10004KT CAVOK 16/16 Q1018=
2009080208 - SBKP 020800Z 10005KT CAVOK 16/16 Q1018=
2009080209 - SBKP 020900Z 10006KT CAVOK 16/16 Q1018=
2009080210 - SBKP 021000Z 07009KT CAVOK 18/15 Q1017=
2009080211 - SBKP 021100Z 07006KT CAVOK 20/15 Q1018=
2009080212 - SBKP 021200Z 05009KT CAVOK 23/13 Q1019=
2009080213 - SBKP 021300Z 36009KT 9999 FEW040 SCT070 BKN100 24/13 Q1019=
2009080214 - SBKP 021400Z 35010KT CAVOK 25/14 Q1020=
2009080215 - SBKP 021500Z 34011KT CAVOK 26/13 Q1019=
2009080216 - SBKP 021600Z 34014KT CAVOK 27/12 Q1018=
2009080217 - SBKP 021700Z 34017KT CAVOK 28/11 Q1017=
2009080218 - SBKP 021800Z 33012KT CAVOK 27/11 Q1017=
2009080219 - SBKP 021900Z 36013KT CAVOK 27/11 Q1016=
2009080220 - SBKP 022000Z 24010KT 9999 FEW045 SCT080 24/15 Q1017=
2009080221 - SBKP 022100Z 23005KT 9999 FEW045 SCT080 23/16 Q1018=
2009080222 - SBKP 022200Z 25005KT CAVOK 22/16 Q1018=
2009080223 - SBKP 022300Z 23006KT CAVOK 20/17 Q1019=
2009080300 - SBKP 030000Z 25003KT CAVOK 20/16 Q1019=
2009080301 - SBKP 030100Z 23003KT CAVOK 19/17 Q1019=
2009080302 - SBKP 030200Z 04002KT CAVOK 19/18 Q1020=
2009080303 - SBKP 030300Z 06005KT CAVOK 18/18 Q1019=
2009080304 - SBKP 030400Z 36004KT CAVOK 18/18 Q1019=
2009080305 - SBKP 030500Z 36004KT CAVOK 18/18 Q1019=
2009080306 - SBKP 030600Z 02004KT CAVOK 18/18 Q1018=
2009080307 - SBKP 030700Z 04005KT CAVOK 18/18 Q1018=
2009080308 - SBKP 030800Z 33003KT CAVOK 17/17 Q1018=
2009080309 - SBKP 030900Z 35002KT CAVOK 17/17 Q1019=
2009080310 - SBKP 031000Z 08003KT 9000 FEW045 BKN090 16/16 Q1020=
2009080311 - SBKP 031100Z 03002KT 7000 FEW045 BKN090 17/17 Q1020=
2009080312 - SBKP 031200Z 32002KT 6000 SCT045 BKN080 BKN100 18/18 Q1021=
2009080313 - SBKP 031300Z 36005KT 6000 SCT045 BKN090 BKN100 20/18 Q1021=
2009080313 - SBKP 031345Z 29005KT 3000 -RA BR FEW008 BKN035 OVC090 19/19 Q1022=
2009080314 - SBKP 031400Z 24002KT 4000 BR SCT035 BKN070 OVC090 19/19 Q1022=
2009080314 - SBKP 031426Z 01004KT 3000 -RA BR FEW007 SCT035 BKN070 OVC090 19/19 Q1021=
2009080314 - SBKP 031445Z 01004KT 3000 -RA BR FEW007 SCT035 BKN070 19/19 Q1021=
2009080315 - SBKP 031500Z 03006KT 5000 -RA BR SCT040 BKN070 OVC090 19/19 Q1021=
2009080316 - SBKP 031600Z 32003KT 5000 BR SCT040 SCT070 BKN090 21/19 Q1021=
2009080317 - SBKP 031700Z 30004KT 5000 BR SCT040 SCT070 BKN090 20/20 Q1020=
2009080318 - SBKP 031800Z 36005KT 6000 SCT040 SCT080 BKN090 21/20 Q1020=
2009080319 - SBKP 031900Z 03004KT 9999 FEW040 SCT080 22/18 Q1020=
2009080320 - SBKP 032000Z 29002KT CAVOK 22/18 Q1020=
2009080321 - SBKP 032100Z 25002KT CAVOK 21/18 Q1020=
2009080322 - SBKP 032200Z 23002KT CAVOK 20/19 Q1020=
2009080323 - SBKP 032300Z 20002KT CAVOK 20/19 Q1021=
2009080400 - SBKP 040000Z 09004KT CAVOK 18/18 Q1021=
2009080401 - SBKP 040100Z 09005KT CAVOK 17/17 Q1021=
2009080402 - SBKP 040200Z 12005KT CAVOK 17/17 Q1021=
2009080403 - SBKP 040300Z 10006KT CAVOK 17/17 Q1021=
2009080404 - SBKP 040400Z 11006KT CAVOK 17/17 Q1021=
2009080405 - SBKP 040500Z 10007KT CAVOK 16/16 Q1020=
2009080406 - SBKP 040600Z 13006KT CAVOK 16/16 Q1020=
2009080407 - SBKP 040700Z 13008KT CAVOK 16/16 Q1020=
2009080408 - SBKP 040800Z 13011KT CAVOK 15/15 Q1020=
2009080409 - SBKP 040900Z 13013KT 9000 NSC 14/14 Q1020=
2009080410 - SBKP 041000Z 15011KT 5000 BR NSC 14/14 Q1021=
2009080411 - SBKP 041100Z 12013KT 6000 NSC 15/14 Q1022=
2009080412 - SBKP 041200Z 11013KT 6000 NSC 17/14 Q1022=
2009080413 - SBKP 041300Z 10010KT 8000 NSC 19/15 Q1022=
2009080414 - SBKP 041400Z 12004KT CAVOK 22/16 Q1022=
2009080415 - SBKP 041500Z 13004KT CAVOK 23/17 Q1022=
2009080416 - SBKP 041600Z 20002KT 9999 FEW030 24/17 Q1021=
2009080417 - SBKP 041700Z 34001KT 9999 FEW035 26/17 Q1020=
2009080418 - SBKP 041800Z 23004KT 9999 FEW035 26/15 Q1019=
2009080419 - SBKP 041900Z 26007KT 9999 FEW040 26/15 Q1019=
2009080420 - SBKP 042000Z 22007KT 9999 FEW040 25/15 Q1019=
2009080421 - SBKP 042100Z 22005KT CAVOK 24/15 Q1019=
2009080422 - SBKP 042200Z 11010KT 5000 BR NSC 19/17 Q1020=
2009080423 - SBKP 042300Z 11014KT 6000 2800SE NSC 17/17 Q1020=
2009080500 - SBKP 050000Z 11014KT 6000 NSC 16/16 Q1021=
2009080501 - SBKP 050100Z 11012KT 5000 BR NSC 16/16 Q1021=
2009080502 - SBKP 050200Z 11013KT 6000 2700SE NSC 16/16 Q1021=
2009080503 - SBKP 050300Z 11013KT 4000 BR NSC 16/16 Q1021=
2009080504 - SBKP 050400Z 12014KT 4000 BR NSC 15/15 Q1020=
2009080505 - SBKP 050500Z 12013KT 3500 BR NSC 15/15 Q1019=
2009080506 - SBKP 050600Z 11011KT 4000 BR NSC 15/15 Q1019=
2009080507 - SBKP 050700Z 10008KT 3000 BR NSC 14/14 Q1019=
2009080508 - SBKP 050800Z 12011KT 3000 BR BKN003 14/14 Q1019=
2009080509 - SBKP 050900Z 13015KT 3000 BR BKN003 14/14 Q1019=
2009080510 - SBKP 051000Z 12010KT 3000 BR BKN003 BKN100 14/14 Q1019=
2009080511 - SBKP 051100Z 15008KT 4000 BR FEW003 BKN100 15/15 Q1020=
2009080512 - SBKP 051200Z 14007KT 6000 NSC 17/17 Q1021=
2009080513 - SBKP 051300Z 08003KT CAVOK 20/18 Q1021=
2009080514 - SBKP 051400Z 08003KT CAVOK 23/16 Q1021=
2009080515 - SBKP 051500Z 04005KT CAVOK 26/13 Q1020=
2009080516 - SBKP 051600Z 34003KT 9999 FEW030 BKN100 27/11 Q1019=
2009080517 - SBKP 051700Z 05004KT 9999 FEW030 BKN100 28/11 Q1017=
2009080518 - SBKP 051800Z 02003KT 9999 FEW030 BKN100 28/10 Q1017=
2009080519 - SBKP 051900Z 32004KT 9999 FEW030 BKN100 28/11 Q1017=
2009080520 - SBKP 052000Z 31002KT CAVOK 27/13 Q1017=
2009080521 - SBKP 052100Z 31002KT CAVOK 27/10 Q1017=
2009080522 - SBKP 052200Z 19003KT 9999 FEW035 BKN100 26/12 Q1017=
2009080523 - SBKP 052300Z 12003KT CAVOK 23/14 Q1017=
2009080600 - SBKP 060000Z 11007KT CAVOK 22/15 Q1018=
2009080601 - SBKP 060100Z 10008KT CAVOK 21/15 Q1018=
2009080602 - SBKP 060200Z 11006KT CAVOK 20/16 Q1018=
2009080603 - SBKP 060300Z 10006KT CAVOK 20/16 Q1018=
2009080604 - SBKP 060400Z 10005KT CAVOK 20/17 Q1018=
2009080605 - SBKP 060500Z 10006KT CAVOK 19/17 Q1017=
2009080606 - SBKP 060600Z 11006KT CAVOK 19/18 Q1017=
2009080607 - SBKP 060700Z 12006KT CAVOK 19/18 Q1017=
2009080608 - SBKP 060800Z 13006KT CAVOK 19/19 Q1017=
2009080609 - SBKP 060900Z 14006KT CAVOK 19/19 Q1017=
2009080610 - SBKP 061000Z 12005KT 9000 NSC 19/19 Q1018=
2009080611 - SBKP 061100Z 11005KT 6000 NSC 19/19 Q1019=
2009080612 - SBKP 061200Z 09003KT 6000 NSC 22/18 Q1019=
2009080613 - SBKP 061300Z 07006KT CAVOK 24/17 Q1019=
2009080614 - SBKP 061400Z 03010KT CAVOK 27/15 Q1019=
2009080615 - SBKP 061500Z 36010KT CAVOK 27/15 Q1020=
2009080616 - SBKP 061600Z 30008KT CAVOK 28/14 Q1019=
2009080617 - SBKP 061700Z 32009KT CAVOK 29/14 Q1018=
2009080618 - SBKP 061800Z 32009KT 9999 FEW030 29/12 Q1018=
2009080619 - SBKP 061900Z 29005KT 9999 FEW035 30/13 Q1017=
2009080620 - SBKP 062000Z 24003KT 9999 FEW035 29/11 Q1017=
2009080621 - SBKP 062100Z 23003KT CAVOK 28/13 Q1018=
2009080622 - SBKP 062200Z 21003KT CAVOK 27/13 Q1018=
2009080623 - SBKP 062300Z 13004KT CAVOK 23/14 Q1019=
2009080700 - SBKP 070000Z 10007KT CAVOK 22/16 Q1019=
2009080701 - SBKP 070100Z 11006KT CAVOK 22/16 Q1019=
2009080702 - SBKP 070200Z 11006KT CAVOK 20/16 Q1019=
2009080703 - SBKP 070300Z 11009KT CAVOK 19/17 Q1019=
2009080704 - SBKP 070400Z 11011KT CAVOK 19/17 Q1019=
2009080705 - SBKP 070500Z 11013KT CAVOK 18/18 Q1019=
2009080706 - SBKP 070600Z 11015KT CAVOK 18/18 Q1019=
2009080707 - SBKP 070700Z 11019KT CAVOK 17/17 Q1019=
2009080708 - SBKP 070800Z 11015KT CAVOK 17/17 Q1019=
2009080709 - SBKP 070900Z 11017KT CAVOK 17/17 Q1020=
2009080710 - SBKP 071000Z 11015KT 6000 NSC 17/17 Q1021=
2009080711 - SBKP 071100Z 13016KT 6000 NSC 18/18 Q1021=
2009080712 - SBKP 071200Z 13016KT 8000 NSC 19/19 Q1022=
2009080713 - SBKP 071300Z 14012KT CAVOK 22/19 Q1022=
2009080714 - SBKP 071400Z 12008KT CAVOK 24/18 Q1022=
2009080715 - SBKP 071500Z 10005KT CAVOK 26/18 Q1021=
2009080716 - SBKP 071600Z 06005KT CAVOK 28/15 Q1020=
2009080717 - SBKP 071700Z 01004KT 9999 FEW030 29/15 Q1019=
2009080718 - SBKP 071800Z 35003KT 9999 FEW030 29/13 Q1019=
2009080719 - SBKP 071900Z 33005KT 9999 FEW030 30/12 Q1018=
2009080720 - SBKP 072000Z 28004KT 9999 FEW030 29/14 Q1018=
2009080721 - SBKP 072100Z 19004KT CAVOK 28/13 Q1019=
2009080722 - SBKP 072200Z 17005KT CAVOK 26/14 Q1019=
2009080723 - SBKP 072300Z 12010KT CAVOK 23/17 Q1020=
2009080800 - SBKP 080000Z 11010KT CAVOK 22/18 Q1021=
2009080801 - SBKP 080100Z 12010KT CAVOK 22/18 Q1021=
2009080802 - SBKP 080200Z 12007KT CAVOK 21/19 Q1021=
2009080803 - SBKP 080300Z 12009KT CAVOK 21/19 Q1021=
2009080804 - SBKP 080400Z 11007KT CAVOK 20/19 Q1021=
2009080805 - SBKP 080500Z 10006KT CAVOK 20/19 Q1021=
2009080806 - SBKP 080600Z 11007KT CAVOK 19/18 Q1021=
2009080807 - SBKP 080700Z 11005KT CAVOK 18/18 Q1021=
2009080808 - SBKP 080800Z 11005KT CAVOK 17/17 Q1020=
2009080809 - SBKP 080900Z 11005KT CAVOK 17/17 Q1021=
2009080810 - SBKP 081000Z 06002KT 8000 NSC 17/17 Q1022=
2009080811 - SBKP 081100Z 07004KT 8000 3000NE NSC 19/16 Q1023=
2009080812 - SBKP 081200Z 05003KT 9000 3500NE NSC 22/15 Q1024=
2009080813 - SBKP 081300Z 03008KT CAVOK 25/13 Q1024=
2009080814 - SBKP 081400Z 36010KT CAVOK 26/13 Q1023=
2009080815 - SBKP 081500Z 01009KT CAVOK 28/13 Q1023=
2009080816 - SBKP 081600Z 03008KT 9999 FEW030 29/11 Q1022=
2009080817 - SBKP 081700Z 03003KT 9999 FEW030 29/10 Q1020=
2009080818 - SBKP 081800Z 35007KT 9999 FEW035 29/09 Q1020=
2009080819 - SBKP 081900Z 02004KT 9999 FEW045 29/08 Q1020=
2009080820 - SBKP 082000Z 35004KT CAVOK 27/10 Q1020=
2009080821 - SBKP 082100Z 06003KT CAVOK 26/10 Q1020=
2009080822 - SBKP 082200Z 08005KT CAVOK 25/10 Q1020=
2009080823 - SBKP 082300Z 09005KT CAVOK 23/11 Q1021=
2009080900 - SBKP 090000Z 09004KT CAVOK 22/11 Q1021=
2009080901 - SBKP 090100Z 08004KT CAVOK 20/12 Q1021=
2009080902 - SBKP 090200Z 11006KT CAVOK 18/13 Q1021=
2009080903 - SBKP 090300Z 11007KT CAVOK 18/14 Q1020=
2009080904 - SBKP 090400Z 10007KT CAVOK 17/14 Q1020=
2009080905 - SBKP 090500Z 11007KT CAVOK 17/14 Q1019=
2009080906 - SBKP 090600Z 10008KT CAVOK 17/13 Q1019=
2009080907 - SBKP 090700Z 12007KT CAVOK 16/13 Q1018=
2009080908 - SBKP 090800Z 14004KT CAVOK 15/14 Q1019=
2009080909 - SBKP 090900Z 12006KT CAVOK 15/14 Q1019=
2009080910 - SBKP 091000Z 14008KT CAVOK 15/14 Q1019=
2009080911 - SBKP 091100Z 11006KT CAVOK 17/14 Q1020=
2009080912 - SBKP 091200Z 09004KT CAVOK 19/13 Q1020=
2009080913 - SBKP 091300Z 04004KT CAVOK 22/13 Q1021=
2009080914 - SBKP 091400Z 01010KT CAVOK 25/10 Q1020=
2009080915 - SBKP 091500Z 36010KT CAVOK 26/11 Q1020=
2009080916 - SBKP 091600Z 36009KT CAVOK 27/09 Q1018=
2009080917 - SBKP 091700Z 01010KT CAVOK 28/07 Q1018=
2009080918 - SBKP 091800Z 01009KT CAVOK 28/07 Q1017=
2009080919 - SBKP 091900Z 36009KT CAVOK 28/07 Q1017=
2009080920 - SBKP 092000Z 34009KT CAVOK 27/08 Q1017=
2009080921 - SBKP 092100Z 36004KT CAVOK 26/08 Q1018=
2009080922 - SBKP 092200Z 02004KT CAVOK 24/09 Q1017=
2009080923 - SBKP 092300Z 04005KT CAVOK 23/10 Q1018=
2009081000 - SBKP 100000Z 32003KT CAVOK 22/09 Q1018=
2009081001 - SBKP 100100Z 36002KT CAVOK 21/10 Q1018=
2009081002 - SBKP 100200Z 01005KT CAVOK 20/11 Q1018=
2009081003 - SBKP 100300Z 04007KT CAVOK 20/11 Q1017=
2009081004 - SBKP 100400Z 02008KT CAVOK 20/10 Q1017=
2009081005 - SBKP 100500Z 02007KT CAVOK 20/10 Q1016=
2009081006 - SBKP 100600Z 02008KT CAVOK 20/10 Q1015=
2009081007 - SBKP 100700Z 03006KT CAVOK 19/10 Q1015=
2009081008 - SBKP 100800Z 02006KT CAVOK 17/11 Q1015=
2009081009 - SBKP 100900Z 36004KT CAVOK 16/11 Q1016=
2009081010 - SBKP 101000Z 02005KT CAVOK 16/13 Q1016=
2009081011 - SBKP 101100Z 33006KT 7000 NSC 18/15 Q1017=
2009081012 - SBKP 101200Z 34011KT 7000 NSC 20/12 Q1018=
2009081013 - SBKP 101300Z 34010KT 8000 NSC 21/13 Q1018=
2009081014 - SBKP 101400Z 35011KT 8000 NSC 23/13 Q1018=
2009081015 - SBKP 101500Z 30012KT 9000 NSC 24/13 Q1018=
2009081016 - SBKP 101600Z 26015KT 9000 NSC 22/13 Q1018=
2009081017 - SBKP 101700Z 28014KT CAVOK 21/12 Q1018=
2009081018 - SBKP 101800Z 28014KT CAVOK 20/12 Q1018=
2009081019 - SBKP 101900Z 26011KT 9999 FEW030 SCT100 20/11 Q1019=
2009081020 - SBKP 102000Z 27011KT 9999 FEW035 SCT100 19/11 Q1020=
2009081021 - SBKP 102100Z 28010KT 9999 FEW035 SCT100 18/11 Q1021=
2009081022 - SBKP 102200Z 27004KT CAVOK 17/11 Q1021=
2009081023 - SBKP 102300Z 24005KT CAVOK 16/11 Q1021=
2009081100 - SBKP 110000Z 21007KT 9999 BKN025 15/12 Q1022=
2009081101 - SBKP 110100Z 17006KT 9999 BKN035 16/11 Q1022=
2009081102 - SBKP 110200Z 17010KT CAVOK 16/10 Q1023=
2009081103 - SBKP 110300Z 19006KT CAVOK 15/11 Q1023=
2009081104 - SBKP 110400Z 14007KT CAVOK 13/11 Q1022=
2009081105 - SBKP 110500Z 17005KT CAVOK 13/11 Q1022=
2009081106 - SBKP 110600Z 15006KT CAVOK 12/11 Q1022=
2009081107 - SBKP 110700Z 21003KT CAVOK 12/11 Q1022=
2009081108 - SBKP 110800Z 16007KT CAVOK 12/12 Q1022=
2009081109 - SBKP 110900Z 14008KT 9999 FEW030 SCT070 12/12 Q1022=
2009081110 - SBKP 111000Z 16009KT 9999 SCT025 14/13 Q1022=
2009081111 - SBKP 111100Z 14014KT 9999 FEW020 SCT025 15/13 Q1023=
2009081112 - SBKP 111200Z 14014KT 9999 FEW022 16/13 Q1024=
2009081113 - SBKP 111300Z 14017KT 9999 SCT025 17/13 Q1024=
2009081114 - SBKP 111400Z 13018KT 9999 BKN030 18/12 Q1024=
2009081115 - SBKP 111500Z 12018KT 9999 SCT033 19/12 Q1024=
2009081116 - SBKP 111600Z 13019KT 9999 SCT035 20/12 Q1023=
2009081117 - SBKP 111700Z 14017KT 9999 SCT035 20/13 Q1023=
2009081117 - SBKP 111740Z 13018G29KT 9999 FEW035 20/12 Q1022=
2009081118 - SBKP 111800Z 14018G29KT 9999 FEW035 21/12 Q1022=
2009081119 - SBKP 111900Z 14019KT 9999 FEW035 20/12 Q1022=
2009081120 - SBKP 112000Z 13018KT 9999 FEW035 19/12 Q1022=
2009081121 - SBKP 112100Z 14017KT CAVOK 17/13 Q1023=
2009081122 - SBKP 112200Z 13021KT CAVOK 16/13 Q1023=
2009081123 - SBKP 112300Z 12019KT CAVOK 15/12 Q1024=
2009081200 - SBKP 120000Z 11020KT CAVOK 14/12 Q1024=
2009081201 - SBKP 120100Z 12021KT CAVOK 14/12 Q1024=
2009081202 - SBKP 120200Z 11022KT CAVOK 14/12 Q1024=
2009081203 - SBKP 120300Z 13018KT CAVOK 14/13 Q1024=
2009081204 - SBKP 120400Z 13014G24KT CAVOK 14/13 Q1024=
2009081205 - SBKP 120500Z 13011G22KT CAVOK 13/13 Q1023=
2009081206 - SBKP 120600Z 13016KT CAVOK 13/13 Q1023=
2009081207 - SBKP 120700Z 13016KT CAVOK 13/13 Q1022=
2009081208 - SBKP 120800Z 13014KT CAVOK 13/13 Q1022=
2009081209 - SBKP 120900Z 13012KT CAVOK 13/13 Q1023=
2009081210 - SBKP 121000Z 13011KT CAVOK 13/13 Q1023=
2009081211 - SBKP 121100Z 11013KT CAVOK 14/14 Q1024=
2009081212 - SBKP 121200Z 11010KT CAVOK 16/14 Q1024=
2009081213 - SBKP 121300Z 12012KT CAVOK 18/13 Q1025=
2009081214 - SBKP 121400Z 11008KT CAVOK 20/14 Q1024=
2009081215 - SBKP 121500Z 09004KT CAVOK 22/13 Q1024=
2009081216 - SBKP 121600Z 12006KT CAVOK 24/13 Q1023=
2009081217 - SBKP 121700Z 13005KT CAVOK 24/12 Q1022=
2009081218 - SBKP 121800Z 09005KT CAVOK 26/12 Q1021=
2009081219 - SBKP 121900Z 12007KT CAVOK 26/12 Q1021=
2009081220 - SBKP 122000Z 12010KT CAVOK 24/14 Q1022=
2009081221 - SBKP 122100Z 12011KT CAVOK 22/14 Q1022=
2009081222 - SBKP 122200Z 12015KT CAVOK 19/15 Q1022=
2009081223 - SBKP 122300Z 12015KT CAVOK 18/15 Q1022=
2009081300 - SBKP 130000Z 12016KT CAVOK 16/15 Q1022=
2009081301 - SBKP 130100Z 11015KT CAVOK 16/16 Q1023=
2009081302 - SBKP 130200Z 11013KT CAVOK 15/15 Q1023=
2009081303 - SBKP 130300Z 14015KT CAVOK 15/15 Q1023=
2009081304 - SBKP 130400Z 14013KT CAVOK 15/15 Q1022=
2009081305 - SBKP 130500Z 14012KT CAVOK 15/15 Q1022=
2009081306 - SBKP 130600Z 11008KT CAVOK 14/14 Q1022=
2009081307 - SBKP 130700Z 13010KT CAVOK 14/14 Q1022=
2009081308 - SBKP 130800Z 13007KT CAVOK 13/13 Q1022=
2009081309 - SBKP 130900Z 12005KT CAVOK 13/13 Q1023=
2009081310 - SBKP 131000Z 16006KT 8000 NSC 13/13 Q1024=
2009081311 - SBKP 131100Z 15005KT 8000 NSC 15/15 Q1024=
2009081312 - SBKP 131200Z 14004KT CAVOK 18/15 Q1025=
2009081313 - SBKP 131300Z 12003KT CAVOK 20/13 Q1025=
2009081314 - SBKP 131400Z 04002KT CAVOK 23/13 Q1024=
2009081315 - SBKP 131500Z 01003KT CAVOK 25/12 Q1024=
2009081316 - SBKP 131600Z 30003KT CAVOK 26/11 Q1023=
2009081317 - SBKP 131700Z 26003KT CAVOK 27/11 Q1022=
2009081318 - SBKP 131800Z 19003KT CAVOK 28/08 Q1021=
2009081319 - SBKP 131900Z 15005KT CAVOK 28/07 Q1021=
2009081320 - SBKP 132000Z 16007KT CAVOK 28/07 Q1021=
2009081321 - SBKP 132100Z 14008KT CAVOK 25/07 Q1021=
2009081322 - SBKP 132200Z 12010KT CAVOK 22/07 Q1021=
2009081323 - SBKP 132300Z 11008KT CAVOK 20/08 Q1022=
2009081300 - SBKP 130000Z 12016KT CAVOK 16/15 Q1022=
2009081301 - SBKP 130100Z 11015KT CAVOK 16/16 Q1023=
2009081302 - SBKP 130200Z 11013KT CAVOK 15/15 Q1023=
2009081303 - SBKP 130300Z 14015KT CAVOK 15/15 Q1023=
2009081304 - SBKP 130400Z 14013KT CAVOK 15/15 Q1022=
2009081305 - SBKP 130500Z 14012KT CAVOK 15/15 Q1022=
2009081306 - SBKP 130600Z 11008KT CAVOK 14/14 Q1022=
2009081307 - SBKP 130700Z 13010KT CAVOK 14/14 Q1022=
2009081308 - SBKP 130800Z 13007KT CAVOK 13/13 Q1022=
2009081309 - SBKP 130900Z 12005KT CAVOK 13/13 Q1023=
2009081310 - SBKP 131000Z 16006KT 8000 NSC 13/13 Q1024=
2009081311 - SBKP 131100Z 15005KT 8000 NSC 15/15 Q1024=
2009081312 - SBKP 131200Z 14004KT CAVOK 18/15 Q1025=
2009081313 - SBKP 131300Z 12003KT CAVOK 20/13 Q1025=
2009081314 - SBKP 131400Z 04002KT CAVOK 23/13 Q1024=
2009081315 - SBKP 131500Z 01003KT CAVOK 25/12 Q1024=
2009081316 - SBKP 131600Z 30003KT CAVOK 26/11 Q1023=
2009081317 - SBKP 131700Z 26003KT CAVOK 27/11 Q1022=
2009081318 - SBKP 131800Z 19003KT CAVOK 28/08 Q1021=
2009081319 - SBKP 131900Z 15005KT CAVOK 28/07 Q1021=
2009081320 - SBKP 132000Z 16007KT CAVOK 28/07 Q1021=
2009081321 - SBKP 132100Z 14008KT CAVOK 25/07 Q1021=
2009081322 - SBKP 132200Z 12010KT CAVOK 22/07 Q1021=
2009081323 - SBKP 132300Z 11008KT CAVOK 20/08 Q1022=
2009081400 - SBKP 140000Z 11009KT CAVOK 19/09 Q1022=
2009081501 - SBKP 150100Z 12011KT CAVOK 17/04 Q1019=
2009081502 - SBKP 150200Z 12011KT CAVOK 17/05 Q1019=
2009081503 - SBKP 150300Z 12010KT CAVOK 16/05 Q1019=
2009081504 - SBKP 150400Z 11007KT CAVOK 15/06 Q1019=
2009081505 - SBKP 150500Z 12010KT CAVOK 15/05 Q1019=
2009081506 - SBKP 150600Z 11008KT CAVOK 15/05 Q1018=
2009081507 - SBKP 150700Z 11011KT CAVOK 14/05 Q1018=
2009081508 - SBKP 150800Z 10009KT CAVOK 14/05 Q1018=
2009081509 - SBKP 150900Z 11007KT CAVOK 13/06 Q1019=
2009081510 - SBKP 151000Z 10008KT CAVOK 12/06 Q1019=
2009081511 - SBKP 151100Z 10006KT CAVOK 15/07 Q1020=
2009081512 - SBKP 151200Z 10005KT CAVOK 18/08 Q1021=
2009081513 - SBKP 151300Z 10005KT CAVOK 23/10 Q1021=
2009081514 - SBKP 151400Z 03015KT 9999 FEW040 25/07 Q1021=
2009081515 - SBKP 151500Z 03012KT 9999 FEW040 26/08 Q1020=
2009081516 - SBKP 151600Z 02012KT 9999 FEW040 26/08 Q1019=
2009081517 - SBKP 151700Z 01011KT 9999 FEW040 27/09 Q1018=
2009081518 - SBKP 151800Z 01009KT CAVOK 27/09 Q1017=
2009081519 - SBKP 151900Z 03009KT CAVOK 26/09 Q1017=
2009081520 - SBKP 152000Z 03010KT CAVOK 26/09 Q1017=
2009081521 - SBKP 152100Z 06007KT CAVOK 25/10 Q1017=
2009081522 - SBKP 152200Z 03004KT CAVOK 25/10 Q1018=
2009081523 - SBKP 152300Z 09003KT CAVOK 24/10 Q1018=
2009081600 - SBKP 160000Z 13005KT CAVOK 21/11 Q1018=
2009081601 - SBKP 160100Z 11005KT CAVOK 21/11 Q1018=
2009081602 - SBKP 160200Z 12004KT CAVOK 19/12 Q1018=
2009081603 - SBKP 160300Z 11006KT CAVOK 18/11 Q1018=
2009081604 - SBKP 160400Z 11006KT CAVOK 18/12 Q1018=
2009081605 - SBKP 160500Z 11006KT CAVOK 17/12 Q1018=
2009081606 - SBKP 160600Z 11005KT CAVOK 17/12 Q1018=
2009081607 - SBKP 160700Z 11006KT CAVOK 17/12 Q1018=
2009081608 - SBKP 160800Z 12007KT CAVOK 15/12 Q1018=
2009081609 - SBKP 160900Z 12007KT CAVOK 15/12 Q1019=
2009081610 - SBKP 161000Z 11008KT CAVOK 16/12 Q1019=
2009081611 - SBKP 161100Z 10005KT CAVOK 17/12 Q1020=
2009081612 - SBKP 161200Z 07006KT CAVOK 21/11 Q1021=
2009081613 - SBKP 161300Z 03010KT CAVOK 23/10 Q1021=
2009081614 - SBKP 161400Z 02009KT CAVOK 25/10 Q1021=
2009081615 - SBKP 161500Z 36010KT 9999 FEW040 26/10 Q1020=
2009081616 - SBKP 161600Z 02007KT 9999 FEW040 27/09 Q1019=
2009081617 - SBKP 161700Z 35003KT CAVOK 27/07 Q1018=
2009081618 - SBKP 161800Z 03005KT CAVOK 28/08 Q1018=
2009081619 - SBKP 161900Z 36006KT CAVOK 28/08 Q1017=
2009081620 - SBKP 162000Z 06006KT CAVOK 27/07 Q1017=
2009081621 - SBKP 162100Z 04006KT CAVOK 26/08 Q1017=
2009081622 - SBKP 162200Z 06005KT CAVOK 24/09 Q1018=
2009081623 - SBKP 162300Z 08005KT CAVOK 22/10 Q1018=
2009081700 - SBKP 170000Z 09005KT CAVOK 21/10 Q1018=
2009081701 - SBKP 170100Z 08007KT CAVOK 21/10 Q1018=
2009081702 - SBKP 170200Z 09006KT CAVOK 20/10 Q1018=
2009081703 - SBKP 170300Z 08004KT CAVOK 20/10 Q1018=
2009081704 - SBKP 170400Z 09005KT CAVOK 19/10 Q1018=
2009081705 - SBKP 170500Z 10007KT CAVOK 17/10 Q1017=
2009081706 - SBKP 170600Z 10007KT CAVOK 16/10 Q1017=
2009081707 - SBKP 170700Z 10006KT CAVOK 16/10 Q1016=
2009081708 - SBKP 170800Z 10006KT CAVOK 15/11 Q1016=
2009081709 - SBKP 170900Z 10006KT CAVOK 15/11 Q1016=
2009081710 - SBKP 171000Z 11007KT CAVOK 15/11 Q1017=
2009081711 - SBKP 171100Z 10005KT CAVOK 17/12 Q1017=
2009081712 - SBKP 171200Z 06004KT CAVOK 21/12 Q1018=
2009081713 - SBKP 171300Z 01006KT CAVOK 24/13 Q1019=
2009081714 - SBKP 171400Z 01012KT CAVOK 25/13 Q1017=
2009081715 - SBKP 171500Z 36011KT CAVOK 27/13 Q1017=
2009081716 - SBKP 171600Z 35013KT 9999 FEW030 28/13 Q1016=
2009081717 - SBKP 171700Z 34010KT 9999 FEW030 29/11 Q1015=
2009081718 - SBKP 171800Z 35008KT 9999 FEW035 29/11 Q1015=
2009081719 - SBKP 171900Z 36006KT 9999 SCT035 29/11 Q1015=
2009081720 - SBKP 172000Z 34005KT 9999 SCT040 SCT100 29/11 Q1014=
2009081721 - SBKP 172100Z 35003KT 9999 SCT040 SCT080 27/12 Q1015=
2009081722 - SBKP 172200Z 03004KT 9999 FEW040 SCT080 25/13 Q1015=
2009081723 - SBKP 172300Z 27008KT CAVOK 22/15 Q1017=
2009081800 - SBKP 180000Z 20004KT CAVOK 22/16 Q1017=
2009081801 - SBKP 180100Z 11005KT CAVOK 21/16 Q1017=
2009081802 - SBKP 180200Z 04002KT CAVOK 21/16 Q1017=
2009081803 - SBKP 180300Z 22006KT CAVOK 20/17 Q1017=
2009081804 - SBKP 180400Z 16004KT 9999 -RA SCT045 BKN080 20/17 Q1017=
2009081805 - SBKP 180500Z 21008KT 9000 SCT045 BKN080 19/19 Q1017=
2009081805 - SBKP 180530Z 21008KT 4500 -RA BR SCT045 OVC080 19/10 Q1017=
2009081806 - SBKP 180600Z 20010KT 4500 -RA BR SCT045 OVC080 18/18 Q1017=
2009081807 - SBKP 180700Z 22009KT 8000 -RA FEW010 SCT040 OVC080 18/18 Q1017=
2009081808 - SBKP 180800Z 23004KT 9000 -RA FEW010 SCT040 OVC080 18/18 Q1017=
2009081809 - SBKP 180900Z 29003KT 5000 -RA BR SCT005 SCT040 OVC080 17/17 Q1017=
2009081810 - SBKP 181000Z 07004KT 4500 -RA BR FEW004 BKN040 OVC080 17/17 Q1017=
2009081811 - SBKP 181100Z 08005KT 8000 -RA FEW008 BKN040 BKN080 17/17 Q1017=
2009081812 - SBKP 181200Z 08007KT 9999 BKN040 BKN080 BKN100 18/18 Q1017=
2009081813 - SBKP 181300Z 06008KT 9999 BKN040 BKN080 BKN100 20/20 Q1017=
2009081814 - SBKP 181400Z 07010KT 9999 SCT045 BKN080 BKN100 22/20 Q1016=
2009081815 - SBKP 181500Z 04007KT 9999 SCT045 BKN080 BKN100 24/18 Q1015=
2009081816 - SBKP 181600Z 36008KT 9999 SCT045 BKN100 25/17 Q1015=
2009081817 - SBKP 181700Z 31006KT 9999 FEW030 SCT045 BKN100 25/17 Q1014=
2009081818 - SBKP 181800Z 28006KT 8000 -TSRA SCT030 FEW040CB BKN100 24/18 Q1014=
2009081818 - SBKP 181810Z 25014G36KT 2000 0400SE R15///// R33///// TSRA SCT030 FEW040CB BKN100 19/19 Q1015=
2009081818 - SBKP 181840Z 19009KT 8000 VCSH FEW010 BKN100 OVC150 18/17 Q1015 RETSRA=
2009081819 - SBKP 181900Z VRB01KT 8000 -RA FEW010 BKN100 17/17 Q1015 RETSRA=
2009081820 - SBKP 182000Z 06004KT 9000 FEW020 SCT100 19/19 Q1015=
2009081821 - SBKP 182100Z 36004KT CAVOK 19/19 Q1015=
2009081822 - SBKP 182200Z 30003KT 9999 -RA FEW040 18/18 Q1015=
2009081823 - SBKP 182300Z 02005KT 9999 FEW040 18/18 Q1016=
2009081900 - SBKP 190000Z 01009KT 9999 -RA NSC 18/18 Q1016=
2009081901 - SBKP 190100Z 04005KT 9999 -RA NSC 18/18 Q1016=
2009081902 - SBKP 190200Z 05002KT 9999 -RA NSC 18/18 Q1016=
2009081903 - SBKP 190300Z 04005KT 9999 -RA FEW030 OVC100 18/18 Q1016=
2009081904 - SBKP 190400Z 03006KT 6000 -RA FEW030 OVC100 17/17 Q1016=
2009081905 - SBKP 190500Z 03009KT 6000 -RA FEW005 SCT030 OVC100 17/17 Q1016=
2009081906 - SBKP 190600Z 02006KT 8000 -RA FEW030 OVC100 17/17 Q1016=
2009081906 - SBKP 190620Z 03009KT 4000 RA BR FEW015 OVC100 17/17 Q1016=
2009081907 - SBKP 190700Z 03012KT 6000 -RA FEW015 OVC100 17/17 Q1015 RERA=
2009081908 - SBKP 190800Z 03014KT 9999 -RA SCT010 OVC100 16/16 Q1014=
2009081909 - SBKP 190900Z 01018KT 9999 FEW010 OVC100 16/16 Q1015=
2009081910 - SBKP 191000Z 01013KT 9999 SCT040 BKN100 16/16 Q1014=
2009081911 - SBKP 191100Z 02011KT 9999 SCT040 BKN100 17/17 Q1015=
2009081912 - SBKP 191200Z 01006KT 9999 SCT040 BKN100 17/17 Q1016=
2009081913 - SBKP 191300Z 36014KT 9999 SCT004 SCT040 18/18 Q1016=
2009081914 - SBKP 191400Z 01011KT 9999 FEW004 SCT040 19/19 Q1015=
2009081915 - SBKP 191500Z 01013KT 9999 SCT040 SCT100 20/19 Q1014=
2009081916 - SBKP 191600Z 35011KT 9999 FEW040 SCT100 20/19 Q1014=
2009081917 - SBKP 191700Z 34009KT 9999 SCT035 SCT070 20/19 Q1014=
2009081918 - SBKP 191800Z 35012KT 9999 SCT035 BKN090 20/20 Q1013=
2009081919 - SBKP 191900Z 03017KT 9999 VCSH SCT035 BKN090 19/19 Q1011=
2009081920 - SBKP 192000Z 33008KT 9999 FEW020 SCT100 19/18 Q1014=
2009081921 - SBKP 192100Z 35007KT CAVOK 18/18 Q1014=
2009081922 - SBKP 192200Z 02007KT CAVOK 18/18 Q1014=
2009081923 - SBKP 192300Z 31005KT 9999 FEW020 SCT080 18/17 Q1014=
2009082000 - SBKP 200000Z 02009KT CAVOK 17/17 Q1014=
2009082001 - SBKP 200100Z 35006KT 9999 -RA FEW020 SCT100 16/16 Q1016=
2009082002 - SBKP 200200Z 36008KT 9999 FEW020 SCT100 16/16 Q1016=
2009082003 - SBKP 200300Z 03010KT 9999 FEW020 16/16 Q1016=
2009082004 - SBKP 200400Z 04007KT 9999 -RA FEW020 16/16 Q1016=
2009082005 - SBKP 200500Z 04007KT 9999 -RA FEW020 16/16 Q1015=
2009082006 - SBKP 200600Z 01007KT 9999 FEW010 16/16 Q1015=
2009082007 - SBKP 200700Z 36007KT 9999 -RA FEW010 16/16 Q1015=
2009082008 - SBKP 200800Z 01009KT 9999 -RA FEW008 16/16 Q1014=
2009082009 - SBKP 200900Z 03010KT 9999 FEW008 SCT030 16/16 Q1014=
2009082010 - SBKP 201000Z 36007KT 9999 4000N -RA FEW008 BKN030 17/17 Q1015=
2009082011 - SBKP 201100Z 04007KT 9999 SCT030 SCT100 17/17 Q1016=
2009082012 - SBKP 201200Z 04011KT 9999 FEW010 SCT030 BKN100 18/18 Q1016=
2009082013 - SBKP 201300Z 04011KT 9999 FEW015 BKN080 19/19 Q1016=
2009082014 - SBKP 201400Z 02011KT 9999 SCT011 BKN080 19/19 Q1016=
2009082015 - SBKP 201500Z 03011KT 8000 -RA BKN010 OVC080 19/19 Q1015=
2009082016 - SBKP 201600Z 01009KT 9999 -RA FEW006 SCT015 OVC080 19/19 Q1014=
2009082017 - SBKP 201700Z 03014KT 9999 FEW015 BKN080 20/20 Q1013=
2009082018 - SBKP 201800Z 02012KT 9999 SCT012 BKN080 20/19 Q1012=
2009082019 - SBKP 201900Z 36010KT 9999 SCT012 SCT020 BKN100 19/17 Q1012=
2009082020 - SBKP 202000Z 36011KT 9999 SCT020 BKN100 19/16 Q1012=
2009082021 - SBKP 202100Z 01011KT 9999 BKN015 BKN100 18/16 Q1013=
2009082022 - SBKP 202200Z 36010KT 9999 BKN030 BKN100 18/16 Q1013=
2009082023 - SBKP 202300Z 36008KT 8000 -RA SCT030 OVC100 17/17 Q1013=
2009082100 - SBKP 210000Z 01008KT 9999 -RA FEW010 SCT070 17/17 Q1013=
2009082101 - SBKP 210100Z 36007KT 9999 FEW010 SCT050 17/17 Q1014=
2009082102 - SBKP 210200Z 36006KT 9999 -RA SCT008 BKN080 17/17 Q1014=
2009082103 - SBKP 210300Z 35009KT 9999 BKN006 BKN040 17/17 Q1015=
2009082104 - SBKP 210400Z 35012KT 9999 -RA BKN005 BKN040 17/17 Q1014=
2009082105 - SBKP 210500Z 35013KT 9999 -RA BKN005 BKN040 17/17 Q1014=
2009082106 - SBKP 210600Z 36010KT 6000 -RA BKN004 BKN040 17/16 Q1013=
2009082106 - SBKP 210605Z 24007KT 3000 RA BKN003 BKN040 16/16 Q1014=
2009082106 - SBKP 210629Z 25007KT 6000 -RA BKN002 BKN040 16/16 Q1014 RERA=
2009082107 - SBKP 210700Z 23008KT 9999 -DZ BKN002 16/16 Q1013 RERA=
2009082108 - SBKP 210800Z 22004KT 9999 FEW002 BKN040 16/16 Q1014=
2009082109 - SBKP 210900Z 13003KT 9999 FEW002 BKN020 15/15 Q1015=
2009082110 - SBKP 211000Z 12007KT 9999 SCT020 BKN048 BKN070 15/14 Q1016=
2009082111 - SBKP 211100Z 15013KT 9999 FEW010 SCT020 BKN070 15/13 Q1017=
2009082112 - SBKP 211200Z 15018KT 9999 SCT025 SCT070 16/13 Q1018=
2009082113 - SBKP 211300Z 14017KT 9999 BKN022 17/12 Q1019=
2009082114 - SBKP 211400Z 14015KT 9999 BKN025 16/12 Q1019=
2009082115 - SBKP 211500Z 14011KT 9999 BKN025 17/11 Q1018=
2009082116 - SBKP 211600Z 12016KT 9999 BKN025 16/11 Q1018=
2009082117 - SBKP 211700Z 15013KT 9999 BKN027 17/12 Q1018=
2009082118 - SBKP 211800Z 15014KT 9999 BKN035 16/14 Q1018=
2009082119 - SBKP 211900Z 12014KT 9999 BKN029 16/13 Q1018=
2009082120 - SBKP 212000Z 13017KT 9999 SCT030 15/13 Q1019=
2009082121 - SBKP 212100Z 13013KT 9999 FEW040 14/13 Q1019=
2009082122 - SBKP 212200Z 13012KT CAVOK 13/13 Q1020=
2009082123 - SBKP 212300Z 13010KT CAVOK 12/12 Q1020=
2009082200 - SBKP 220000Z 14013KT CAVOK 12/12 Q1020=
2009082201 - SBKP 220100Z 13010KT CAVOK 11/11 Q1021=
2009082202 - SBKP 220200Z 13009KT CAVOK 11/11 Q1021=
2009082203 - SBKP 220300Z 14008KT CAVOK 11/11 Q1020=
2009082204 - SBKP 220400Z 14010KT CAVOK 11/11 Q1020=
2009082205 - SBKP 220500Z 13009KT CAVOK 10/10 Q1019=
2009082206 - SBKP 220600Z 13009KT CAVOK 10/10 Q1019=
2009082207 - SBKP 220700Z 13008KT CAVOK 10/10 Q1019=
2009082208 - SBKP 220800Z 12008KT CAVOK 10/10 Q1018=
2009082209 - SBKP 220900Z 12011KT CAVOK 10/10 Q1018=
2009082210 - SBKP 221000Z 12011KT CAVOK 11/11 Q1019=
2009082211 - SBKP 221100Z 13012KT CAVOK 13/13 Q1019=
2009082212 - SBKP 221200Z 13016KT CAVOK 14/12 Q1020=
2009082213 - SBKP 221300Z 14017KT CAVOK 16/12 Q1021=
2009082214 - SBKP 221400Z 14011KT CAVOK 18/12 Q1021=
2009082215 - SBKP 221500Z 14013KT CAVOK 19/13 Q1020=
2009082216 - SBKP 221600Z 15014KT CAVOK 19/13 Q1019=
2009082217 - SBKP 221700Z 15013KT CAVOK 20/12 Q1018=
2009082218 - SBKP 221800Z 16015KT 9999 FEW040 SCT100 19/12 Q1018=
2009082219 - SBKP 221900Z 14017KT 9999 FEW040 SCT100 20/12 Q1018=
2009082220 - SBKP 222000Z 12015KT 9999 FEW040 19/13 Q1018=
2009082221 - SBKP 222100Z 12019KT CAVOK 16/13 Q1017=
2009082222 - SBKP 222200Z 12019KT CAVOK 15/14 Q1018=
2009082223 - SBKP 222300Z 12017KT CAVOK 15/15 Q1018=
2009082300 - SBKP 230000Z 12018KT CAVOK 14/14 Q1018=
2009082301 - SBKP 230100Z 11017KT CAVOK 14/14 Q1018=
2009082302 - SBKP 230200Z 11017KT 9999 FEW025 14/14 Q1018=
2009082303 - SBKP 230300Z 11016KT 9999 FEW025 14/14 Q1018=
2009082304 - SBKP 230400Z 10012KT 9999 FEW025 14/14 Q1018=
2009082305 - SBKP 230500Z 09008KT CAVOK 13/13 Q1017=
2009082306 - SBKP 230600Z 11005KT CAVOK 13/13 Q1018=
2009082307 - SBKP 230700Z 12007KT CAVOK 12/12 Q1017=
2009082308 - SBKP 230800Z 12007KT CAVOK 12/12 Q1017=
2009082309 - SBKP 230900Z 12008KT CAVOK 12/12 Q1018=
2009082310 - SBKP 231000Z 12008KT CAVOK 12/12 Q1018=
2009082311 - SBKP 231100Z 12007KT CAVOK 14/14 Q1019=
2009082312 - SBKP 231200Z 11006KT CAVOK 15/15 Q1020=
2009082313 - SBKP 231300Z 02004KT 9999 FEW030 16/16 Q1020=
2009082314 - SBKP 231400Z 08005KT 9999 FEW015 17/16 Q1019=
2009082315 - SBKP 231500Z 24008KT 8000 -RA FEW010 SCT080 17/17 Q1020=
2009082316 - SBKP 231600Z 22003KT 6000 -RA FEW005 SCT080 16/16 Q1019=
2009082316 - SBKP 231642Z 25004KT 4000 -RA BR SCT005 SCT080 16/16 Q1019=
2009082317 - SBKP 231700Z 22003KT 3000 -RA BR SCT005 SCT080 16/16 Q1019=
2009082317 - SBKP 231716Z 27005KT 3000 -RA BR BKN005 16/16 Q1020=
2009082318 - SBKP 231800Z 24003KT 3000 -RA BR BKN005 15/15 Q1019=
2009082319 - SBKP 231900Z 07005KT 3500 -RA BR SCT004 BKN005 OVC100 16/16 Q1018=
2009082320 - SBKP 232000Z 15001KT 4000 -DZ BR SCT007 SCT015 OVC090 16/16 Q1018=
2009082321 - SBKP 232100Z 34003KT 0800 R15/P2000 R33/P2000 DZ BKN004 BKN020 BKN060 16/16 Q1019=
2009082322 - SBKP 232200Z 21002KT 1200 R15/P2000 R33/P2000 -DZ BKN002 BKN060 OVC090 16/16 Q1019 REDZ=
2009082322 - SBKP 232240Z 28004KT 2500 -RA BR OVC006 15/15 Q1020=
2009082323 - SBKP 232300Z 30004KT 2500 -RA BR SCT002 OVC006 15/15 Q1020=
2009082400 - SBKP 240000Z 09004KT 1200 R15/P2000 R33/P2000 -RA BKN002 BKN005 BKN090 15/15 Q1018=
2009082401 - SBKP 240100Z 12003KT 4000 BR SCT004 BKN100 15/15 Q1018=
2009082402 - SBKP 240200Z 17003KT 5000 BR SCT007 BKN100 16/16 Q1019=
2009082402 - SBKP 240246Z 21004KT 5000 0800SW PRFG BR R15/0600 R33/P2000 BKN002 BKN100 15/15 Q1019=
2009082403 - SBKP 240300Z 21003KT 5000 0800SW R15/0600 R33/P2000 PRFG BR BKN002 BKN100 15/15 Q1019=
2009082403 - SBKP 240353Z 02002KT 0200 R15/0400 R33/0500 FG BR BKN001 BKN006 BKN100 15/15 Q1019=
2009082404 - SBKP 240400Z 35001KT 0200 R15/0400 R33/0500 FG BR BKN001 BKN006 15/15 Q1019=
2009082404 - SBKP 240411Z 33002KT 0100 R15/0350 R33/0350 FG VV/// 15/15 Q1019=
2009082405 - SBKP 240500Z 20004KT 0100 R15/0350 R33/0350 FG VV/// 15/15 Q1018=
2009082406 - SBKP 240600Z 15001KT 0000 R15/0350N R33/0350 FG VV/// 15/15 Q1018=
2009082407 - SBKP 240700Z 07003KT 0000 R15/0350N R33/0350 FG VV/// 15/15 Q1017=
2009082408 - SBKP 240800Z 35001KT 0000 R15/0350N R33/0350 FG VV/// 15/15 Q1017=
2009082409 - SBKP 240900Z 11002KT 0000 R15/0350N R33/0350 FG VV/// 15/15 Q1018=
2009082410 - SBKP 241000Z 07004KT 0000 R15/0350 R33/0350 FG VV/// 15/15 Q1018=
2009082411 - SBKP 241100Z 02001KT 0000 R15/M0350 R33/M0350 FG VV/// 15/15 Q1019=
2009082412 - SBKP 241200Z 07002KT 0800 R15/0900 R33/P2000 FG VV/// 15/15 Q1020=
2009082412 - SBKP 241225Z 06003KT 1700 R15/1500 R33/P2000 BR OVC004 16/16 Q1020=
2009082413 - SBKP 241300Z 10002KT 2000 R15/1800 R33/P2000 BR BKN005 16/16 Q1020=
2009082413 - SBKP 241336Z 08003KT 2500 BR FEW005 SCT080 17/17 Q1020=
2009082414 - SBKP 241400Z 06002KT 2500 BR BKN008 SCT080 17/17 Q1020=
2009082414 - SBKP 241430Z 35003KT 2800 BR SCT008 SCT080 OVC100 17/17 Q1020=
2009082415 - SBKP 241500Z 02005KT 7000 2500SE FEW010 SCT080 19/19 Q1019=
2009082416 - SBKP 241600Z 36007KT 9000 FEW030 SCT080 20/20 Q1017=
2009082417 - SBKP 241700Z 32007KT 9999 BKN030 OVC100 20/20 Q1019=
2009082418 - SBKP 241800Z 30006KT 9999 BKN025 OVC100 19/19 Q1019=
2009082419 - SBKP 241900Z 20007KT 3000 BR FEW025 BKN045 18/18 Q1019=
2009082420 - SBKP 242000Z 18007KT 3000 BR FEW006 SCT045 BKN080 18/18 Q1019=
2009082421 - SBKP 242100Z 17005KT 3000 BR BKN030 BKN080 18/18 Q1019=
2009082422 - SBKP 242200Z 12004KT 6000 SCT030 BKN080 17/17 Q1019=
2009082423 - SBKP 242300Z 11004KT 9999 SCT045 BKN070 17/17 Q1020=
2009082500 - SBKP 250000Z 13005KT CAVOK 17/17 Q1020=
2009082501 - SBKP 250100Z 08002KT CAVOK 17/17 Q1021=
2009082502 - SBKP 250200Z 12008KT CAVOK 17/17 Q1020=
2009082503 - SBKP 250300Z 14009KT CAVOK 17/17 Q1021=
2009082504 - SBKP 250400Z 13009KT 9999 FEW048 SCT070 BKN100 16/16 Q1020=
2009082505 - SBKP 250500Z 12007KT 8000 FEW040 BKN070 BKN100 16/16 Q1020=
2009082506 - SBKP 250600Z 13006KT 7000 FEW012 SCT040 BKN070 16/16 Q1020=
2009082507 - SBKP 250700Z 13007KT 7000 SCT045 BKN070 16/16 Q1020=
2009082508 - SBKP 250800Z 16009KT 7000 SCT040 BKN070 16/16 Q1020=
2009082509 - SBKP 250900Z 17006KT 8000 FEW040 SCT070 BKN100 16/16 Q1021=
2009082510 - SBKP 251000Z 13007KT 9000 FEW048 BKN100 15/15 Q1021=
2009082511 - SBKP 251100Z 17004KT 9999 FEW048 BKN070 BKN100 16/16 Q1022=
2009082512 - SBKP 251200Z 13010KT 9999 FEW020 SCT050 BKN100 18/18 Q1023=
2009082513 - SBKP 251300Z 14017KT 9999 SCT020 BKN100 20/18 Q1023=
2009082514 - SBKP 251400Z 13015KT 9999 BKN020 20/17 Q1023=
2009082515 - SBKP 251500Z 14014KT 9999 SCT030 21/16 Q1023=
2009082516 - SBKP 251600Z 14014KT 9999 BKN035 21/17 Q1022=
2009082517 - SBKP 251700Z 13016KT 9999 BKN040 21/17 Q1021=
2009082518 - SBKP 251800Z 14019KT 9999 BKN040 21/17 Q1021=
2009082519 - SBKP 251900Z 13015G25KT 9999 SCT030 20/17 Q1021=
2009082520 - SBKP 252000Z 14015G25KT 9999 SCT030 19/16 Q1022=
2009082521 - SBKP 252100Z 14012G22KT 9999 SCT030 18/16 Q1022=
2009082522 - SBKP 252200Z 14014KT 9999 SCT030 17/16 Q1022=
2009082523 - SBKP 252300Z 15012KT 9999 FEW030 17/16 Q1023=
2009082600 - SBKP 260000Z 14010KT CAVOK 16/16 Q1023=
2009082601 - SBKP 260100Z 14016KT CAVOK 16/16 Q1023=
2009082602 - SBKP 260200Z 13013KT CAVOK 16/16 Q1023=
2009082603 - SBKP 260300Z 16010KT 9999 FEW040 16/16 Q1023=
2009082604 - SBKP 260400Z 16011KT 9999 FEW040 SCT100 16/16 Q1022=
2009082605 - SBKP 260500Z 15006KT CAVOK 15/15 Q1022=
2009082606 - SBKP 260600Z 15004KT CAVOK 15/15 Q1021=
2009082607 - SBKP 260700Z 15004KT CAVOK 14/14 Q1021=
2009082608 - SBKP 260800Z 13007KT CAVOK 15/15 Q1021=
2009082609 - SBKP 260900Z 16002KT 9999 FEW030 15/15 Q1022=
2009082610 - SBKP 261000Z 16005KT 9999 FEW030 15/15 Q1022=
2009082611 - SBKP 261100Z 12010KT 9999 FEW030 17/17 Q1023=
2009082612 - SBKP 261200Z 11016KT 9999 FEW030 18/17 Q1023=
2009082613 - SBKP 261300Z 11013KT 9999 FEW030 20/17 Q1023=
2009082614 - SBKP 261400Z 09011KT 9999 FEW030 22/15 Q1023=
2009082615 - SBKP 261500Z 10011KT 9999 FEW030 23/15 Q1022=
2009082616 - SBKP 261600Z 12011KT 9999 SCT030 24/15 Q1022=
2009082617 - SBKP 261700Z 10007KT 9999 SCT035 24/15 Q1021=
2009082618 - SBKP 261800Z 11009KT 9999 SCT035 25/15 Q1020=
2009082619 - SBKP 261900Z 14015KT 9999 FEW035 25/14 Q1020=
2009082620 - SBKP 262000Z 12011KT 9999 FEW035 23/15 Q1020=
2009082621 - SBKP 262100Z 12009KT 9999 FEW035 SCT080 22/15 Q1021=
2009082622 - SBKP 262200Z 12007KT CAVOK 20/15 Q1021=
2009082623 - SBKP 262300Z 11008KT CAVOK 20/15 Q1021=
2009082700 - SBKP 270000Z 12011KT CAVOK 19/16 Q1022=
2009082701 - SBKP 270100Z 11011KT CAVOK 18/17 Q1022=
2009082702 - SBKP 270200Z 11008KT CAVOK 17/17 Q1022=
2009082703 - SBKP 270300Z 14010KT CAVOK 17/17 Q1023=
2009082704 - SBKP 270400Z 14009KT CAVOK 16/16 Q1022=
2009082705 - SBKP 270500Z 14009KT CAVOK 15/15 Q1022=
2009082706 - SBKP 270600Z 14010KT CAVOK 15/15 Q1022=
2009082707 - SBKP 270700Z 14011KT CAVOK 14/14 Q1021=
2009082708 - SBKP 270800Z 13009KT CAVOK 14/14 Q1022=
2009082709 - SBKP 270900Z 13008KT CAVOK 13/13 Q1022=
2009082710 - SBKP 271000Z 14010KT CAVOK 14/14 Q1023=
2009082711 - SBKP 271100Z 11011KT 9000 FEW009 16/16 Q1023=
2009082712 - SBKP 271200Z 11007KT 9000 NSC 18/16 Q1024=
2009082713 - SBKP 271300Z 10004KT CAVOK 21/16 Q1025=
2009082714 - SBKP 271400Z 32002KT 9999 FEW025 23/15 Q1024=
2009082715 - SBKP 271500Z 26002KT 9999 SCT025 23/15 Q1024=
2009082716 - SBKP 271600Z 17003KT 9999 SCT030 25/14 Q1023=
2009082717 - SBKP 271700Z 04002KT 9999 BKN035 25/13 Q1022=
2009082718 - SBKP 271800Z 15004KT 9999 BKN035 26/12 Q1021=
2009082719 - SBKP 271900Z 17003KT 9999 SCT035 27/12 Q1020=
2009082720 - SBKP 272000Z 24004KT 9999 SCT035 26/11 Q1021=
2009082721 - SBKP 272100Z 23005KT 9999 FEW035 24/13 Q1021=
2009082722 - SBKP 272200Z 20005KT CAVOK 23/13 Q1021=
2009082723 - SBKP 272300Z 12010KT CAVOK 20/14 Q1022=
2009082800 - SBKP 280000Z 12010KT CAVOK 19/15 Q1022=
2009082801 - SBKP 280100Z 12010KT CAVOK 18/15 Q1022=
2009082802 - SBKP 280200Z 12011KT CAVOK 18/16 Q1022=
2009082803 - SBKP 280300Z 12010KT CAVOK 17/17 Q1022=
2009082804 - SBKP 280400Z 14011KT CAVOK 16/16 Q1022=
2009082805 - SBKP 280500Z 13011KT CAVOK 16/16 Q1022=
2009082806 - SBKP 280600Z 13011KT CAVOK 16/16 Q1021=
2009082807 - SBKP 280700Z 13009KT CAVOK 15/15 Q1021=
2009082808 - SBKP 280800Z 14008KT CAVOK 15/15 Q1022=
2009082809 - SBKP 280900Z 13009KT CAVOK 15/15 Q1022=
2009082809 - SBKP 280915Z 13009KT 3500 BR NSC 15/15 Q1022=
2009082810 - SBKP 281000Z 12008KT 3500 BR NSC 15/15 Q1023=
2009082811 - SBKP 281100Z 10008KT 6000 NSC 18/16 Q1023=
2009082812 - SBKP 281200Z 10008KT 8000 NSC 21/16 Q1024=
2009082813 - SBKP 281300Z 06002KT 9999 FEW030 23/15 Q1024=
2009082814 - SBKP 281400Z 36004KT 9999 SCT030 24/15 Q1023=
2009082815 - SBKP 281500Z 17005KT 9999 SCT035 25/12 Q1023=
2009082816 - SBKP 281600Z 27003KT 9999 SCT035 26/11 Q1022=
2009082817 - SBKP 281700Z 14003KT 9999 SCT035 26/10 Q1021=
2009082818 - SBKP 281800Z 23005KT 9999 SCT035 27/10 Q1020=
2009082819 - SBKP 281900Z 20006KT 9999 SCT035 27/10 Q1020=
2009082820 - SBKP 282000Z 15005KT 9999 FEW040 27/09 Q1020=
2009082821 - SBKP 282100Z 22007KT CAVOK 25/11 Q1020=
2009082822 - SBKP 282200Z 19005KT CAVOK 23/10 Q1020=
2009082823 - SBKP 282300Z 12004KT CAVOK 20/12 Q1021=
2009082900 - SBKP 290000Z 13009KT CAVOK 19/11 Q1022=
2009082901 - SBKP 290100Z 14007KT CAVOK 19/11 Q1022=
2009082902 - SBKP 290200Z 13012KT CAVOK 18/11 Q1023=
2009082903 - SBKP 290300Z 12012KT CAVOK 17/11 Q1022=
2009082904 - SBKP 290400Z 11013KT CAVOK 16/10 Q1022=
2009082905 - SBKP 290500Z 12014KT CAVOK 16/10 Q1022=
2009082906 - SBKP 290600Z 12013KT CAVOK 15/09 Q1021=
2009082907 - SBKP 290700Z 12014KT CAVOK 15/09 Q1021=
2009082908 - SBKP 290800Z 11012KT CAVOK 15/09 Q1021=
2009082909 - SBKP 290900Z 11004KT CAVOK 15/09 Q1022=
2009082910 - SBKP 291000Z 11006KT CAVOK 15/09 Q1022=
2009082911 - SBKP 291100Z 13010KT CAVOK 18/10 Q1023=
2009082912 - SBKP 291200Z 10007KT CAVOK 20/10 Q1023=
2009082913 - SBKP 291300Z 06003KT CAVOK 24/11 Q1023=
2009082914 - SBKP 291400Z 01005KT CAVOK 25/12 Q1023=
2009082915 - SBKP 291500Z 34003KT CAVOK 26/12 Q1023=
2009082916 - SBKP 291600Z 31003KT CAVOK 27/11 Q1021=
2009082917 - SBKP 291700Z 16003KT CAVOK 28/10 Q1020=
2009082918 - SBKP 291800Z 15004KT CAVOK 29/10 Q1019=
2009082919 - SBKP 291900Z 12005KT CAVOK 29/08 Q1019=
2009082920 - SBKP 292000Z 14006KT CAVOK 29/07 Q1019=
2009082921 - SBKP 292100Z 13010KT CAVOK 26/08 Q1020=
2009082922 - SBKP 292200Z 12006KT CAVOK 22/09 Q1020=
2009082923 - SBKP 292300Z 12008KT CAVOK 20/10 Q1021=
2009083000 - SBKP 300000Z 12008KT CAVOK 21/09 Q1021=
2009083001 - SBKP 300100Z 13012KT CAVOK 18/11 Q1021=
2009083002 - SBKP 300200Z 12013KT CAVOK 19/11 Q1021=
2009083003 - SBKP 300300Z 12014KT CAVOK 19/12 Q1021=
2009083004 - SBKP 300400Z 12016KT CAVOK 18/12 Q1020=
2009083005 - SBKP 300500Z 12015KT CAVOK 17/12 Q1020=
2009083006 - SBKP 300600Z 09007KT CAVOK 16/12 Q1020=
2009083007 - SBKP 300700Z 11011KT CAVOK 16/12 Q1020=
2009083008 - SBKP 300800Z 11011KT CAVOK 15/12 Q1020=
2009083009 - SBKP 300900Z 11010KT CAVOK 15/12 Q1021=
2009083010 - SBKP 301000Z 11009KT CAVOK 15/12 Q1021=
2009083011 - SBKP 301100Z 11008KT 8000 NSC 17/12 Q1022=
2009083012 - SBKP 301200Z 11005KT 8000 NSC 20/12 Q1022=
2009083013 - SBKP 301300Z 09004KT 8000 NSC 23/12 Q1023=
2009083014 - SBKP 301400Z 36004KT 8000 NSC 25/11 Q1023=
2009083015 - SBKP 301500Z 10001KT CAVOK 27/09 Q1022=
2009083016 - SBKP 301600Z 24001KT CAVOK 29/08 Q1021=
2009083017 - SBKP 301700Z 34004KT CAVOK 29/07 Q1020=
2009083018 - SBKP 301800Z 34003KT CAVOK 30/07 Q1019=
2009083019 - SBKP 301900Z 20006KT CAVOK 29/08 Q1019=
2009083020 - SBKP 302000Z 21006KT CAVOK 29/08 Q1019=
2009083021 - SBKP 302100Z 20004KT CAVOK 28/08 Q1019=
2009083022 - SBKP 302200Z 12007KT CAVOK 24/09 Q1019=
2009083023 - SBKP 302300Z 11008KT CAVOK 22/09 Q1019=
2009083100 - SBKP 310000Z 12012KT CAVOK 21/09 Q1019=
2009083101 - SBKP 310100Z 11011KT CAVOK 20/09 Q1019=
2009083102 - SBKP 310200Z 12013KT CAVOK 19/09 Q1019=
2009083103 - SBKP 310300Z 12013KT CAVOK 18/10 Q1019=
2009083104 - SBKP 310400Z 12012KT CAVOK 18/10 Q1019=
2009083105 - SBKP 310500Z 11009KT CAVOK 18/10 Q1019=
2009083106 - SBKP 310600Z 12010KT CAVOK 16/10 Q1019=
2009083107 - SBKP 310700Z 11007KT CAVOK 16/11 Q1018=
2009083108 - SBKP 310800Z 11007KT CAVOK 15/11 Q1019=
2009083109 - SBKP 310900Z 12007KT CAVOK 13/11 Q1019=
2009083110 - SBKP 311000Z 12005KT CAVOK 14/11 Q1020=
2009083111 - SBKP 311100Z 10006KT 6000 NSC 17/11 Q1020=
2009083112 - SBKP 311200Z 07002KT 6000 NSC 21/10 Q1021=
2009083113 - SBKP 311300Z 03004KT 8000 NSC 23/11 Q1021=
2009083114 - SBKP 311400Z 01011KT CAVOK 25/10 Q1020=
2009083115 - SBKP 311500Z 01007KT CAVOK 27/11 Q1020=
2009083116 - SBKP 311600Z 33009KT CAVOK 28/08 Q1019=
2009083117 - SBKP 311700Z 35009KT CAVOK 29/08 Q1017=
2009083118 - SBKP 311800Z 33004KT CAVOK 29/07 Q1017=
2009083119 - SBKP 311900Z 35006KT CAVOK 29/07 Q1016=
2009083120 - SBKP 312000Z 32004KT CAVOK 29/07 Q1017=
2009083121 - SBKP 312100Z 03002KT CAVOK 27/08 Q1017=
2009083122 - SBKP 312200Z 08002KT CAVOK 25/09 Q1017=
2009083123 - SBKP 312300Z 21003KT CAVOK 24/12 Q1018=
2009090100 - SBKP 010000Z 15004KT CAVOK 23/09 Q1018=
2009090101 - SBKP 010100Z 13006KT CAVOK 20/11 Q1018=
2009090102 - SBKP 010200Z 13008KT CAVOK 19/11 Q1018=
2009090103 - SBKP 010300Z 10007KT CAVOK 19/11 Q1018=
2009090104 - SBKP 010400Z 11007KT CAVOK 18/11 Q1018=
2009090105 - SBKP 010500Z 10007KT CAVOK 18/11 Q1018=
2009090106 - SBKP 010600Z 10006KT CAVOK 17/12 Q1017=
2009090107 - SBKP 010700Z 10007KT CAVOK 16/12 Q1017=
2009090108 - SBKP 010800Z 10007KT CAVOK 16/12 Q1017=
2009090109 - SBKP 010900Z 12007KT CAVOK 16/13 Q1018=
2009090110 - SBKP 011000Z 10007KT CAVOK 16/13 Q1019=
2009090111 - SBKP 011100Z 09005KT CAVOK 19/14 Q1020=
2009090112 - SBKP 011200Z 05004KT 9999 FEW040 23/14 Q1020=
2009090113 - SBKP 011300Z 01009KT 9999 FEW040 26/13 Q1020=
2009090114 - SBKP 011400Z 34007KT 9999 FEW040 27/14 Q1020=
2009090115 - SBKP 011500Z 33005KT CAVOK 29/11 Q1019=
2009090116 - SBKP 011600Z 24002KT 9999 FEW040 30/10 Q1018=
2009090117 - SBKP 011700Z 30007KT 9999 FEW040 30/10 Q1017=
2009090118 - SBKP 011800Z 29004KT 9999 FEW040 31/10 Q1016=
2009090119 - SBKP 011900Z 25008KT 9999 FEW045 31/10 Q1016=
2009090120 - SBKP 012000Z 23008KT 9999 FEW045 30/10 Q1016=
2009090121 - SBKP 012100Z 24005KT 9999 FEW045 29/10 Q1017=
2009090122 - SBKP 012200Z 20004KT CAVOK 27/11 Q1018=
2009090123 - SBKP 012300Z 12007KT 9999 FEW040 24/12 Q1018=
2009090200 - SBKP 020000Z 11008KT 9999 FEW040 SCT100 24/11 Q1019=
2009090201 - SBKP 020100Z 11009KT 9999 FEW040 SCT100 23/11 Q1019=
2009090202 - SBKP 020200Z 11009KT 9999 FEW040 SCT100 22/11 Q1019=
2009090203 - SBKP 020300Z 10008KT CAVOK 21/12 Q1018=
2009090204 - SBKP 020400Z 05003KT CAVOK 20/12 Q1018=
2009090205 - SBKP 020500Z 14004KT CAVOK 20/13 Q1018=
2009090206 - SBKP 020600Z 10007KT CAVOK 19/13 Q1018=
2009090207 - SBKP 020700Z 10009KT CAVOK 19/13 Q1018=
2009090208 - SBKP 020800Z 11010KT CAVOK 18/12 Q1018=
2009090209 - SBKP 020900Z 10009KT CAVOK 18/13 Q1018=
2009090210 - SBKP 021000Z 10008KT CAVOK 18/13 Q1019=
2009090211 - SBKP 021100Z 10005KT 9000 FEW040 21/13 Q1019=
2009090212 - SBKP 021200Z 05003KT 9000 FEW040 24/13 Q1019=
2009090213 - SBKP 021300Z 02004KT CAVOK 27/12 Q1019=
2009090214 - SBKP 021400Z 35008KT CAVOK 30/10 Q1019=
2009090215 - SBKP 021500Z 36007KT 9999 FEW035 31/12 Q1018=
2009090216 - SBKP 021600Z 30007KT 9999 FEW035 31/11 Q1017=
2009090217 - SBKP 021700Z 33005KT CAVOK 32/11 Q1017=
2009090218 - SBKP 021800Z 32007KT 9999 FEW040 32/12 Q1015=
2009090219 - SBKP 021900Z 33004KT 9999 FEW040 32/10 Q1015=
2009090220 - SBKP 022000Z 26002KT 9999 FEW040 32/10 Q1015=
2009090221 - SBKP 022100Z 31001KT 9999 FEW040 30/10 Q1015=
2009090222 - SBKP 022200Z 11004KT 9999 FEW040 28/12 Q1016=
2009090223 - SBKP 022300Z 11006KT CAVOK 26/13 Q1017=
2009090300 - SBKP 030000Z 11007KT CAVOK 25/13 Q1017=
2009090301 - SBKP 030100Z 11008KT CAVOK 23/14 Q1018=
2009090302 - SBKP 030200Z 11009KT CAVOK 23/14 Q1018=
2009090303 - SBKP 030300Z 11009KT CAVOK 22/14 Q1017=
2009090304 - SBKP 030400Z 09007KT CAVOK 21/13 Q1017=
2009090305 - SBKP 030500Z 11009KT CAVOK 20/14 Q1016=
2009090306 - SBKP 030600Z 11006KT CAVOK 20/13 Q1015=
2009090307 - SBKP 030700Z 10007KT CAVOK 19/13 Q1015=
2009090308 - SBKP 030800Z 10005KT CAVOK 19/13 Q1016=
2009090309 - SBKP 030900Z 11006KT CAVOK 18/13 Q1016=
2009090310 - SBKP 031000Z 11007KT CAVOK 19/13 Q1017=
2009090311 - SBKP 031100Z 11006KT 9000 FEW040 SCT070 21/13 Q1017=
2009090312 - SBKP 031200Z 10006KT 9000 FEW040 23/14 Q1018=
2009090313 - SBKP 031300Z 04007KT 9999 FEW040 28/14 Q1017=
2009090314 - SBKP 031400Z 36008KT 9999 FEW040 SCT080 30/14 Q1018=
2009090315 - SBKP 031500Z 34011KT 9999 FEW040 BKN080 31/15 Q1017=
2009090316 - SBKP 031600Z 34013KT 9999 FEW040 BKN080 31/15 Q1016=
2009090317 - SBKP 031700Z 33010KT 9999 FEW040 32/16 Q1015=
2009090318 - SBKP 031800Z 31008KT 9999 SCT040 SCT080 31/16 Q1014=
2009090318 - SBKP 031815Z 34014G34KT 9999 4000E -TSRA SCT040 FEW045CB SCT080 29/18 Q1013=
2009090319 - SBKP 031900Z 07005KT 9999 VCSH SCT040 FEW045TCU SCT080 29/19 Q1013 RETS=
2009090319 - SBKP 031940Z 30014G40KT 9999 4000SW PO SCT008 SCT040 FEW045TCU 23/19 Q1014=
2009090320 - SBKP 032000Z 22027G38KT 9000 SCT011 SCT040 FEW045TCU 21/20 Q1016=
2009090320 - SBKP 032005Z 22024G34KT 4000 +RA BR BKN006 SCT040 FEW045TCU OVC080 20/20 Q1016=
2009090320 - SBKP 032030Z 20017G27KT 5000 -RA BR BKN008 SCT040 OVC080 20/20 Q1016 RERA=
2009090321 - SBKP 032100Z 21012KT 5000 -RA BR BKN008 OVC070 20/20 Q1018 RERA=
2009090321 - SBKP 032135Z 21006KT 9000 -RA SCT008 SCT020 OVC070 20/20 Q1017=
2009090322 - SBKP 032200Z 18005KT 6000 -RA SCT008 SCT020 OVC070 20/20 Q1017=
2009090323 - SBKP 032300Z 11005KT 9999 FEW020 BKN070 20/20 Q1017=
2009090400 - SBKP 040000Z 11009KT 9999 FEW020 BKN100 20/20 Q1017=
2009090401 - SBKP 040100Z 11005KT CAVOK 20/20 Q1017=
2009090402 - SBKP 040200Z 08005KT CAVOK 19/19 Q1017=
2009090403 - SBKP 040300Z 09003KT CAVOK 19/19 Q1017=
2009090404 - SBKP 040400Z 27014G29KT 3000 +TSRA SCT007 BKN020 BKN040CB 20/20Q1018=
2009090404 - SBKP 040435Z 10006KT 5000 TSRA SCT015 SCT040CB BKN100 19/19 Q1016 RERA=
2009090405 - SBKP 040500Z 12007KT 6000 TSRA SCT020 SCT040CB BKN100 19/19 Q1016 RERA=
2009090405 - SBKP 040520Z 12007KT 8000 -TSRA FEW030 FEW040CB BKN070 19/19 Q1015 RERA=
2009090405 - SBKP 040540Z 25010KT 1500 R15/0600 R33/1200 +TSRA SCT008 SCT040CB BKN070 19/19 Q1017=
2009090406 - SBKP 040600Z 26006KT 3000 +TSRA BKN007 SCT040CB BKN070 18/18 Q1016=
2009090406 - SBKP 040620Z 23002KT 5000 TSRA SCT007 SCT040 SCT050CB BKN070 18/18 Q1017 RERA=
2009090407 - SBKP 040700Z 05005KT 5000 TSRA SCT007 SCT030 SCT050 BKN070 19/19 Q1015 RERA=
2009090407 - SBKP 040730Z 08006KT 5000 -RA SCT001 SCT030 BKN070 19/19 Q1015 RETSRA=
2009090408 - SBKP 040800Z 06004KT 8000 SCT001 SCT030 BKN090 19/19 Q1016 RETSRA=
2009090409 - SBKP 040900Z 05003KT 8000 SCT030 BKN090 19/19 Q1016=
2009090410 - SBKP 041000Z 09003KT 6000 FEW045 BKN090 19/19 Q1017=
2009090411 - SBKP 041100Z 22010KT 3000 BR BKN001 BKN090 19/19 Q1019=
2009090411 - SBKP 041115Z 22014KT 2200 BR BKN003 BKN090 20/20 Q1019=
2009090411 - SBKP 041130Z 22014KT 1500 R15/1500 R33/P2000 -RA BR BKN003 OVC080 19/19 Q1020=
2009090412 - SBKP 041200Z 23008KT 2500 -RA BR BKN004 OVC075 19/19 Q1020=
2009090412 - SBKP 041220Z 22005KT 5000 BR SCT006 BKN040 OVC075 20/20 Q1020=
2009090413 - SBKP 041300Z 22003KT 5000 -RA BR FEW006 BKN040 OVC075 19/19 Q1020=
2009090414 - SBKP 041400Z 06004KT 9999 VCSH FEW010 SCT040 OVC070 20/20 Q1020=
2009090414 - SBKP 041420Z 32004KT 2500 RA BR FEW010 OVC070 20/20 Q1020=
2009090415 - SBKP 041500Z 31005KT 7000 -RA FEW010 OVC070 19/19 Q1020 RERA=
2009090416 - Mensagem METAR de 'SBKP' para 04/09/2009 as 16(UTC) não localizada na base de dados da REDEMET
2009090417 - SBKP 041700Z 35007KT 9999 FEW015 SCT080 21/21 Q1018=
2009090418 - SBKP 041800Z 30004KT 9999 SCT015 SCT085 22/22 Q1018=
2009090419 - SBKP 041900Z 27006KT 9999 SCT015 BKN100 22/22 Q1017=
2009090420 - SBKP 042000Z 02008KT 9999 FEW015 BKN100 22/21 Q1015=
2009090421 - SBKP 042100Z 36008KT CAVOK 21/21 Q1015=
2009090422 - SBKP 042200Z 05001KT CAVOK 20/20 Q1016=
2009090423 - SBKP 042300Z 13003KT CAVOK 20/20 Q1016=
2009090500 - SBKP 050000Z 10004KT CAVOK 19/19 Q1017=
2009090501 - SBKP 050100Z 10005KT CAVOK 18/18 Q1017=
2009090502 - SBKP 050200Z 10004KT CAVOK 18/18 Q1017=
2009090503 - SBKP 050300Z 11004KT CAVOK 18/18 Q1018=
2009090504 - SBKP 050400Z 10005KT CAVOK 18/18 Q1018=
2009090505 - SBKP 050500Z 12004KT CAVOK 18/18 Q1018=
2009090506 - SBKP 050600Z 15001KT 9999 SCT020 SCT100 18/18 Q1018=
2009090507 - SBKP 050700Z 08004KT 9999 SCT020 SCT045 BKN100 18/18 Q1017=
2009090508 - SBKP 050800Z 03003KT 9999 SCT025 SCT045 BKN100 18/18 Q1017=
2009090509 - SBKP 050900Z 05003KT 8000 BKN035 BKN050 BKN100 19/19 Q1017=
2009090510 - SBKP 051000Z 10004KT 5000 BR BKN030 SCT050 BKN100 18/18 Q1018=
2009090511 - SBKP 051100Z 08004KT 5000 BR FEW020 SCT100 20/20 Q1018=
2009090512 - SBKP 051200Z 05004KT 6000 FEW025 SCT100 22/22 Q1019=
2009090513 - SBKP 051300Z 03003KT 9000 SCT020 SCT100 23/21 Q1019=
2009090514 - SBKP 051400Z 33004KT 9999 SCT030 SCT100 24/21 Q1019=
2009090515 - SBKP 051500Z 34004KT 9999 SCT030 SCT100 25/20 Q1018=
2009090516 - SBKP 051600Z 27003KT 9999 SCT030 BKN100 25/20 Q1018=
2009090517 - SBKP 051700Z 18002KT 9999 SCT030 SCT100 26/21 Q1017=
2009090518 - SBKP 051800Z 26003KT 9999 FEW035 SCT100 26/20 Q1017=
2009090519 - SBKP 051900Z 24003KT 9999 SCT035 SCT100 26/20 Q1017=
2009090520 - SBKP 052000Z 21004KT 9999 SCT045 SCT100 26/20 Q1017=
2009090521 - SBKP 052100Z 14004KT 9999 FEW045 SCT100 25/20 Q1017=
2009090522 - SBKP 052200Z 15004KT 9000 NSC 24/21 Q1018=
2009090523 - SBKP 052300Z 12005KT 9000 SCT054 SCT100 22/22 Q1018=
2009090600 - SBKP 060000Z 12009KT 9000 BKN045 22/22 Q1019=
2009090601 - SBKP 060100Z 11010KT 7000 BKN045 21/21 Q1018=
2009090602 - SBKP 060200Z 11009KT 5000 BR NSC 20/20 Q1018=
2009090603 - SBKP 060300Z 11009KT 3500 BR NSC 20/20 Q1018=
2009090604 - SBKP 060400Z 12008KT 4000 BR NSC 20/20 Q1018=
2009090605 - SBKP 060500Z 11006KT 4000 BR NSC 19/19 Q1017=
2009090606 - SBKP 060600Z 12007KT 5000 BR NSC 19/19 Q1016=
2009090607 - SBKP 060700Z 14007KT 6000 NSC 19/19 Q1016=
2009090608 - SBKP 060800Z 12009KT 8000 NSC 19/19 Q1016=
2009090608 - SBKP 060840Z 10006KT 8000 TS FEW040CB BKN075 19/19 Q1017=
2009090609 - SBKP 060900Z 10005KT 7000 TS FEW040CB BKN060 OVC080 19/19 Q1017=
2009090610 - SBKP 061000Z 02005KT 4000 -TSRA BR FEW010 SCT030 FEW040CB OVC080 20/20 Q1018=
2009090611 - SBKP 061100Z 06006KT 7000 TS FEW015 SCT035 FEW045CB OVC085 20/20 Q1018=
2009090612 - SBKP 061200Z 08002KT 9999 SCT025 SCT040 OVC085 20/19 Q1019 RETS=
2009090613 - SBKP 061300Z 30003KT 9999 TS VCSH BKN020 FEW045CB OVC085 21/20 Q1019=
2009090613 - SBKP 061315Z 22012KT 2000 +TSRA BKN015 FEW045CB OVC085 20/20 Q1019=
2009090614 - SBKP 061400Z 32007KT 1800 R15/P2000 R33/P2000 TSRA BR BKN009 FEW045CB OVC085 19/19 Q1019 RERA=
2009090614 - SBKP 061435Z 32003KT 3000 -RA BR BKN007 OVC085 19/19 Q1019 RETSRA=
2009090615 - SBKP 061500Z 36002KT 3000 -RA BR BKN007 OVC080 19/19 Q1019 RETSRA=
2009090615 - SBKP 061530Z 20004KT 5000 BR FEW009 BKN050 OVC080 19/19 Q1018=
2009090616 - SBKP 061600Z 33003KT 2000 RA BR SCT010 BKN050 OVC080 19/19 Q1019=
2009090617 - SBKP 061700Z 06004KT 2500 RA BR FEW010 SCT035 OVC080 19/19 Q1017=
2009090617 - SBKP 061720Z 06005KT 3000 -RA BR FEW010 SCT035 OVC080 19/19 Q1017 RERA=
2009090618 - SBKP 061800Z 06007KT 5000 -RA BR FEW010 SCT040 OVC080 19/19 Q1016 RERA=
2009090619 - SBKP 061900Z 07006KT 8000 SCT040 OVC100 19/19 Q1016=
2009090620 - SBKP 062000Z 05003KT 8000 SCT040 OVC080 20/20 Q1016=
2009090621 - SBKP 062100Z 06004KT 9000 FEW045 BKN080 19/19 Q1016=
2009090622 - SBKP 062200Z 03004KT 9999 FEW045 BKN080 19/19 Q1015=
2009090623 - SBKP 062300Z 02004KT CAVOK 19/19 Q1016=
2009090700 - SBKP 070000Z 14004KT CAVOK 19/19 Q1016=
2009090701 - SBKP 070100Z 11004KT CAVOK 18/18 Q1016=
2009090702 - SBKP 070200Z 06003KT CAVOK 18/18 Q1016=
2009090703 - SBKP 070300Z 30002KT CAVOK 18/18 Q1017=
2009090704 - SBKP 070400Z 35003KT CAVOK 18/18 Q1016=
2009090705 - SBKP 070500Z 03003KT CAVOK 18/18 Q1015=
2009090706 - SBKP 070600Z 36005KT CAVOK 18/18 Q1015=
2009090707 - SBKP 070700Z 04004KT CAVOK 17/17 Q1014=
2009090708 - SBKP 070800Z 03005KT CAVOK 17/17 Q1014=
2009090709 - SBKP 070900Z 04007KT CAVOK 17/17 Q1014=
2009090710 - SBKP 071000Z 04005KT CAVOK 18/18 Q1014=
2009090711 - SBKP 071100Z 36005KT CAVOK 19/19 Q1015=
2009090712 - SBKP 071200Z 36006KT CAVOK 21/20 Q1016=
2009090713 - SBKP 071300Z 36008KT CAVOK 23/19 Q1016=
2009090714 - SBKP 071400Z 35008KT CAVOK 25/18 Q1015=
2009090715 - SBKP 071500Z 35009KT CAVOK 26/17 Q1014=
2009090716 - SBKP 071600Z 34009KT CAVOK 28/18 Q1014=
2009090717 - SBKP 071700Z 35007KT CAVOK 28/18 Q1013=
2009090718 - SBKP 071800Z 33009KT 9999 FEW030 29/18 Q1012=
2009090719 - SBKP 071900Z 33009KT 9999 FEW030 30/17 Q1012=
2009090720 - SBKP 072000Z 33009KT 9999 FEW040 29/16 Q1012=
2009090721 - SBKP 072100Z 34006KT CAVOK 27/17 Q1012=
2009090722 - SBKP 072200Z 03004KT CAVOK 26/17 Q1012=
2009090723 - SBKP 072300Z 03005KT CAVOK 26/18 Q1012=
2009090700 - SBKP 070000Z 14004KT CAVOK 19/19 Q1016=
2009090701 - SBKP 070100Z 11004KT CAVOK 18/18 Q1016=
2009090702 - SBKP 070200Z 06003KT CAVOK 18/18 Q1016=
2009090703 - SBKP 070300Z 30002KT CAVOK 18/18 Q1017=
2009090704 - SBKP 070400Z 35003KT CAVOK 18/18 Q1016=
2009090705 - SBKP 070500Z 03003KT CAVOK 18/18 Q1015=
2009090706 - SBKP 070600Z 36005KT CAVOK 18/18 Q1015=
2009090707 - SBKP 070700Z 04004KT CAVOK 17/17 Q1014=
2009090708 - SBKP 070800Z 03005KT CAVOK 17/17 Q1014=
2009090709 - SBKP 070900Z 04007KT CAVOK 17/17 Q1014=
2009090710 - SBKP 071000Z 04005KT CAVOK 18/18 Q1014=
2009090711 - SBKP 071100Z 36005KT CAVOK 19/19 Q1015=
2009090712 - SBKP 071200Z 36006KT CAVOK 21/20 Q1016=
2009090713 - SBKP 071300Z 36008KT CAVOK 23/19 Q1016=
2009090714 - SBKP 071400Z 35008KT CAVOK 25/18 Q1015=
2009090715 - SBKP 071500Z 35009KT CAVOK 26/17 Q1014=
2009090716 - SBKP 071600Z 34009KT CAVOK 28/18 Q1014=
2009090717 - SBKP 071700Z 35007KT CAVOK 28/18 Q1013=
2009090718 - SBKP 071800Z 33009KT 9999 FEW030 29/18 Q1012=
2009090719 - SBKP 071900Z 33009KT 9999 FEW030 30/17 Q1012=
2009090720 - SBKP 072000Z 33009KT 9999 FEW040 29/16 Q1012=
2009090721 - SBKP 072100Z 34006KT CAVOK 27/17 Q1012=
2009090722 - SBKP 072200Z 03004KT CAVOK 26/17 Q1012=
2009090723 - SBKP 072300Z 03005KT CAVOK 26/18 Q1012=
2009090800 - SBKP 080000Z 06004KT CAVOK 25/17 Q1013=
2009090901 - SBKP 090100Z 14009KT 3000 TSRA BR SCT010 SCT020 FEW040CB 20/20 Q1016=
2009090901 - SBKP 090122Z 07008KT 9999 TS VCSH FEW010 SCT020 FEW040CB 19/19 Q1016 RERA=
2009090902 - SBKP 090200Z 08006KT 9999 -TSRA FEW010 SCT020 FEW040CB 19/19 Q1016=
2009090903 - SBKP 090300Z 12007KT 9999 -TSRA SCT030 SCT040CB BKN090 19/19 Q1015=
2009090904 - SBKP 090400Z 28006KT 9999 TS FEW015 SCT030 FEW040CB BKN090 19/19 Q1018=
2009090904 - SBKP 090414Z 06008KT 9000 +TSRA FEW015 SCT030 FEW040CB BKN090 19/19 Q1017=
2009090905 - SBKP 090500Z 10008KT 9999 -TSRA SCT030 FEW040CB BKN090 19/19 Q1016RERA=
2009090905 - SBKP 090540Z 09007KT 9999 SCT030 BKN090 19/19 Q1016 RETS=
2009090906 - SBKP 090600Z 08008KT 9999 SCT030 BKN090 19/19 Q1016 RETS=
2009090907 - SBKP 090700Z 09008KT 9999 FEW030 BKN090 19/19 Q1016=
2009090908 - SBKP 090800Z 14007KT 9999 FEW030 BKN090 19/19 Q1016=
2009090909 - SBKP 090900Z 35008KT 9999 -TSRA FEW030 FEW040CB BKN090 19/19 Q1018=
2009090909 - SBKP 090925Z 33007KT 9999 TSRA FEW030 FEW040CB BKN090 19/19 Q1020=
2009090910 - SBKP 091000Z 05013KT 6000 TSRA FEW010 SCT030 FEW045CB OVC100 18/18 Q1020=
2009090910 - SBKP 091030Z 05008KT 4000 RA BR FEW005 SCT030 OVC070 19/19 Q1020 RETS=
2009090911 - SBKP 091100Z 05012KT 8000 -RA FEW005 SCT020 OVC070 19/19 Q1020 RETSRA=
2009090912 - SBKP 091200Z 07008KT 9000 -RA FEW005 SCT020 OVC070 19/19 Q1020=
2009090913 - SBKP 091300Z 04005KT 5000 2300N RA BR SCT020 OV070 19/19 Q1020=
2009090913 - SBKP 091310Z 05008KT 4000 RA BR SCT020 OVC070 19/19 Q1020=
2009090913 - SBKP 091325Z 05009KT 8000 -RA SCT020 OVC070 20/20 Q1020 RERA=
2009090914 - SBKP 091400Z 04008KT 9999 SCT030 OVC070 20/20 Q1020 RERA=
2009090915 - SBKP 091500Z 01004KT 5000 -RA BR SCT030 OVC070 20/20 Q1020=
2009090916 - SBKP 091600Z 35006KT 5000 -RA BR SCT030 OVC070 20/20 Q1020=
2009090917 - SBKP 091700Z 06007KT 9999 FEW015 OVC070 20/20 Q1018=
2009090918 - SBKP 091800Z 02005KT CAVOK 22/22 Q1018=
2009090919 - SBKP 091900Z 02007KT 9999 VCSH FEW045TCU BKN100 22/21 Q1017=
2009090920 - SBKP 092000Z 03006KT CAVOK 22/21 Q1017=
2009090921 - SBKP 092100Z 01004KT CAVOK 21/21 Q1018=
2009090922 - SBKP 092200Z 04005KT CAVOK 21/21 Q1017=
2009090923 - SBKP 092300Z 20005KT 9999 FEW045 BKN090 20/20 Q1018=
2009091000 - SBKP 100000Z 21008KT 9999 FEW040 BKN090 20/20 Q1020=
2009091001 - SBKP 100100Z 21007KT 9999 -RA FEW025 BKN090 20/20 Q1022=
2009091002 - SBKP 100200Z 17005KT CAVOK 20/20 Q1022=
2009091003 - SBKP 100300Z 10005KT 9999 FEW030 20/20 Q1022=
2009091004 - SBKP 100400Z 11006KT 9999 FEW030 20/20 Q1022=
2009091005 - SBKP 100500Z 12006KT 9999 FEW030 19/19 Q1022=
2009091006 - SBKP 100600Z 20007KT 9999 FEW030 19/19 Q1021=
2009091007 - SBKP 100700Z 16003KT CAVOK 19/19 Q1021=
2009091008 - SBKP 100800Z 09006KT 8000 NSC 19/19 Q1021=
2009091009 - SBKP 100900Z 12003KT 6000 NSC 19/19 Q1022=
2009091010 - SBKP 101000Z 09003KT 4000 BR NSC 19/19 Q1023=
2009091011 - SBKP 101100Z 10005KT 5000 BR NSC 19/19 Q1023=
2009091012 - SBKP 101200Z 14005KT 5000 BR NSC 21/21 Q1024=
2009091013 - SBKP 101300Z 22002KT 9000 NSC 23/21 Q1024=
2009091014 - SBKP 101400Z 16003KT 9000 NSC 25/21 Q1024=
2009091015 - SBKP 101500Z 30003KT 9999 FEW040 SCT100 27/20 Q1022=
2009091016 - SBKP 101600Z 310003KT 9999 SCT040 BKN100 26/20 Q1022=
2009091017 - SBKP 101700Z 34005KT 9999 SCT040 FEW045TCU BKN100 28/19 Q1021=
2009091018 - SBKP 101800Z 21006KT 9999 SCT040 FEW045TCU BKN100 27/20 Q1021=
2009091019 - SBKP 101900Z 19013KT 4000 HZ SCT040 FEW045TCU BKN100 26/21 Q1021=
2009091020 - SBKP 102000Z 17011KT 4000 -RA BR BKN030 FEW035TCU BKN090 25/21Q1022=
2009091021 - SBKP 102100Z 14007KT 4500 BR SCT030 BKN090 23/22 Q1022=
2009091021 - SBKP 102130Z 14009KT 6000 BKN040 BKN090 23/21 Q1023=
2009091022 - SBKP 102200Z 13012KT 7000 SCT040 BKN090 22/20 Q1023=
2009091023 - SBKP 102300Z 13016KT 7000 SCT045 SCT100 20/20 Q1024=
2009091100 - SBKP 110000Z 14012KT 9999 FEW013 19/19 Q1024=
2009091100 - SBKP 110030Z 14014KT 9999 BKN012 19/19 Q1025=
2009091101 - SBKP 110100Z 14014KT 9999 BKN014 19/19 Q1025=
2009091102 - SBKP 110200Z 14014KT 9999 BKN015 19/19 Q1025=
2009091103 - SBKP 110300Z 12016KT 9999 FEW015 18/18 Q1024=
2009091104 - SBKP 110400Z 12015KT 9999 FEW020 BKN060 18/18 Q1024=
2009091105 - SBKP 110500Z 12014KT 9999 FEW020 BKN070 18/18 Q1024=
2009091106 - SBKP 110600Z 12013KT 9999 FEW020 BKN060 BKN080 18/18 Q1023=
2009091107 - SBKP 110700Z 11015KT CAVOK 18/18 Q1023=
2009091108 - SBKP 110800Z 11015KT CAVOK 18/18 Q1023=
2009091109 - SBKP 110900Z 12013KT CAVOK 18/18 Q1024=
2009091110 - SBKP 111000Z 11013KT CAVOK 18/18 Q1025=
2009091111 - SBKP 111100Z 11014KT CAVOK 20/19 Q1025=
2009091112 - SBKP 111200Z 11014KT CAVOK 21/20 Q1026=
2009091113 - SBKP 111300Z 11012KT CAVOK 22/20 Q1026=
2009091114 - SBKP 111400Z 14010KT 9999 SCT045 24/20 Q1025=
2009091115 - SBKP 111500Z 07005KT 9999 BKN035 26/18 Q1025=
2009091116 - SBKP 111600Z 11005KT 9999 BKN035 SCT080 27/19 Q1023=
2009091117 - SBKP 111700Z 16006KT 9999 SCT045 27/18 Q1023=
2009091118 - SBKP 111800Z 14008KT 9999 SCT045 27/18 Q1022=
2009091119 - SBKP 111900Z 16007KT 9999 SCT045 27/18 Q1021=
2009091120 - SBKP 112000Z 14006KT 9999 FEW045 26/17 Q1021=
2009091121 - SBKP 112100Z 15010KT 9000 FEW045 BKN070 25/17 Q1022=
2009091122 - SBKP 112200Z 15013KT CAVOK 22/19 Q1022=
2009091123 - SBKP 112300Z 15014KT CAVOK 21/19 Q1022=
2009091200 - SBKP 120000Z 14012KT CAVOK 20/19 Q1022=
2009091201 - SBKP 120100Z 13014KT CAVOK 19/19 Q1022=
2009091202 - SBKP 120200Z 14014KT CAVOK 18/18 Q1022=
2009091203 - SBKP 120300Z 11015KT CAVOK 18/18 Q1022=
2009091204 - SBKP 120400Z 11015KT CAVOK 18/18 Q1022=
2009091205 - SBKP 120500Z 13013KT CAVOK 18/18 Q1021=
2009091206 - SBKP 120600Z 12010KT CAVOK 18/18 Q1021=
2009091207 - SBKP 120700Z 12011KT CAVOK 17/17 Q1021=
2009091208 - SBKP 120800Z 11011KT CAVOK 17/17 Q1020=
2009091209 - SBKP 120900Z 11011KT CAVOK 17/17 Q1021=
2009091210 - SBKP 121000Z 11010KT CAVOK 18/18 Q1022=
2009091211 - SBKP 121100Z 10008KT CAVOK 20/19 Q1022=
2009091212 - SBKP 121200Z 08005KT CAVOK 22/18 Q1023=
2009091213 - SBKP 121300Z 05007KT CAVOK 24/17 Q1023=
2009091214 - SBKP 121400Z 01006KT CAVOK 26/16 Q1022=
2009091215 - SBKP 121500Z 36008KT 9999 FEW040 27/16 Q1021=
2009091216 - SBKP 121600Z 35006KT 9999 SCT040 28/14 Q1020=
2009091217 - SBKP 121700Z 29005KT 9999 SCT040 29/12 Q1019=
2009091218 - SBKP 121800Z 33006KT 9999 SCT045 BKN080 28/12 Q1018=
2009091219 - SBKP 121900Z 32006KT 9999 SCT048 BKN085 29/12 Q1018=
2009091220 - SBKP 122000Z 32005KT 9999 FEW048 SCT085 29/13 Q1018=
2009091221 - SBKP 122100Z 31003KT CAVOK 27/12 Q1018=
2009091222 - SBKP 122200Z 32002KT CAVOK 26/13 Q1018=
2009091223 - SBKP 122300Z 11003KT CAVOK 24/15 Q1019=
2009091300 - SBKP 130000Z 11005KT CAVOK 23/15 Q1019=
2009091301 - SBKP 130100Z 12005KT CAVOK 22/16 Q1019=
2009091302 - SBKP 130200Z 13006KT CAVOK 21/16 Q1019=
2009091303 - SBKP 130300Z 10005KT CAVOK 20/17 Q1018=
2009091304 - SBKP 130400Z 10007KT CAVOK 19/16 Q1017=
2009091305 - SBKP 130500Z 10006KT CAVOK 18/17 Q1017=
2009091306 - SBKP 130600Z 10007KT CAVOK 18/17 Q1017=
2009091307 - SBKP 130700Z 10006KT CAVOK 18/17 Q1017=
2009091308 - SBKP 130800Z 10007KT CAVOK 17/17 Q1016=
2009091309 - SBKP 130900Z 10006KT CAVOK 17/17 Q1017=
2009091310 - SBKP 131000Z 10007KT CAVOK 18/17 Q1018=
2009091311 - SBKP 131100Z 10004KT CAVOK 21/18 Q1018=
2009091312 - SBKP 131200Z 06002KT CAVOK 25/16 Q1019=
2009091313 - SBKP 131300Z 33007KT CAVOK 26/16 Q1019=
2009091314 - SBKP 131400Z 33006KT CAVOK 28/16 Q1019=
2009091315 - SBKP 131500Z 30007KT 9999 FEW040 29/14 Q1018=
2009091316 - SBKP 131600Z 30008KT 9999 SCT040 30/13 Q1017=
2009091317 - SBKP 131700Z 30007KT 9999 SCT040 31/14 Q1016=
2009091318 - SBKP 131800Z 33006KT 9999 SCT040 31/13 Q1016=
2009091319 - SBKP 131900Z 30007KT 9999 SCT040 30/13 Q1016=
2009091320 - SBKP 132000Z 28006KT 9999 SCT045 29/14 Q1016=
2009091321 - SBKP 132100Z 27004KT 9999 FEW045 BKN070 28/14 Q1017=
2009091322 - SBKP 132200Z 25003KT 9999 FEW045 BKN070 28/15 Q1017=
2009091323 - SBKP 132300Z 35001KT CAVOK 26/17 Q1017=
2009091400 - SBKP 140000Z 07001KT CAVOK 25/16 Q1018=
2009091401 - SBKP 140100Z 22012KT 9999 FEW045 BKN085 24/18 Q1019=
2009091402 - SBKP 140200Z 19008KT 9999 FEW045 BKN085 23/19 Q1019=
2009091403 - SBKP 140300Z 11010KT 9999 FEW045 BKN080 21/19 Q1019=
2009091404 - SBKP 140400Z 11011KT CAVOK 20/20 Q1018=
2009091405 - SBKP 140500Z 11012KT CAVOK 20/20 Q1018=
2009091406 - SBKP 140600Z 11013KT CAVOK 20/20 Q1017=
2009091407 - SBKP 140700Z 11013KT CAVOK 20/20 Q1017=
2009091408 - SBKP 140800Z 11013KT CAVOK 19/19 Q1018=
2009091409 - SBKP 140900Z 11012KT 7000 NSC 19/19 Q1018 WS R15=
2009091409 - SBKP 140935Z 12010KT 7000 BKN012 BKN090 19/19 Q1019=
2009091410 - SBKP 141000Z 12011KT 7000 BKN012 BKN090 20/20 Q1019=
2009091411 - SBKP 141100Z 13012KT 8000 SCT015 BKN090 20/20 Q1020=
2009091412 - SBKP 141200Z 17012KT 9000 BKN015 BKN090 21/19 Q1022=
2009091413 - SBKP 141300Z 14015KT 9999 BKN020 BKN090 21/18 Q1021=
2009091414 - SBKP 141400Z 12010KT 9999 SCT020 BKN090 23/19 Q1021=
2009091415 - SBKP 141500Z 13009KT 9999 SCT040 BKN100 25/16 Q1020=
2009091416 - SBKP 141600Z 12006KT 9999 SCT040 BKN100 25/17 Q1020=
2009091417 - SBKP 141700Z 19010KT 9999 4000E TSRA SCT015 SCT030 FEW050CB BKN100 22/18 Q1019=
2009091417 - SBKP 141725Z 11007KT 9999 4000E -RA FEW020 SCT040 FEW050TCU BKN100 22/20 Q1019 RETS=
2009091418 - SBKP 141800Z 16008KT 9999 SCT040 FEW050TCU BKN100 23/19 Q1018 RETSRA=
2009091419 - SBKP 141900Z 12012KT 9999 SCT040 SCT100 22/19 Q1019=
2009091420 - SBKP 142000Z 13012KT 9999 FEW040 SCT100 22/18 Q1019=
2009091421 - SBKP 142100Z 11013KT 9999 FEW040 BKN100 20/18 Q1020=
2009091422 - SBKP 142200Z 12013KT CAVOK 19/18 Q1020=
2009091423 - SBKP 142300Z 11015KT CAVOK 19/17 Q1021=
2009091500 - SBKP 150000Z 11016KT CAVOK 18/18 Q1021=
2009091501 - SBKP 150100Z 11017KT CAVOK 18/18 Q1021=
2009091502 - SBKP 150200Z 11015KT CAVOK 18/18 Q1021 WS R15=
2009091503 - SBKP 150300Z 12014KT CAVOK 18/17 Q1021=
2009091504 - SBKP 150400Z 12014KT CAVOK 17/17 Q1020=
2009091505 - SBKP 150500Z 11014KT CAVOK 17/17 Q1020=
2009091506 - SBKP 150600Z 11014KT CAVOK 17/17 Q1019=
2009091507 - SBKP 150700Z 11015KT CAVOK 17/17 Q1019=
2009091508 - SBKP 150800Z 12018KT CAVOK 17/17 Q1019=
2009091509 - SBKP 150900Z 11015KT 9999 FEW010 17/17 Q1020=
2009091510 - SBKP 151000Z 11014KT 9999 4500SE FEW010 17/17 Q1021=
2009091511 - SBKP 151100Z 09011KT 9999 FEW010 19/17 Q1021=
2009091512 - SBKP 151200Z 11011KT 9999 FEW010 20/17 Q1022=
2009091513 - SBKP 151300Z 11008KT 9999 FEW020 21/18 Q1022=
2009091514 - SBKP 151400Z 13009KT CAVOK 23/17 Q1021=
2009091515 - SBKP 151500Z 14005KT CAVOK 25/17 Q1021=
2009091516 - SBKP 151600Z 14006KT 9999 FEW040 26/18 Q1020=
2009091517 - SBKP 151700Z 17006KT 9999 FEW040 27/17 Q1019=
2009091518 - SBKP 151800Z 17005KT 9999 FEW040 27/17 Q1018=
2009091519 - SBKP 151900Z 18004KT 9999 FEW040 28/17 Q1018=
2009091520 - SBKP 152000Z 12007KT 9999 FEW040 26/17 Q1018=
2009091521 - SBKP 152100Z 12010KT CAVOK 23/18 Q1019=
2009091522 - SBKP 152200Z 13013KT CAVOK 21/18 Q1019=
2009091523 - SBKP 152300Z 12015KT CAVOK 20/18 Q1019=
2009091600 - SBKP 160000Z 12013KT CAVOK 19/18 Q1020=
2009091601 - SBKP 160100Z 12015KT CAVOK 18/18 Q1020=
2009091602 - SBKP 160200Z 12012KT CAVOK 18/18 Q1020=
2009091603 - SBKP 160300Z 13011KT 9000 NSC 17/17 Q1020=
2009091604 - SBKP 160400Z 14008KT CAVOK 17/17 Q1020=
2009091604 - SBKP 160440Z 14006KT 9999 BKN011 18/18 Q1020=
2009091605 - SBKP 160500Z 12009KT 9999 BKN012 17/17 Q1020=
2009091606 - SBKP 160600Z 13012KT 9999 BKN010 17/17 Q1019=
2009091607 - SBKP 160700Z 13014KT 9999 BKN009 17/17 Q1019=
2009091608 - SBKP 160800Z 12014KT 9999 BKN010 17/17 Q1019=
2009091609 - SBKP 160900Z 12008KT 9000 BKN011 17/17 Q1020=
2009091610 - SBKP 161000Z 12008KT 9999 BKN013 18/18 Q1020=
2009091611 - SBKP 161100Z 14011KT 9999 SCT015 19/18 Q1021=
2009091612 - SBKP 161200Z 14012KT CAVOK 21/18 Q1020=
2009091613 - SBKP 161300Z 13007KT CAVOK 23/18 Q1020=
2009091614 - SBKP 161400Z 10002KT CAVOK 24/17 Q1020=
2009091615 - SBKP 161500Z 02003KT 9999 FEW030 26/17 Q1019=
2009091616 - SBKP 161600Z 02002KT 9999 FEW030 27/15 Q1018=
2009091617 - SBKP 161700Z 28004KT 9999 FEW030 29/13 Q1017=
2009091618 - SBKP 161800Z 30004KT CAVOK 28/10 Q1016=
2009091619 - SBKP 161900Z 26006KT CAVOK 29/13 Q1016=
2009091620 - SBKP 162000Z 21004KT CAVOK 28/12 Q1016=
2009091621 - SBKP 162100Z 22005KT CAVOK 26/13 Q1017=
2009091622 - SBKP 162200Z 21006KT CAVOK 25/14 Q1017=
2009091623 - SBKP 162300Z 19006KT CAVOK 24/13 Q1017=
2009091700 - SBKP 170000Z 11011KT 7000 NSC 21/18 Q1018=
2009091701 - SBKP 170100Z 12014KT 4500 BR NSC 19/19 Q1018=
2009091702 - SBKP 170200Z 11013KT 4000 BR NSC 18/18 Q1018=
2009091703 - SBKP 170300Z 14010KT 4000 BR NSC 18/18 Q1018=
2009091704 - SBKP 170400Z 15011KT 4000 BR NSC 18/18 Q1018=
2009091705 - SBKP 170500Z 12008KT 4000 BR NSC 18/18 Q1017=
2009091706 - SBKP 170600Z 12007KT 4000 BR NSC 17/17 Q1017=
2009091707 - SBKP 170700Z 11011KT 4000 BR NSC 17/17 Q1016=
2009091708 - SBKP 170800Z 12010KT 5000 BR BKN010 17/17 Q1016=
2009091709 - SBKP 170900Z 11012KT 4000 BR SCT010 17/17 Q1016=
2009091710 - SBKP 171000Z 10010KT 5000 BR FEW010 18/18 Q1016=
2009091711 - SBKP 171100Z 12008KT 5000 BR FEW030 20/19 Q1017=
2009091712 - SBKP 171200Z 14005KT CAVOK 22/18 Q1017=
2009091713 - SBKP 171300Z 23005KT CAVOK 23/18 Q1018=
2009091714 - SBKP 171400Z 19004KT 9999 FEW030 25/17 Q1018=
2009091715 - SBKP 171500Z 32005KT 9999 FEW030 26/17 Q1017=
2009091716 - SBKP 171600Z 05003KT 9999 FEW030 28/15 Q1015=
2009091717 - SBKP 171700Z 29004KT 9999 FEW030 29/13 Q1014=
2009091718 - SBKP 171800Z 29005KT 9999 FEW030 29/14 Q1013=
2009091719 - SBKP 171900Z 26002KT 9999 FEW030 30/11 Q1013=
2009091720 - SBKP 172000Z 24003KT CAVOK 30/11 Q1013=
2009091720 - SBKP 172035Z 14010KT 4000 HZ NSC 25/18 Q1014=
2009091721 - SBKP 172100Z 12012KT 4000 HZ NSC 24/18 Q1014=
2009091722 - SBKP 172200Z 12020KT 4000 BR NSC 20/18 Q1014=
2009091723 - SBKP 172300Z 12019KT 5000 BR NSC 19/18 Q1015=
2009091800 - SBKP 180000Z 12017G27KT 5000 BR NSC 19/18 Q1018=
2009091801 - SBKP 180100Z 12018KT 7000 NSC 19/18 Q1016=
2009091802 - SBKP 180200Z 11018KT 9000 NSC 19/18 Q1015 WS R15=
2009091803 - SBKP 180300Z 11016G26KT CAVOK 18/18 Q1015=
2009091804 - SBKP 180400Z 13014KT CAVOK 18/18 Q1015=
2009091805 - SBKP 180500Z 16008KT CAVOK 18/18 Q1015=
2009091806 - SBKP 180600Z 14011KT CAVOK 18/18 Q1015=
2009091807 - SBKP 180700Z 11011KT CAVOK 18/18 Q1014=
2009091808 - SBKP 180800Z 10012KT CAVOK 18/18 Q1014=
2009091809 - SBKP 180900Z 10008KT CAVOK 17/17 Q1014=
2009091810 - SBKP 181000Z 15008KT 8000 NSC 18/18 Q1015=
2009091811 - SBKP 181100Z 12006KT 8000 NSC 20/19 Q1014=
2009091812 - SBKP 181200Z 06005KT 9000 NSC 22/19 Q1015=
2009091813 - SBKP 181300Z 36004KT CAVOK 25/18 Q1015=
2009091814 - SBKP 181400Z 01008KT CAVOK 26/18 Q1015=
2009091815 - SBKP 181500Z 35006KT CAVOK 28/18 Q1014=
2009091816 - SBKP 181600Z 32008KT CAVOK 29/17 Q1013=
2009091817 - SBKP 181700Z 36006KT CAVOK 30/16 Q1012=
2009091818 - SBKP 181800Z 31005KT CAVOK 30/16 Q1012=
2009091819 - SBKP 181900Z 27006KT CAVOK 30/13 Q1012=
2009091820 - SBKP 182000Z 22005KT 8000 FEW040 30/14 Q1012=
2009091821 - SBKP 182100Z 19008KT 8000 NSC 29/16 Q1012=
2009091822 - SBKP 182200Z 17017KT 8000 NSC 24/18 Q1013=
2009091823 - SBKP 182300Z 13014KT CAVOK 21/18 Q1014=
2009091900 - SBKP 190000Z 12017KT CAVOK 20/18 Q1015 WS R15=
2009091901 - SBKP 190100Z 12018G28KT 9999 FEW015 20/17 Q1016=
2009091902 - SBKP 190200Z 12017KT 9999 FEW015 19/17 Q1015=
2009091903 - SBKP 190300Z 11017KT 9999 FEW015 19/18 Q1015=
2009091904 - SBKP 190400Z 11013KT 9999 FEW015 19/18 Q1014=
2009091905 - SBKP 190500Z 22016KT 9999 SCT020 19/18 Q1016=
2009091906 - SBKP 190600Z 19009KT 9999 SCT020 19/18 Q1015=
2009091907 - SBKP 190700Z 07005KT 9999 FEW020 19/19 Q1014=
2009091908 - SBKP 190800Z 05005KT 9999 FEW020 19/19 Q1015=
2009091909 - SBKP 190900Z 06006KT 9000 FEW020 SCT040 BKN090 19/19 Q1016=
2009091909 - SBKP 190930Z 29012KT 4000 -RA BR SCT010 SCT040 OVC090 18/18 Q1019=
2009091910 - SBKP 191000Z 27010KT 5000 -RA BR SCT013 SCT040 OVC090 18/18 Q1019=
2009091910 - SBKP 191020Z 32003KT 3500 -RA BR FEW020 SCT040 OVC080 18/18 Q1019=
2009091911 - SBKP 191100Z 06008KT 5000 -RA BR FEW020 SCT040 OVC080 18/18 Q1018=
2009091912 - SBKP 191200Z 06011KT 8000 FEW020 BKN035 OVC090 20/20 Q1016=
2009091913 - SBKP 191300Z 01010KT 9999 SCT035 BKN100 22/21 Q1017=
2009091914 - SBKP 191400Z 01011KT 9999 FEW040 BKN100 23/21 Q1017=
2009091915 - SBKP 191500Z 33008KT 9999 FEW020 BKN090 23/20 Q1017=
2009091916 - SBKP 191600Z 31007KT 9999 FEW020 BKN090 23/20 Q1017=
2009091917 - SBKP 191700Z 32005KT CAVOK 24/20 Q1016=
2009091918 - SBKP 191800Z 34005KT CAVOK 24/20 Q1016=
2009091919 - SBKP 191900Z 34008KT 9999 SCT040 BKN090 24/21 Q1016=
2009091920 - SBKP 192000Z 34009KT 9999 FEW040 BKN080 22/19 Q1016=
2009091921 - SBKP 192100Z 35007KT 9999 -RA FEW040 BKN070 21/20 Q1016=
2009091922 - SBKP 192200Z 33006KT 9999 -RA FEW040 BKN070 21/21 Q1017=
2009091923 - SBKP 192300Z 23005KT 8000 -RA FEW040 BKN070 20/20 Q1018=
2009092000 - SBKP 200000Z 11002KT 9999 SCT020 BKN070 20/20 Q1018=
2009092001 - SBKP 200100Z 20002KT 9999 BKN015 OVC070 20/20 Q1018=
2009092002 - SBKP 200200Z 24001KT 9999 BKN015 SCT070 20/20 Q1018=
2009092003 - SBKP 200300Z 02005KT 9000 FEW015 BKN022 19/19 Q1017=
2009092004 - SBKP 200400Z 02004KT 9000 SCT022 SCT070 19/19 Q1017=
2009092005 - SBKP 200500Z 36004KT 7000 SCT005 SCT022 19/19 Q1016=
2009092005 - SBKP 200535Z 36005KT 7000 BKN004 OVC022 19/19 Q1016=
2009092006 - SBKP 200600Z 36005KT 7000 FEW002 SCT005 BKN022 19/19 Q1016=
2009092007 - SBKP 200700Z 36005KT 4000 BR BKN003 BKN022 19/19 Q1016=
2009092008 - SBKP 200800Z 01006KT 2000 BR BKN003 BKN022 19/19 Q1016=
2009092009 - SBKP 200900Z 01004KT 1500 R15/P2000 R33/P2000 BR BKN005 BKN020 19/19 Q1016=
2009092010 - SBKP 201000Z 01004KT 2000 BR SCT005 BKN022 19/19 Q1017=
2009092011 - SBKP 201100Z 33004KT 3000 BR SCT005 BKN022 20/20 Q1018=
2009092012 - SBKP 201200Z 30006KT 5000 BR SCT006 BKN018 20/20 Q1018=
2009092013 - SBKP 201300Z 33003KT 9999 FEW010 SCT020 22/20 Q1019=
2009092014 - SBKP 201400Z 30003KT 9999 BKN020 23/20 Q1018=
2009092015 - SBKP 201500Z 30004KT 9999 BKN030 25/20 Q1018=
2009092016 - SBKP 201600Z 30003KT 9999 SCT030 BKN050 25/20 Q1017=
2009092017 - SBKP 201700Z 28004KT 9999 SCT030 BKN050 25/20 Q1016=
2009092018 - SBKP 201800Z 27003KT 9999 FEW035 SCT055 BKN075 25/20 Q1016=
2009092019 - SBKP 201900Z 21004KT 9999 FEW035 SCT055 BKN090 25/20 Q1016=
2009092020 - SBKP 202000Z 15010KT 9999 FEW035 SCT055 BKN090 22/20 Q1016=
2009092021 - SBKP 202100Z 14013KT 9999 FEW035 SCT090 21/19 Q1017=
2009092022 - SBKP 202200Z 13013KT 9999 FEW035 SCT090 20/19 Q1017=
2009092023 - SBKP 202300Z 14013KT CAVOK 19/19 Q1017=
2009092100 - SBKP 210000Z 13013KT 9999 FEW048 19/19 Q1018=
2009092101 - SBKP 210100Z 13014KT CAVOK 18/18 Q1018=
2009092102 - SBKP 210200Z 14014KT CAVOK 18/18 Q1018=
2009092103 - SBKP 210300Z 11014KT CAVOK 18/18 Q1018=
2009092104 - SBKP 210400Z 11012KT CAVOK 18/18 Q1017=
2009092105 - SBKP 210500Z 11014KT CAVOK 18/18 Q1016=
2009092106 - SBKP 210600Z 11013KT CAVOK 18/18 Q1016=
2009092107 - SBKP 210700Z 12014KT CAVOK 18/18 Q1015=
2009092108 - SBKP 210800Z 11012KT CAVOK 17/17 Q1015=
2009092109 - SBKP 210900Z 11013KT 8000 NSC 18/18 Q1016=
2009092110 - SBKP 211000Z 11011KT 8000 NSC 18/18 Q1016=
2009092111 - SBKP 211100Z 11012KT CAVOK 20/19 Q1017=
2009092112 - SBKP 211200Z 12010KT CAVOK 21/20 Q1017=
2009092113 - SBKP 211300Z 12010KT CAVOK 22/19 Q1017=
2009092114 - SBKP 211400Z 14006KT 9999 FEW020 BKN100 23/19 Q1017=
2009092115 - SBKP 211500Z 14007KT 9999 FEW025 BKN100 24/19 Q1016=
2009092116 - SBKP 211600Z 13010KT 8000 FEW025 BKN090 23/20 Q1016=
2009092117 - SBKP 211700Z 14012KT 7000 FEW025 BKN090 23/20 Q1015=
2009092118 - SBKP 211800Z 19014KT 6000 SCT016 BKN090 22/20 Q1015=
2009092119 - SBKP 211900Z 16015KT 8000 BKN018 BKN090 20/18 Q1016=
2009092120 - SBKP 212000Z 11016KT 9999 FEW015 BKN070 19/17 Q1015=
2009092121 - SBKP 212100Z 11016KT 9999 SCT015 BKN080 18/17 Q1016=
2009092122 - SBKP 212200Z 10006KT 8000 -RA BKN015 BKN080 17/17 Q1018=
2009092123 - SBKP 212300Z 08004KT 9000 -RA BKN015 BKN080 17/17 Q1018=
2009092200 - SBKP 220000Z 06006KT 9000 -RA BKN015 BKN080 17/17 Q1018=
2009092201 - SBKP 220100Z 07006KT 9999 -RA SCT015 BKN080 17/17 Q1018=
2009092202 - SBKP 220200Z 14004KT 9999 SCT015 BKN080 17/17 Q1017=
2009092203 - SBKP 220300Z 12007KT 9999 FEW015 BKN100 17/17 Q1016=
2009092204 - SBKP 220400Z 17007KT 9999 FEW015 BKN100 17/17 Q1015=
2009092205 - SBKP 220500Z 13005KT 9999 FEW015 BKN100 17/17 Q1014=
2009092206 - SBKP 220600Z 14005KT 9999 FEW015 BKN100 17/17 Q1014=
2009092207 - SBKP 220700Z 19004KT 9999 FEW015 BKN100 17/17 Q1014=
2009092208 - SBKP 220800Z 17005KT 9999 FEW015 BKN100 17/17 Q1014=
2009092209 - SBKP 220900Z 16005KT 8000 NSC 17/17 Q1015=
2009092210 - SBKP 221000Z 12006KT 8000 NSC 17/17 Q1016=
2009092211 - SBKP 221100Z 10005KT 7000 FEW035 BKN090 18/18 Q1017=
2009092212 - SBKP 221200Z 12004KT 7000 SCT035 BKN090 19/19 Q1017=
2009092213 - SBKP 221300Z 10004KT 7000 -RA SCT035 BKN090 19/19 Q1017=
2009092214 - SBKP 221400Z 13003KT 7000 -RA SCT040 BKN090 21/21 Q1017=
2009092215 - SBKP 221500Z 18003KT 9999 SCT040 BKN090 21/21 Q1017=
2009092216 - SBKP 221600Z 09004KT 9999 FEW015 SCT030 BKN090 23/22 Q1016=
2009092217 - SBKP 221700Z 36005KT 9999 SCT035 BKN100 24/20 Q1015=
2009092218 - SBKP 221800Z 36005KT 9999 SCT035 BKN100 24/19 Q1014=
2009092219 - SBKP 221900Z 34007KT 9999 SCT035 BKN100 24/20 Q1014=
2009092220 - SBKP 222000Z 36005KT CAVOK 23/20 Q1014=
2009092221 - SBKP 222100Z 36003KT 9999 FEW020 BKN100 23/21 Q1014=
2009092222 - SBKP 222200Z 04002KT CAVOK 22/21 Q1014=
2009092223 - SBKP 222300Z 04004KT CAVOK 21/21 Q1014=
2009092300 - SBKP 230000Z 10003KT CAVOK 21/21 Q1015=
2009092301 - SBKP 230100Z 10004KT CAVOK 20/20 Q1015=
2009092302 - SBKP 230200Z 04004KT CAVOK 21/21 Q1015=
2009092303 - SBKP 230300Z 04005KT 9999 -RA FEW020 OVC100 21/21 Q1014=
2009092304 - SBKP 230400Z 01007KT 9999 -RA FEW020 SCT050 OVC100 21/21 Q1013=
2009092305 - SBKP 230500Z 34003KT 9999 -RA SCT020 BKN045 OVC100 20/20 Q1013=
2009092306 - SBKP 230600Z 01005KT 9000 -RA SCT030 BKN050 OVC100 20/20 Q1012=
2009092307 - SBKP 230700Z 02006KT 9999 -RA FEW030 BKN050 OVC100 20/20 Q1012=
2009092308 - SBKP 230800Z 03006KT 9999 FEW030 BKN050 OVC100 20/20 Q1012=
2009092309 - SBKP 230900Z 03007KT 9000 NSC 20/20 Q1012=
2009092310 - SBKP 231000Z 03008KT 7000 NSC 20/20 Q1012=
2009092311 - SBKP 231100Z 01007KT 7000 FEW008 BKN060 OVC080 20/20 Q1013=
2009092311 - SBKP 231125Z 01007KT 7000 BKN008 BKN060 OVC080 20/20 Q1014=
2009092312 - SBKP 231200Z 01008KT 7000 BKN008 BKN060 OVC080 20/20 Q1013=
2009092313 - SBKP 231300Z 35013KT 9000 4000E -RA SCT010 BKN050 OVC080 21/21 Q1013=
2009092314 - SBKP 231400Z 25030G40KT 1500 R15/1100 R33/1600 +RA BR SCT010 FEW040TCU BKN050 OVC070 19/19 Q1015=
2009092314 - SBKP 231420Z 24008KT 3500 RA BR SCT007 FEW040TCU BKN050 OVC070 18/18 Q1014 RERA=
2009092314 - SBKP 231440Z 21002KT 9999 FEW002 BKN060 OVC070 18/18 Q1014 RERA=
2009092315 - SBKP 231500Z 24003KT 9999 FEW002 BKN060 OVC070 18/18 Q1013 RERA=
2009092316 - SBKP 231600Z 31005KT 9999 -RA SCT008 SCT050 OVC070 19/19 Q1012=
2009092317 - SBKP 231700Z 36010KT 9999 4000NE -RA SCT008 SCT030 18/18 Q1011=
2009092317 - SBKP 231745Z 36008KT 9999 BKN011 SCT030 19/19 Q1011=
2009092318 - SBKP 231800Z 35009KT 9999 BKN011 SCT030 19/19 Q1011=
2009092319 - SBKP 231900Z 36007KT 9999 BKN015 SCT030 19/19 Q1011=
2009092320 - SBKP 232000Z 36008KT 9999 SCT015 BKN030 19/19 Q1012=
2009092321 - SBKP 232100Z 36006KT 9999 FEW010 SCT030 BKN070 19/19 Q1013=
2009092322 - SBKP 232200Z 36006KT 9999 SCT030 BKN070 18/18 Q1013=
2009092323 - SBKP 232300Z 01006KT 9999 FEW030 BKN070 18/18 Q1013=
2009092400 - SBKP 240000Z 01006KT 9999 FEW015 BKN070 18/18 Q1014=
2009092401 - SBKP 240100Z 01005KT 9999 SCT015 BKN070 18/18 Q1014=
2009092402 - SBKP 240200Z 01005KT 9999 SCT018 BKN060 18/18 Q1014=
2009092403 - SBKP 240300Z 03005KT 9999 FEW013 BKN060 BKN100 18/18 Q1014=
2009092404 - SBKP 240400Z 02004KT 9999 FEW013 BKN060 BKN100 18/18 Q1014=
2009092405 - SBKP 240500Z 01003KT 9999 FEW011 BKN060 BKN100 18/18 Q1014=
2009092406 - SBKP 240600Z 00000KT 9999 FEW010 SCT060 BKN100 18/18 Q1013=
2009092407 - SBKP 240700Z 01002KT 9999 SCT007 SCT060 BKN100 18/18 Q1013=
2009092408 - SBKP 240800Z 24002KT 9999 SCT020 BKN100 18/18 Q1014=
2009092409 - SBKP 240900Z 12007KT 9999 FEW007 BKN010 OVC100 17/17 Q1014=
2009092410 - SBKP 241000Z 14013KT 9999 BKN016 BKN100 16/16 Q1016=
2009092411 - SBKP 241100Z 12014KT 9999 BKN020 17/17 Q1017=
2009092412 - SBKP 241200Z 12010KT 9999 FEW015 BKN025 17/17 Q1018=
2009092413 - SBKP 241300Z 12011KT 9999 FEW015 BKN028 18/16 Q1018=
2009092414 - SBKP 241400Z 14011KT 9999 FEW015 BKN030 19/16 Q1018=
2009092415 - SBKP 241500Z 11010KT 9999 FEW020 BKN035 19/16 Q1018=
2009092416 - SBKP 241600Z 12013KT 9999 FEW025 SCT040 20/17 Q1018=
2009092417 - SBKP 241700Z 12011KT 9999 FEW025 SCT040 21/17 Q1017=
2009092418 - SBKP 241800Z 11011KT 9999 BKN035 19/16 Q1017=
2009092419 - SBKP 241900Z 13016KT 9999 SCT040 20/16 Q1017=
2009092420 - SBKP 242000Z 12014KT 9999 SCT045 19/15 Q1018=
2009092421 - SBKP 242100Z 13017KT 9999 FEW045 17/15 Q1018=
2009092422 - SBKP 242200Z 12017KT CAVOK 16/15 Q1019=
2009092423 - SBKP 242300Z 12018KT CAVOK 15/14 Q1019=
2009092500 - SBKP 250000Z 13018KT CAVOK 15/14 Q1019=
2009092501 - SBKP 250100Z 13014KT CAVOK 15/14 Q1020=
2009092502 - SBKP 250200Z 12013KT CAVOK 14/14 Q1020=
2009092503 - SBKP 250300Z 12015KT CAVOK 14/14 Q1019 WS R15=
2009092504 - SBKP 250400Z 11012KT CAVOK 14/14 Q1019=
2009092505 - SBKP 250500Z 12013KT CAVOK 13/13 Q1019=
2009092506 - SBKP 250600Z 12015KT CAVOK 13/13 Q1019=
2009092507 - SBKP 250700Z 12016KT CAVOK 14/14 Q1018=
2009092508 - SBKP 250800Z 12014KT CAVOK 13/13 Q1019=
2009092509 - SBKP 250900Z 12013KT CAVOK 13/13 Q1019=
2009092510 - SBKP 251000Z 12013KT CAVOK 14/14 Q1020=
2009092511 - SBKP 251100Z 11017KT CAVOK 16/13 Q1021=
2009092512 - SBKP 251200Z 11014KT CAVOK 17/14 Q1021=
2009092513 - SBKP 251300Z 11015KT CAVOK 18/13 Q1021=
2009092514 - SBKP 251400Z 12009KT CAVOK 21/14 Q1020=
2009092515 - SBKP 251500Z 15006KT 9999 FEW035 22/12 Q1020=
2009092516 - SBKP 251600Z 16004KT 9999 FEW040 23/12 Q1019=
2009092517 - SBKP 251700Z 17006KT 9999 FEW040 24/11 Q1019=
2009092518 - SBKP 251800Z 16004KT 9999 FEW040 25/12 Q1018=
2009092519 - SBKP 251900Z 14008KT 9999 FEW040 24/12 Q1018=
2009092520 - SBKP 252000Z 13013KT CAVOK 23/12 Q1018=
2009092521 - SBKP 252100Z 13016KT CAVOK 20/13 Q1018=
2009092522 - SBKP 252200Z 13017KT CAVOK 18/13 Q1018=
2009092523 - SBKP 252300Z 12015KT CAVOK 16/13 Q1019=
2009092600 - SBKP 260000Z 12016KT CAVOK 16/14 Q1019=
2009092601 - SBKP 260100Z 11015KT CAVOK 15/14 Q1019=
2009092602 - SBKP 260200Z 11015KT CAVOK 15/15 Q1019=
2009092603 - SBKP 260300Z 11015KT CAVOK 15/15 Q1018=
2009092604 - SBKP 260400Z 12016KT CAVOK 14/14 Q1018=
2009092605 - SBKP 260500Z 11014KT CAVOK 14/14 Q1018=
2009092606 - SBKP 260600Z 12013KT CAVOK 14/14 Q1017=
2009092607 - SBKP 260700Z 12012KT CAVOK 14/14 Q1017=
2009092608 - SBKP 260800Z 12011KT CAVOK 14/14 Q1018=
2009092609 - SBKP 260900Z 12011KT CAVOK 14/14 Q1018=
2009092610 - SBKP 261000Z 11010KT 7000 NSC 15/15 Q1019=
2009092611 - SBKP 261100Z 10005KT CAVOK 18/16 Q1019=
2009092612 - SBKP 261200Z 05006KT CAVOK 21/16 Q1019=
2009092613 - SBKP 261300Z 01005KT CAVOK 23/16 Q1019=
2009092614 - SBKP 261400Z 36007KT CAVOK 25/16 Q1019=
2009092615 - SBKP 261500Z 34007KT 9999 FEW040 26/17 Q1018=
2009092616 - SBKP 261600Z 33004KT 9999 SCT040 SCT080 28/16 Q1017=
2009092617 - SBKP 261700Z 30006KT 9999 FEW040 SCT080 29/16 Q1016=
2009092618 - SBKP 261800Z 30007KT 9999 FEW040 30/15 Q1016=
2009092619 - SBKP 261900Z 34002KT 9999 FEW040 30/15 Q1015=
2009092620 - SBKP 262000Z 31003KT 9999 FEW040 30/14 Q1015=
2009092621 - SBKP 262100Z 25002KT CAVOK 29/15 Q1015=
2009092622 - SBKP 262200Z 20004KT CAVOK 27/16 Q1016=
2009092623 - SBKP 262300Z 12006KT CAVOK 24/16 Q1016=
2009092700 - SBKP 270000Z 13008KT CAVOK 23/18 Q1016=
2009092701 - SBKP 270100Z 14006KT CAVOK 21/19 Q1016=
2009092702 - SBKP 270200Z 12006KT CAVOK 21/19 Q1016=
2009092703 - SBKP 270300Z 10006KT CAVOK 21/19 Q1016=
2009092704 - SBKP 270400Z 09005KT CAVOK 20/19 Q1016=
2009092705 - SBKP 270500Z 08005KT CAVOK 20/19 Q1015=
2009092706 - SBKP 270600Z 02003KT CAVOK 20/19 Q1015=
2009092707 - SBKP 270700Z 12005KT CAVOK 19/19 Q1015=
2009092708 - SBKP 270800Z 11006KT CAVOK 19/19 Q1016=
2009092709 - SBKP 270900Z 09005KT CAVOK 18/18 Q1016=
2009092710 - SBKP 271000Z 09003KT CAVOK 21/19 Q1017=
2009092711 - SBKP 271100Z 04005KT CAVOK 23/19 Q1017=
2009092712 - SBKP 271200Z 01007KT CAVOK 27/19 Q1018=
2009092713 - SBKP 271300Z 35012KT CAVOK 28/18 Q1018=
2009092714 - SBKP 271400Z 35013KT CAVOK 30/18 Q1017=
2009092715 - SBKP 271500Z 34014KT CAVOK 31/17 Q1017=
2009092716 - SBKP 271600Z 34012KT 9999 FEW040 32/17 Q1015=
2009092717 - SBKP 271700Z 35012KT 9999 SCT040 32/16 Q1014=
2009092718 - SBKP 271800Z 33011KT 9999 SCT040 32/15 Q1014=
2009092719 - SBKP 271900Z 36012KT 9999 SCT040 33/14 Q1013=
2009092720 - SBKP 272000Z 01011KT 9999 SCT040 32/14 Q1013=
2009092721 - SBKP 272100Z 01007KT 9999 FEW040 30/15 Q1014=
2009092722 - SBKP 272200Z 03007KT 9999 FEW040 29/17 Q1015=
2009092723 - SBKP 272300Z 03009KT 9999 FEW040 29/17 Q1015=
2009092800 - SBKP 280000Z 03008KT CAVOK 27/17 Q1015=
2009092801 - SBKP 280100Z 03009KT CAVOK 27/16 Q1015=
2009092802 - SBKP 280200Z 34005KT CAVOK 25/17 Q1016=
2009092803 - SBKP 280300Z 01005KT CAVOK 25/17 Q1016=
2009092804 - SBKP 280400Z 04004KT CAVOK 24/17 Q1015=
2009092805 - SBKP 280500Z 03005KT CAVOK 23/17 Q1015=
2009092806 - SBKP 280600Z 04006KT CAVOK 23/16 Q1014=
2009092807 - SBKP 280700Z 03007KT CAVOK 22/16 Q1014=
2009092808 - SBKP 280800Z 04006KT CAVOK 22/16 Q1015=
2009092809 - SBKP 280900Z 05008KT CAVOK 23/15 Q1015=
2009092810 - SBKP 281000Z 03006KT CAVOK 23/15 Q1015=
2009092811 - SBKP 281100Z 36005KT CAVOK 23/16 Q1015=
2009092812 - SBKP 281200Z 35008KT CAVOK 25/16 Q1017=
2009092813 - SBKP 281300Z 34011KT 9999 FEW045 SCT090 27/17 Q1017=
2009092814 - SBKP 281400Z 34013KT 9999 FEW045 SCT090 28/17 Q1017=
2009092815 - SBKP 281500Z 34012KT CAVOK 29/17 Q1016=
2009092816 - SBKP 281600Z 32012KT 9999 FEW040 30/18 Q1015=
2009092817 - SBKP 281700Z 32010KT 9999 SCT040 30/19 Q1015=
2009092817 - SBKP 281720Z 34010KT 9999 3000E -TSRA FEW030CB SCT035 28/22 Q1014=
2009092818 - SBKP 281800Z 33004KT 9999 SCT035 SCT060 28/22 Q1014 RETS=
2009092818 - SBKP 281830Z 30013KT 9999 TS SCT035 FEW045CB SCT100 27/21 Q1015=
2009092819 - SBKP 281900Z 31004KT 9999 TS SCT035 FEW045CB SCT080 27/20 Q1015=
2009092820 - SBKP 282000Z 03006KT 9999 SCT035 SCT080 26/20 Q1016 RETS=
2009092820 - SBKP 282047Z 34018G28KT 0500 +TSRA OVC035 //////CB 23/22 Q1017=
2009092821 - SBKP 282100Z 33012G28KT 9999 4000SE -TSRA BKN035 FEW045CB SCT080 22/22 Q1016 RERA=
2009092822 - SBKP 282200Z 23014KT 9999 -TSRA SCT035 FEW045CB SCT080 21/21 Q1018 WS R33=
2009092823 - SBKP 282300Z 04003KT 9999 -TSRA SCT035 FEW045CB SCT080 21/21 Q1018=
2009092900 - SBKP 290000Z 03004KT 9999 TS SCT035 FEW045CB 21/21 Q1018=
2009092901 - SBKP 290100Z 09006KT CAVOK 21/21 Q1018 RETS=
2009092902 - SBKP 290200Z 09005KT CAVOK 21/21 Q1017=
2009092903 - SBKP 290300Z 06004KT CAVOK 20/20 Q1017=
2009092904 - SBKP 290400Z 02001KT CAVOK 20/20 Q1017=
2009092905 - SBKP 290500Z 06003KT CAVOK 20/20 Q1017=
2009092906 - SBKP 290600Z 18003KT 9999 FEW045 SCT080 20/20 Q1017=
2009092907 - SBKP 290700Z 16005KT 9000 SCT045 SCT080 20/20 Q1017=
2009092908 - SBKP 290800Z 12003KT 9000 BKN030 OVC080 20/20 Q1018=
2009092909 - SBKP 290900Z 10004KT 7000 OVC028 20/20 Q1018=
2009092910 - SBKP 291000Z 12005KT 8000 OVC017 20/20 Q1019=
2009092910 - SBKP 291025Z 12007KT 4000 -RA BR FEW006 OVC015 20/20 Q1019=
2009092911 - SBKP 291100Z 11010KT 4000 -RA BR OVC014 19/19 Q1020=
2009092912 - SBKP 291200Z 11011KT 6000 OVC014 19/19 Q1020=
2009092913 - SBKP 291300Z 11013KT 9999 OVC015 19/19 Q1020=
2009092914 - SBKP 291400Z 12014KT 9999 OVC017 20/20 Q1021=
2009092915 - SBKP 291500Z 13012KT 9999 OVC018 20/20 Q1021=
2009092916 - SBKP 291600Z 12011KT 8000 OVC018 20/19 Q1020=
2009092917 - SBKP 291700Z 12012KT 8000 OVC018 20/19 Q1020=
2009092918 - SBKP 291800Z 13013KT 9999 OVC018 19/18 Q1020=
2009092919 - SBKP 291900Z 13015KT 9999 BKN020 BKN080 19/18 Q1020=
2009092920 - SBKP 292000Z 12013KT 9999 SCT020 SCT070 BKN080 19/17 Q1020=
2009092921 - SBKP 292100Z 12015KT 9999 BKN025 18/17 Q1021=
2009092922 - SBKP 292200Z 12014KT 9999 BKN025 18/17 Q1021=
2009092923 - SBKP 292300Z 13016KT 9999 BKN025 18/16 Q1022=
2009093000 - SBKP 300000Z 14013KT 9999 BKN035 17/16 Q1023=
2009093001 - SBKP 300100Z 12016KT 9999 SCT035 16/15 Q1022=
2009093002 - SBKP 300200Z 13017KT 9999 SCT035 16/15 Q1023=
2009093003 - SBKP 300300Z 14021KT 9999 SCT015 16/15 Q1023=
2009093004 - SBKP 300400Z 14016KT 9999 FEW015 SCT040 16/15 Q1022=
2009093005 - SBKP 300500Z 14015KT 9999 SCT015 BKN040 16/15 Q1022=
2009093006 - SBKP 300600Z 13015KT 9999 SCT015 BKN040 16/14 Q1022=
2009093007 - SBKP 300700Z 12014KT 9999 SCT015 OVC040 15/14 Q1022=
2009093008 - SBKP 300800Z 13015KT 9999 SCT015 OVC040 15/14 Q1022=
2009093009 - SBKP 300900Z 13012KT 9999 SCT015 OVC040 15/14 Q1022=
2009093010 - SBKP 301000Z 13018KT 9999 SCT020 BKN040 15/14 Q1023=
2009093011 - SBKP 301100Z 13017KT 9999 SCT020 BKN040 16/13 Q1024=
2009093012 - SBKP 301200Z 13019KT 9999 SCT025 BKN050 17/14 Q1024 WS R15=
2009093013 - SBKP 301300Z 13020G30KT 9999 BKN025 SCT050 18/13 Q1024=
2009093014 - SBKP 301400Z 14019KT 9999 BKN028 SCT050 18/13 Q1024=
2009093015 - SBKP 301500Z 14019KT 9999 BKN028 18/13 Q1023=
2009093016 - SBKP 301600Z 14021KT 9999 BKN025 18/13 Q1023=
2009093017 - SBKP 301700Z 14020KT 9999 BKN030 19/13 Q1022=
2009093018 - SBKP 301800Z 14018KT 9999 BKN030 19/13 Q1021=
2009093019 - SBKP 301900Z 14019KT 9999 BKN028 20/13 Q1021=
2009093020 - SBKP 302000Z 14020KT 9999 FEW025 18/13 Q1022=
2009093021 - SBKP 302100Z 14018KT 9999 FEW025 17/12 Q1022=
2009093022 - SBKP 302200Z 13023KT 9999 FEW025 15/13 Q1022=
2009093023 - SBKP 302300Z 12016KT 9999 FEW025 15/13 Q1022=
2009100100 - SBKP 010000Z 13015KT 9999 FEW025 SCT070 15/13 Q1023=
2009100101 - SBKP 010100Z 13014KT 9999 FEW025 15/13 Q1023=
2009100102 - SBKP 010200Z 12015KT CAVOK 15/13 Q1022=
2009100103 - SBKP 010300Z 12015KT CAVOK 14/14 Q1022=
2009100104 - SBKP 010400Z 12015KT CAVOK 14/14 Q1021=
2009100105 - SBKP 010500Z 11016KT CAVOK 14/14 Q1020=
2009100106 - SBKP 010600Z 11018KT CAVOK 14/14 Q1019=
2009100107 - SBKP 010700Z 12016KT CAVOK 14/14 Q1019=
2009100108 - SBKP 010800Z 11015KT CAVOK 14/14 Q1019=
2009100109 - SBKP 010900Z 12014KT CAVOK 14/14 Q1020=
2009100110 - SBKP 011000Z 13015KT CAVOK 15/14 Q1021=
2009100111 - SBKP 011100Z 12014KT CAVOK 16/14 Q1022=
2009100112 - SBKP 011200Z 12013KT CAVOK 18/15 Q1022=
2009100113 - SBKP 011300Z 11012KT CAVOK 20/16 Q1022=
2009100114 - SBKP 011400Z 13011KT CAVOK 21/16 Q1021=
2009100115 - SBKP 011500Z 13009KT CAVOK 22/16 Q1021=
2009100116 - SBKP 011600Z 14006KT CAVOK 24/17 Q1020=
2009100117 - SBKP 011700Z 13007KT CAVOK 26/17 Q1018=
2009100118 - SBKP 011800Z 11003KT CAVOK 27/17 Q1018=
2009100119 - SBKP 011900Z 13003KT 9999 FEW045 27/17 Q1017=
2009100120 - SBKP 012000Z 19006KT 9999 FEW045 BKN085 26/17 Q1017=
2009100121 - SBKP 012100Z 18006KT 9999 FEW040 BKN085 26/17 Q1017=
2009100122 - SBKP 012200Z 11006KT CAVOK 23/17 Q1018=
2009100123 - SBKP 012300Z 12012KT CAVOK 21/17 Q1018=
2009100200 - SBKP 020000Z 12012KT CAVOK 19/17 Q1019=
2009100201 - SBKP 020100Z 11013KT CAVOK 19/17 Q1019=
2009100202 - SBKP 020200Z 11013KT CAVOK 18/17 Q1019=
2009100203 - SBKP 020300Z 12011KT 8000 NSC 18/17 Q1018=
2009100204 - SBKP 020400Z 12009KT 8000 NSC 18/18 Q1018=
2009100205 - SBKP 020500Z 13009KT CAVOK 18/18 Q1017=
2009100206 - SBKP 020600Z 16006KT 9999 FEW040 BKN070 18/18 Q1017=
2009100207 - SBKP 020700Z 10006KT 9999 FEW040 BKN070 17/17 Q1017=
2009100208 - SBKP 020800Z 12006KT CAVOK 17/17 Q1017=
2009100209 - SBKP 020900Z 10007KT CAVOK 17/17 Q1018=
2009100210 - SBKP 021000Z 10005KT CAVOK 18/18 Q1018=
2009100211 - SBKP 021100Z 05002KT 8000 NSC 21/18 Q1019=
2009100212 - SBKP 021200Z 36004KT 7000 NSC 23/19 Q1019=
2009100213 - SBKP 021300Z 36006KT 7000 NSC 26/20 Q1019=
2009100214 - SBKP 021400Z 32008KT 7000 FEW025 28/20 Q1019=
2009100215 - SBKP 021500Z 30008KT 7000 SCT025 29/20 Q1019=
2009100216 - SBKP 021600Z 32008KT 9999 BKN035 29/20 Q1018=
2009100217 - SBKP 021700Z 28008KT 9999 BKN035 30/19 Q1017=
2009100218 - SBKP 021800Z 27008KT 9999 SCT045 30/19 Q1016=
2009100219 - SBKP 021900Z 29006KT 9999 SCT045 31/18 Q1015=
2009100220 - SBKP 022000Z 27007KT 9999 FEW045 30/18 Q1015=
2009100221 - SBKP 022100Z 25005KT 9999 FEW045 29/18 Q1016=
2009100222 - SBKP 022200Z 20005KT 9999 FEW045 28/17 Q1015=
2009100223 - SBKP 022300Z 19005KT CAVOK 27/18 Q1016=
2009100200 - SBKP 020000Z 12012KT CAVOK 19/17 Q1019=
2009100201 - SBKP 020100Z 11013KT CAVOK 19/17 Q1019=
2009100202 - SBKP 020200Z 11013KT CAVOK 18/17 Q1019=
2009100203 - SBKP 020300Z 12011KT 8000 NSC 18/17 Q1018=
2009100204 - SBKP 020400Z 12009KT 8000 NSC 18/18 Q1018=
2009100205 - SBKP 020500Z 13009KT CAVOK 18/18 Q1017=
2009100206 - SBKP 020600Z 16006KT 9999 FEW040 BKN070 18/18 Q1017=
2009100207 - SBKP 020700Z 10006KT 9999 FEW040 BKN070 17/17 Q1017=
2009100208 - SBKP 020800Z 12006KT CAVOK 17/17 Q1017=
2009100209 - SBKP 020900Z 10007KT CAVOK 17/17 Q1018=
2009100210 - SBKP 021000Z 10005KT CAVOK 18/18 Q1018=
2009100211 - SBKP 021100Z 05002KT 8000 NSC 21/18 Q1019=
2009100212 - SBKP 021200Z 36004KT 7000 NSC 23/19 Q1019=
2009100213 - SBKP 021300Z 36006KT 7000 NSC 26/20 Q1019=
2009100214 - SBKP 021400Z 32008KT 7000 FEW025 28/20 Q1019=
2009100215 - SBKP 021500Z 30008KT 7000 SCT025 29/20 Q1019=
2009100216 - SBKP 021600Z 32008KT 9999 BKN035 29/20 Q1018=
2009100217 - SBKP 021700Z 28008KT 9999 BKN035 30/19 Q1017=
2009100218 - SBKP 021800Z 27008KT 9999 SCT045 30/19 Q1016=
2009100219 - SBKP 021900Z 29006KT 9999 SCT045 31/18 Q1015=
2009100220 - SBKP 022000Z 27007KT 9999 FEW045 30/18 Q1015=
2009100221 - SBKP 022100Z 25005KT 9999 FEW045 29/18 Q1016=
2009100222 - SBKP 022200Z 20005KT 9999 FEW045 28/17 Q1015=
2009100223 - SBKP 022300Z 19005KT CAVOK 27/18 Q1016=
2009100300 - SBKP 030000Z 13006KT CAVOK 24/19 Q1017=
2009100401 - SBKP 040100Z 13010KT 8000 NSC 20/19 Q1021=
2009100402 - SBKP 040200Z 11006KT 8000 NSC 19/19 Q1021=
2009100403 - SBKP 040300Z 13007KT 8000 NSC 19/19 Q1020=
2009100404 - SBKP 040400Z 12010KT 8000 NSC 19/19 Q1020=
2009100405 - SBKP 040500Z 11009KT 8000 NSC 18/18 Q1019=
2009100406 - SBKP 040600Z 12009KT 8000 NSC 18/18 Q1018=
2009100407 - SBKP 040700Z 12010KT 8000 NSC 18/18 Q1018=
2009100408 - SBKP 040800Z 11011KT 7000 NSC 18/18 Q1018=
2009100409 - SBKP 040900Z 12014KT 3200 BR NSC 18/18 Q1019=
2009100410 - SBKP 041000Z 11011KT 3200 BR NSC 19/19 Q1019=
2009100411 - SBKP 041100Z 12011KT 3500 BR FEW010 20/20 Q1020=
2009100412 - SBKP 041200Z 12011KT 3700 BR NSC 22/19 Q1020=
2009100413 - SBKP 041300Z 11014KT 4000 BR NSC 23/19 Q1020=
2009100414 - SBKP 041400Z 11011KT 4500 HZ NSC 25/19 Q1020=
2009100415 - SBKP 041500Z 11010KT 4500 HZ NSC 25/19 Q1019=
2009100416 - SBKP 041600Z 11010KT 5000 HZ NSC 26/19 Q1019=
2009100417 - SBKP 041700Z 11010KT 5000 HZ NSC 26/19 Q1018=
2009100418 - SBKP 041800Z 12010KT 8000 NSC 27/19 Q1017=
2009100419 - SBKP 041900Z 14012KT CAVOK 26/19 Q1017=
2009100420 - SBKP 042000Z 14012KT CAVOK 25/18 Q1017=
2009100421 - SBKP 042100Z 14013KT 7000 NSC 23/18 Q1017=
2009100422 - SBKP 042200Z 14011KT CAVOK 22/18 Q1017=
2009100423 - SBKP 042300Z 14009KT CAVOK 21/18 Q1018=
2009100500 - SBKP 050000Z 14011KT CAVOK 20/19 Q1018=
2009100501 - SBKP 050100Z 14015KT CAVOK 20/20 Q1017=
2009100502 - SBKP 050200Z 14015KT CAVOK 19/19 Q1017=
2009100503 - SBKP 050300Z 11013KT CAVOK 19/19 Q1017=
2009100504 - SBKP 050400Z 11011KT CAVOK 19/19 Q1017=
2009100505 - SBKP 050500Z 11009KT CAVOK 18/18 Q1016=
2009100506 - SBKP 050600Z 12006KT CAVOK 18/18 Q1016=
2009100507 - SBKP 050700Z 10007KT CAVOK 18/18 Q1016=
2009100508 - SBKP 050800Z 12012KT CAVOK 18/18 Q1016=
2009100509 - SBKP 050900Z 12011KT 8000 NSC 18/18 Q1017=
2009100510 - SBKP 051000Z 11010KT 6000 2900SE NSC 19/19 Q1018=
2009100511 - SBKP 051100Z 11010KT 7000 NSC 21/20 Q1018=
2009100512 - SBKP 051200Z 11009KT 9000 NSC 22/20 Q1018=
2009100513 - SBKP 051300Z 05004KT CAVOK 26/19 Q1018=
2009100514 - SBKP 051400Z 03004KT CAVOK 27/18 Q1018=
2009100515 - SBKP 051500Z 36006KT 9999 FEW030 28/18 Q1017=
2009100516 - SBKP 051600Z 34007KT 9999 FEW040 30/17 Q1015=
2009100517 - SBKP 051700Z 36008KT 9999 FEW040 31/16 Q1015=
2009100518 - SBKP 051800Z 34007KT 9999 FEW040 32/14 Q1014=
2009100519 - SBKP 051900Z 33005KT 9999 FEW040 31/14 Q1014=
2009100520 - SBKP 052000Z 27005KT 9999 FEW040 31/14 Q1013=
2009100521 - SBKP 052100Z 33002KT 9999 FEW040 30/15 Q1014=
2009100522 - SBKP 052200Z 34003KT 9999 FEW040 28/15 Q1014=
2009100523 - SBKP 052300Z 09001KT CAVOK 27/17 Q1014=
2009100600 - SBKP 060000Z 15004KT CAVOK 26/17 Q1015=
2009100601 - SBKP 060100Z 12007KT 9999 VCTS FEW040CB 25/17 Q1016=
2009100602 - SBKP 060200Z 11007KT CAVOK 23/17 Q1016=
2009100603 - SBKP 060300Z 11008KT CAVOK 22/18 Q1016=
2009100604 - SBKP 060400Z 11008KT CAVOK 22/17 Q1016=
2009100605 - SBKP 060500Z 09005KT CAVOK 21/18 Q1015=
2009100606 - SBKP 060600Z 11007KT CAVOK 21/18 Q1015=
2009100607 - SBKP 060700Z 35004KT CAVOK 20/19 Q1016=
2009100608 - SBKP 060800Z 06004KT CAVOK 20/19 Q1016=
2009100609 - SBKP 060900Z 09004KT CAVOK 20/19 Q1017=
2009100610 - SBKP 061000Z 10005KT CAVOK 22/19 Q1017=
2009100611 - SBKP 061100Z 36004KT 9000 NSC 24/19 Q1018=
2009100612 - SBKP 061200Z 08001KT CAVOK 26/19 Q1018=
2009100613 - SBKP 061300Z 32005KT 9999 FEW040 BKN100 26/19 Q1018=
2009100614 - SBKP 061400Z 07002KT 9999 FEW040 BKN100 28/19 Q1017=
2009100615 - SBKP 061500Z 33007KT 9999 FEW040 SCT100 29/19 Q1017=
2009100616 - SBKP 061600Z 32008KT 9999 SCT040 SCT100 30/18 Q1017=
2009100617 - SBKP 061700Z 29007KT 9999 SCT040 31/18 Q1016=
2009100618 - SBKP 061800Z 27006KT 9999 FEW040 FEW045TCU 31/18 Q1015=
2009100619 - SBKP 061900Z 27006KT 9999 VCSH FEW040 FEW045TCU 30/18 Q1015=
2009100620 - SBKP 062000Z 30007KT 9999 FEW040 FEW045TCU SCT100 27/19 Q1016=
2009100621 - SBKP 062100Z 27007KT 8000 FEW040 FEW045TCU SCT100 27/19 Q1016=
2009100622 - SBKP 062200Z 13008KT 9999 VCTS FEW025 SCT040 FEW045CB 27/20 Q1017=
2009100622 - SBKP 062245Z 05014KT 9999 TS FEW025 SCT040 SCT045CB BKN090 25/17 Q1018=
2009100623 - SBKP 062300Z 04018G28KT 1500 R15/P2000 R33/P2000 TSRA FEW025 SCT040 SCT045CB BKN090 24/18 Q1018=
2009100623 - SBKP 062308Z 03023G35KT 1000 R15/P2000 R33/1900 +TSRA SCT025 SCT040 SCT045CB BKN090 19/19 Q1019=
2009100623 - SBKP 062325Z 05015KT 3000 TSRA SCT025 SCT040 SCT045CB BKN090 19/19 Q1019 RERA=
2009100623 - SBKP 062345Z 07014KT 7000 -TSRA FEW025 SCT040 FEW045CB BKN090 19/19 Q1018 RERA=
2009100700 - SBKP 070000Z 07012KT 5000 -TSRA BR SCT020 SCT040 FEW045CB BKN090 19/19 Q1020 RERA=
2009100700 - SBKP 070018Z 36008KT 3000 +TSRA BR SCT015 SCT030 FEW045CB BKN080 19/19 Q1022=
2009100701 - SBKP 070100Z 04011KT 6000 -TSRA SCT015 SCT030 FEW045CB OVC090 19/19 Q1020 RERA=
2009100702 - SBKP 070200Z 05007KT 9999 FEW015 BKN100 20/20 Q1019 RETS=
2009100703 - SBKP 070300Z 15007KT 9999 FEW015 SCT030 BKN100 20/20 Q1019=
2009100704 - SBKP 070400Z 11005KT 9999 SCT030 BKN100 19/19 Q1017=
2009100705 - SBKP 070500Z 11007KT 9999 SCT030 BKN100 19/19 Q1017=
2009100706 - SBKP 070600Z 11005KT 9999 FEW035 BKN100 19/19 Q1017=
2009100707 - SBKP 070700Z 13007KT 9999 FEW035 BKN100 19/19 Q1017=
2009100708 - SBKP 070800Z 12009KT CAVOK 19/19 Q1017=
2009100709 - SBKP 070900Z 12006KT CAVOK 18/18 Q1017=
2009100710 - SBKP 071000Z 12009KT CAVOK 20/20 Q1018=
2009100711 - SBKP 071100Z 13005KT CAVOK 22/20 Q1019=
2009100712 - SBKP 071200Z 11006KT CAVOK 24/18 Q1019=
2009100713 - SBKP 071300Z 08003KT 9999 FEW030 26/18 Q1019=
2009100714 - SBKP 071400Z 05002KT 9999 SCT030 27/18 Q1019=
2009100715 - SBKP 071500Z 10002KT 9999 SCT040 27/18 Q1018=
2009100716 - SBKP 071600Z 33004KT 9999 SCT040 28/18 Q1018=
2009100717 - SBKP 071700Z 32003KT 9999 SCT040 SCT100 28/19 Q1017=
2009100718 - SBKP 071800Z 14010KT 9999 SCT040 FEW045TCU BKN100 26/21 Q1016=
2009100719 - SBKP 071900Z 14014KT 6000 SCT040 FEW045TCU BKN100 25/20 Q1016=
2009100720 - SBKP 072000Z 12013KT 9000 SCT040 FEW045TCU BKN100 23/20 Q1017=
2009100721 - SBKP 072100Z 12016KT 9000 FEW040 FEW045TCU BKN100 21/19 Q1018=
2009100722 - SBKP 072200Z 12016G26KT 8000 SCT040 FEW045TCU BKN100 20/19 Q1019=
2009100723 - SBKP 072300Z 14014G24KT 9999 FEW020 SCT040 BKN100 20/19 Q1019=
2009100800 - SBKP 080000Z 14017KT 9999 SCT016 BKN100 20/19 Q1019=
2009100801 - SBKP 080100Z 14017KT 9999 SCT016 BKN090 20/18 Q1020=
2009100802 - SBKP 080200Z 13012KT 9999 SCT015 BKN090 19/18 Q1019=
2009100803 - SBKP 080300Z 14013KT 9999 SCT015 BKN090 19/18 Q1019=
2009100804 - SBKP 080400Z 13014KT 9999 FEW015 SCT040 BKN090 19/19 Q1019=
2009100805 - SBKP 080500Z 13014KT 9999 FEW015 SCT040 BKN090 19/19 Q1018=
2009100806 - SBKP 080600Z 13013KT 9999 FEW015 BKN040 BKN100 19/19 Q1018=
2009100807 - SBKP 080700Z 14009KT 9999 FEW015 BKN040 BKN080 19/19 Q10118=
2009100808 - SBKP 080800Z 16006KT 9999 BKN015 BKN100 19/19 Q1018=
2009100809 - SBKP 080900Z 14008KT 9999 FEW015 BKN050 BKN070 19/19 Q1018=
2009100810 - SBKP 081000Z 13008KT 9999 FEW015 BKN050 BKN070 19/19 Q1019=
2009100811 - SBKP 081100Z 21006KT 9999 SCT020 OVC050 20/20 Q1020=
2009100811 - SBKP 081115Z 20006KT 3000 -RA BR SCT020 OVC050 20/20 Q1020=
2009100812 - SBKP 081200Z 14002KT 9999 -RA BKN020 OVC050 19/19 Q1020=
2009100813 - SBKP 081300Z 12004KT 9999 SCT012 BKN040 OVC080 20/20 Q1019=
2009100814 - SBKP 081400Z 14010KT 9999 FEW015 BKN030 OVC080 20/19 Q1019=
2009100815 - SBKP 081500Z 18009KT 9999 -RA BKN018 OVC080 20/19 Q1019=
2009100816 - SBKP 081600Z 20010KT 9999 SCT020 OVC080 19/18 Q1019=
2009100817 - SBKP 081700Z 21009KT 6000 -RA BKN025 OVC080 18/18 Q1019=
2009100817 - SBKP 081715Z 18009KT 3500 -RA BR SCT025 OVC080 18/18 Q1018=
2009100818 - SBKP 081800Z 20009KT 8000 -RA BKN030 OVC080 19/19 Q1018=
2009100819 - SBKP 081900Z 17010KT 9999 3000W -RA BKN025 OVC070 18/18 Q1018=
2009100820 - SBKP 082000Z 14008KT 8000 -RA SCT025 BKN070 18/18 Q1018=
2009100821 - SBKP 082100Z 15008KT 8000 -RA SCT010 SCT025 BKN070 17/17 Q1019=
2009100822 - SBKP 082200Z 17010KT 9999 BKN030 17/17 Q1019=
2009100823 - SBKP 082300Z 17009KT 9999 BKN020 17/17 Q1019=
2009100900 - SBKP 090000Z 17011KT 9999 BKN020 16/15 Q1020=
2009100901 - SBKP 090100Z 13006KT 9999 FEW020 15/15 Q1020=
2009100902 - SBKP 090200Z 16006KT CAVOK 15/14 Q1020=
2009100903 - SBKP 090300Z 16004KT CAVOK 15/14 Q1020=
2009100904 - SBKP 090400Z 15006KT 9999 FEW020 BKN080 15/14 Q1019=
2009100905 - SBKP 090500Z 16007KT 9999 BKN025 BKN080 15/14 Q1019=
2009100906 - SBKP 090600Z 14010KT 9999 SCT025 BKN090 15/13 Q1018=
2009100907 - SBKP 090700Z 16006KT 9999 FEW025 BKN090 15/14 Q1018=
2009100908 - SBKP 090800Z 16006KT 9999 SCT020 BKN090 15/14 Q1019=
2009100909 - SBKP 090900Z 14013KT 9999 BKN020 15/14 Q1019=
2009100910 - SBKP 091000Z 14012KT 9999 BKN020 15/14 Q1019=
2009100911 - SBKP 091100Z 16016KT 9999 BKN016 16/14 Q1020=
2009100912 - SBKP 091200Z 15015KT 9999 BKN019 17/14 Q1020=
2009100913 - SBKP 091300Z 15015KT 9999 BKN024 18/14 Q1020=
2009100914 - SBKP 091400Z 16017KT 9999 BKN027 19/14 Q1020=
2009100915 - SBKP 091500Z 17014KT 9999 BKN027 19/15 Q1019=
2009100916 - SBKP 091600Z 14015KT 9999 BKN027 20/15 Q1019=
2009100917 - SBKP 091700Z 15014KT 9999 SCT030 20/15 Q1018=
2009100918 - SBKP 091800Z 16018KT 9999 SCT030 20/15 Q1017=
2009100919 - SBKP 091900Z 13017KT 9999 SCT030 20/14 Q1017=
2009100920 - SBKP 092000Z 13018KT 9999 FEW030 18/14 Q1017=
2009100921 - SBKP 092100Z 14016KT 9999 SCT030 17/14 Q1017=
2009100922 - SBKP 092200Z 14016KT 9999 FEW030 16/14 Q1018=
2009100923 - SBKP 092300Z 15015KT 9999 FEW030 16/14 Q1018=
2009101000 - SBKP 100000Z 14015KT 9999 SCT020 16/14 Q1018=
2009101001 - SBKP 100100Z 13013KT 9999 BKN019 15/14 Q1019=
2009101002 - SBKP 100200Z 14012KT 9999 BKN019 15/14 Q1019=
2009101003 - SBKP 100300Z 13008KT 9999 SCT020 15/14 Q1019=
2009101004 - SBKP 100400Z 14013KT 9999 SCT025 15/14 Q1018=
2009101005 - SBKP 100500Z 12008KT 9999 SCT024 14/14 Q1017=
2009101006 - SBKP 100600Z 13012KT 9999 FEW024 14/14 Q1017=
2009101007 - SBKP 100700Z 13011KT 9999 FEW025 14/14 Q1017=
2009101008 - SBKP 100800Z 13010KT 9999 FEW025 14/14 Q1017=
2009101009 - SBKP 100900Z 12013KT 9999 FEW025 14/14 Q1017=
2009101010 - SBKP 101000Z 12014KT 9999 FEW025 15/14 Q1018=
2009101011 - SBKP 101100Z 11015KT 9999 FEW025 17/15 Q1018=
2009101012 - SBKP 101200Z 12013KT 9999 FEW025 19/15 Q1019=
2009101013 - SBKP 101300Z 12010KT 9999 FEW025 21/15 Q1018=
2009101014 - SBKP 101400Z 11006KT 9999 BKN040 23/15 Q1018=
2009101015 - SBKP 101500Z 14008KT 9999 BKN040 23/15 Q1017=
2009101016 - SBKP 101600Z 14010KT 9999 BKN040 23/15 Q1017=
2009101017 - SBKP 101700Z 13010KT 9999 BKN040 SCT070 23/15 Q1016=
2009101018 - SBKP 101800Z 13010KT 9999 SCT040 24/16 Q1015=
2009101019 - SBKP 101900Z 12014KT 9999 SCT035 23/16 Q1015=
2009101020 - SBKP 102000Z 12015KT 9999 FEW035 21/15 Q1015=
2009101021 - SBKP 102100Z 12017KT CAVOK 19/15 Q1015=
2009101022 - SBKP 102200Z 12015KT CAVOK 17/15 Q1016=
2009101023 - SBKP 102300Z 12015KT CAVOK 16/15 Q1016=
2009101100 - SBKP 110000Z 13014KT CAVOK 16/16 Q1016=
2009101101 - SBKP 110100Z 11014KT CAVOK 16/15 Q1016=
2009101102 - SBKP 110200Z 12015KT 9999 FEW020 15/15 Q1016=
2009101103 - SBKP 110300Z 12014KT 9999 FEW020 15/15 Q1015=
2009101104 - SBKP 110400Z 11014KT 9999 FEW020 15/15 Q1015=
2009101105 - SBKP 110500Z 11012KT 9999 FEW020 15/15 Q1013=
2009101106 - SBKP 110600Z 12012KT CAVOK 15/15 Q1013=
2009101107 - SBKP 110700Z 12012KT CAVOK 15/15 Q1013=
2009101108 - SBKP 110800Z 11010KT CAVOK 15/15 Q1013=
2009101109 - SBKP 110900Z 11010KT CAVOK 15/15 Q1014=
2009101110 - SBKP 111000Z 11010KT CAVOK 17/16 Q1015=
2009101111 - SBKP 111100Z 12008KT CAVOK 19/17 Q1016=
2009101112 - SBKP 111200Z 11007KT CAVOK 21/17 Q1016=
2009101113 - SBKP 111300Z 07005KT 9999 FEW023 24/16 Q1016=
2009101114 - SBKP 111400Z 04005KT 9999 FEW035 25/16 Q1015=
2009101115 - SBKP 111500Z 36006KT 9999 FEW035 27/17 Q1014=
2009101116 - SBKP 111600Z 36004KT 9999 SCT040 28/16 Q1013=
2009101117 - SBKP 111700Z 31009KT 9999 SCT045 29/15 Q1012=
2009101118 - SBKP 111800Z 35009KT 9999 SCT045 31/13 Q1011=
2009101119 - SBKP 111900Z 33010KT 9999 SCT045 30/13 Q1011=
2009101120 - SBKP 112000Z 35005KT 9999 FEW045 30/13 Q1011=
2009101121 - SBKP 112100Z 36004KT 9999 FEW045 29/14 Q1011=
2009101122 - SBKP 112200Z 02004KT 9999 FEW045 SCT080 28/15 Q1011=
2009101123 - SBKP 112300Z 07004KT CAVOK 26/15 Q1011=
2009101200 - SBKP 120000Z 08005KT CAVOK 25/16 Q1011=
2009101201 - SBKP 120100Z 08005KT CAVOK 24/15 Q1011=
2009101202 - SBKP 120200Z 08004KT CAVOK 23/16 Q1012=
2009101203 - SBKP 120300Z 11007KT CAVOK 21/17 Q1011=
2009101204 - SBKP 120400Z 11007KT CAVOK 20/17 Q1011=
2009101205 - SBKP 120500Z 10006KT CAVOK 20/18 Q1010=
2009101206 - SBKP 120600Z 10005KT CAVOK 19/18 Q1010=
2009101207 - SBKP 120700Z 09006KT CAVOK 19/18 Q1009=
2009101208 - SBKP 120800Z 11004KT CAVOK 19/17 Q1010=
2009101209 - SBKP 120900Z 03003KT CAVOK 19/17 Q1011=
2009101210 - SBKP 121000Z 01006KT CAVOK 21/18 Q1012=
2009101211 - SBKP 121100Z 02007KT CAVOK 24/17 Q1012=
2009101212 - SBKP 121200Z 02012KT CAVOK 26/17 Q1012=
2009101213 - SBKP 121300Z 10015G25KT 9999 FEW035 SCT100 27/17 Q1012=
2009101214 - SBKP 121400Z 36016KT 9999 FEW035 SCT100 28/17 Q1013=
2009101215 - SBKP 121500Z 35015KT 9999 FEW030 BKN090 28/17 Q1013=
2009101216 - SBKP 121600Z 24021G34KT 2500 TSRA BR SCT010 BKN030 FEW040CB BKN090 20/20 Q1014=
2009101216 - SBKP 121613Z 24020KT 4000 -TSRA BR SCT009 BKN030 FEW040CB BKN090 19/19 Q1015 RERA=
2009101217 - SBKP 121700Z 21012KT 7000 -RA SCT012 SCT030 BKN090 19/19 Q1014 RETSRA=
2009101217 - SBKP 121730Z 23008KT 6000 -TSRA FEW012 SCT030 FEW040CB OVC090 19/19 Q1014=
2009101218 - SBKP 121800Z 21006KT 7000 -RA FEW012 OVC090 19/19 Q1014 RETS=
2009101219 - SBKP 121900Z 09003KT 9999 -RA FEW012 OVC090 19/19 Q1012=
2009101220 - SBKP 122000Z 06005KT 9999 -RA FEW030 OVC090 20/20 Q1012=
2009101221 - SBKP 122100Z 04007KT 9999 SCT030 SCT070 OVC100 20/20 Q1012=
2009101222 - SBKP 122200Z 35007KT 9999 FEW030 SCT070 BKN100 19/19 Q1013=
2009101223 - SBKP 122300Z 36003KT 9999 FEW030 BKN100 19/19 Q1013=
2009101300 - SBKP 130000Z 05002KT 9999 FEW030 BKN100 19/19 Q1014=
2009101301 - SBKP 130100Z 03002KT CAVOK 19/19 Q1014=
2009101302 - SBKP 130200Z 35003KT CAVOK 18/18 Q1015=
2009101303 - SBKP 130300Z 01002KT 9999 FEW040 18/18 Q1014=
2009101304 - SBKP 130400Z 09003KT 9999 SCT030 17/17 Q1014=
2009101305 - SBKP 130500Z 10004KT 9999 SCT030 18/18 Q1013=
2009101306 - SBKP 130600Z 11005KT 9999 BKN030 18/18 Q1013=
2009101307 - SBKP 130700Z 16005KT 9999 BKN040 18/18 Q1013=
2009101308 - SBKP 130800Z 15005KT 9999 BKN040 18/18 Q1014=
2009101309 - SBKP 130900Z 12003KT 9999 BKN035 18/18 Q1015=
2009101310 - SBKP 131000Z 13007KT 8000 BKN047 19/19 Q1015=
2009101311 - SBKP 131100Z 13015KT 9999 BKN020 SCT047 20/20 Q1016=
2009101312 - SBKP 131200Z 12012KT 9999 BKN017 20/20 Q1017=
2009101313 - SBKP 131300Z 11010KT 9999 SCT017 21/19 Q1016=
2009101314 - SBKP 131400Z 12009KT 9999 SCT025 23/20 Q1016=
2009101315 - SBKP 131500Z 11006KT 9999 SCT025 SCT070 24/18 Q1016=
2009101316 - SBKP 131600Z 09006KT 9999 SCT035 25/19 Q1015=
2009101317 - SBKP 131700Z 12005KT 9999 SCT035 25/18 Q1014=
2009101318 - SBKP 131800Z 13002KT 9999 SCT035 26/18 Q1013=
2009101319 - SBKP 131900Z 13005KT 9999 SCT035 27/18 Q1013=
2009101320 - SBKP 132000Z 12010KT 9999 FEW035 23/19 Q1013=
2009101321 - SBKP 132100Z 13012KT 9999 FEW030 21/18 Q1014=
2009101322 - SBKP 132200Z 12013KT CAVOK 19/17 Q1015=
2009101323 - SBKP 132300Z 12016KT CAVOK 17/17 Q1015=
2009101400 - SBKP 140000Z 12015KT CAVOK 17/17 Q1015=
2009101401 - SBKP 140100Z 12016KT CAVOK 17/17 Q1015=
2009101402 - SBKP 140200Z 11015KT CAVOK 17/17 Q1015 WS R15=
2009101403 - SBKP 140300Z 11014KT CAVOK 17/17 Q1014=
2009101404 - SBKP 140400Z 11014KT CAVOK 16/16 Q1014=
2009101405 - SBKP 140500Z 11014KT CAVOK 16/16 Q1013=
2009101406 - SBKP 140600Z 11011KT CAVOK 16/16 Q1013=
2009101407 - SBKP 140700Z 14007KT CAVOK 16/16 Q1014=
2009101408 - SBKP 140800Z 14007KT 7000 NSC 16/16 Q1014=
2009101409 - SBKP 140900Z 15009KT 4000 BR NSC 16/16 Q1015=
2009101410 - SBKP 141000Z 15007KT 4000 BR FEW010 17/17 Q1015=
2009101411 - SBKP 141100Z 10006KT 4000 BR NSC 20/20 Q1016=
2009101412 - SBKP 141200Z 13006KT 8000 NSC 22/20 Q1016=
2009101413 - SBKP 141300Z 02003KT 8000 NSC 25/19 Q1015=
2009101414 - SBKP 141400Z 12002KT 8000 NSC 26/19 Q1015=
2009101415 - SBKP 141500Z 32006KT 9999 FEW030 28/20 Q1014=
2009101416 - SBKP 141600Z 32010KT 9999 FEW030 29/20 Q1013=
2009101417 - SBKP 141700Z 34007KT 9999 FEW030 30/18 Q1012=
2009101418 - SBKP 141800Z 29007KT 9999 FEW040 31/17 Q1012=
2009101419 - SBKP 141900Z 28006KT 9999 FEW040 31/16 Q1011=
2009101420 - SBKP 142000Z 24004KT 9999 FEW040 31/16 Q1011=
2009101421 - SBKP 142100Z 22006KT 9999 FEW040 29/17 Q1011=
2009101422 - SBKP 142200Z 18005KT 9999 TS FEW045CB 28/17 Q1011=
2009101422 - SBKP 142235Z 17005KT 9999 FEW045TCU 27/17 Q1011 RETS=
2009101423 - SBKP 142300Z 11005KT 9999 FEW045 25/18 Q1011 RETS=
2009101500 - SBKP 150000Z 09004KT 9999 FEW045 SCT060 25/18 Q1012=
2009101501 - SBKP 150100Z 01007KT 9999 FEW040 SCT060 25/20 Q1013=
2009101502 - SBKP 150200Z 01008KT 9999 FEW030 BKN055 24/20 Q1013=
2009101503 - SBKP 150300Z 03009KT 9999 FEW040 24/20 Q1013=
2009101504 - SBKP 150400Z 02007KT CAVOK 24/18 Q1012=
2009101505 - SBKP 150500Z 03008KT CAVOK 23/19 Q1012=
2009101506 - SBKP 150600Z 35007KT CAVOK 22/20 Q1012=
2009101507 - SBKP 150700Z 07004KT CAVOK 21/20 Q1012=
2009101508 - SBKP 150800Z 10002KT CAVOK 21/21 Q1012=
2009101509 - SBKP 150900Z 08004KT CAVOK 20/20 Q1012=
2009101510 - SBKP 151000Z 01004KT 9999 FEW040 SCT080 21/21 Q1013=
2009101510 - SBKP 151053Z 25016G26KT 3000 -TSRA BR FEW005 BKN015 FEW040CB BKN080 20/20 Q1016=
2009101511 - SBKP 151100Z 24018G28KT 3000 -TSRA BR BKN010 FEW040CB BKN080 19/19 Q1015=
2009101511 - SBKP 151117Z 22011KT 2500 TSRA BR SCT010 BKN040CB OVC080 19/19 Q1016=
2009101512 - SBKP 151200Z 20009KT 3000 -RA BR SCT007 BKN010 OVC080 19/19 Q1016 RETSRA=
2009101513 - SBKP 151300Z 09003KT 9999 -RA FEW006 SCT010 19/19 Q1016=
2009101514 - SBKP 151400Z 25003KT 9999 -RA SCT030 20/19 Q1016=
2009101515 - SBKP 151500Z 31004KT 9999 SCT030 BKN100 21/19 Q1015=
2009101516 - SBKP 151600Z 36005KT 9999 4000S -RA SCT030 OVC100 21/21 Q1014=
2009101517 - SBKP 151700Z 25011KT 9999 BKN010 BKN025 FEW040TCU OVC100 21/21 Q1015=
2009101518 - SBKP 151800Z 27010KT 9999 BKN020 OVC100 21/21 Q1015=
2009101519 - SBKP 151900Z 29012KT 9999 FEW015 SCT075 OVC100 20/20 Q1015=
2009101520 - SBKP 152000Z 03010KT 9999 -RA FEW013 SCT075 OVC100 19/19 Q1013=
2009101521 - SBKP 152100Z 05004KT 9999 FEW015 SCT070 OVC100 20/19 Q1013=
2009101522 - SBKP 152200Z 33005KT 9999 FEW020 SCT070 BKN100 19/19 Q1013=
2009101523 - SBKP 152300Z 13005KT CAVOK 19/19 Q1014=
2009101600 - SBKP 160000Z 10006KT CAVOK 18/18 Q1015=
2009101601 - SBKP 160100Z 12009KT CAVOK 18/18 Q1016=
2009101602 - SBKP 160200Z 13008KT CAVOK 18/18 Q1016=
2009101603 - SBKP 160300Z 11006KT CAVOK 18/18 Q1016=
2009101604 - SBKP 160400Z 13008KT CAVOK 18/18 Q1016=
2009101605 - SBKP 160500Z 13009KT CAVOK 18/18 Q1015=
2009101606 - SBKP 160600Z 12009KT CAVOK 17/17 Q1015=
2009101607 - SBKP 160700Z 13010KT CAVOK 17/17 Q1015=
2009101608 - SBKP 160800Z 15011KT CAVOK 18/18 Q1016=
2009101609 - SBKP 160900Z 16007KT 9000 NSC 18/18 Q1017=
2009101610 - SBKP 161000Z 13012KT 9000 NSC 19/19 Q1017=
2009101611 - SBKP 161100Z 15013KT CAVOK 21/20 Q1018=
2009101612 - SBKP 161200Z 14009KT CAVOK 22/19 Q1018=
2009101613 - SBKP 161300Z 14007KT CAVOK 23/19 Q1018=
2009101614 - SBKP 161400Z 17009KT 9999 FEW030 BKN090 24/19 Q1018=
2009101615 - SBKP 161500Z 15009KT 9999 SCT035 SCT090 26/18 Q1017=
2009101616 - SBKP 161600Z 14009KT 9999 SCT035 SCT090 25/18 Q1017=
2009101617 - SBKP 161700Z 15014KT 9999 FEW040 BKN090 25/18 Q1017=
2009101618 - SBKP 161800Z 15013KT 9999 FEW040 SCT100 25/18 Q1016=
2009101619 - SBKP 161900Z 12014KT 9999 FEW040 SCT100 23/18 Q1016=
2009101620 - SBKP 162000Z 13017KT 9999 FEW040 SCT100 22/18 Q1015=
2009101621 - SBKP 162100Z 13016KT CAVOK 20/17 Q1016=
2009101622 - SBKP 162200Z 12016KT CAVOK 19/17 Q1016=
2009101623 - SBKP 162300Z 12015KT 9999 FEW020 SCT100 18/17 Q1016=
2009101700 - SBKP 170000Z 11016KT 9999 FEW020 18/17 Q1017=
2009101701 - SBKP 170100Z 12015KT 9999 FEW020 SCT100 18/17 Q1017=
2009101702 - SBKP 170200Z 12016KT 9999 FEW020 SCT100 18/17 Q1017=
2009101703 - SBKP 170300Z 11016KT 9999 FEW020 BKN100 18/17 Q1017=
2009101704 - SBKP 170400Z 12014KT CAVOK 18/18 Q1016=
2009101705 - SBKP 170500Z 12015KT CAVOK 18/18 Q1016=
2009101706 - SBKP 170600Z 11012KT 9999 FEW020 18/18 Q1015=
2009101707 - SBKP 170700Z 11013KT 9999 FEW020 18/18 Q1015=
2009101708 - SBKP 170800Z 12012KT 9999 FEW020 18/18 Q1016=
2009101709 - SBKP 170900Z 13011KT 9999 SCT045 BKN100 18/18 Q1017=
2009101710 - SBKP 171000Z 12011KT 9999 BKN045 BKN100 18/18 Q1017=
2009101711 - SBKP 171100Z 12012KT 9999 BKN045 SCT070 BKN100 19/19 Q1018=
2009101712 - SBKP 171200Z 11014KT 9999 SCT045 SCT070 BKN100 21/19 Q1018=
2009101713 - SBKP 171300Z 12012KT 9999 SCT045 SCT080 BKN100 22/19 Q1018=
2009101714 - SBKP 171400Z 12009KT 9999 FEW030 SCT045 BKN080 23/20 Q1017=
2009101715 - SBKP 171500Z 18007KT 9999 SCT030 BKN050 BKN080 25/20 Q1017=
2009101716 - SBKP 171600Z 18008KT 9999 SCT030 BKN050 BKN100 25/20 Q1016=
2009101717 - SBKP 171700Z 13013KT 9999 SCT030 SCT100 24/20 Q1015=
2009101718 - SBKP 171800Z 16014KT 9999 SCT025 SCT050 BKN100 23/19 Q1015=
2009101719 - SBKP 171900Z 13014KT 9999 FEW025 SCT070 BKN100 21/18 Q1014=
2009101720 - SBKP 172000Z 14012KT 9999 SCT045 BKN090 21/18 Q1015=
2009101721 - SBKP 172100Z 13012KT 9999 FEW045 SCT100 20/18 Q1015=
2009101722 - SBKP 172200Z 13011KT CAVOK 20/19 Q1015=
2009101723 - SBKP 172300Z 11008KT CAVOK 20/19 Q1015=
2009101800 - SBKP 180000Z 11004KT CAVOK 19/19 Q1016=
2009101801 - SBKP 180100Z 15004KT CAVOK 19/19 Q1016=
2009101802 - SBKP 180200Z 19006KT CAVOK 19/19 Q1016=
2009101803 - SBKP 180300Z 16004KT 9999 FEW040 BKN080 19/19 Q1016=
2009101804 - SBKP 180400Z 12008KT 9999 FEW040 SCT080 18/18 Q1014=
2009101805 - SBKP 180500Z 12010KT 9999 FEW040 BKN070 18/18 Q1014=
2009101806 - SBKP 180600Z 10006KT 9999 FEW035 BKN070 18/18 Q1013=
2009101807 - SBKP 180700Z 23003KT 9999 VCTS FEW035 FEW040CB BKN070 19/19 Q1014=
2009101807 - SBKP 180715Z 34003KT 6000 TSRA SCT035 FEW040CB BKN070 18/18 Q1014=
2009101807 - SBKP 180725Z 03004KT 9999 -RA SCT035 BKN070 18/18 Q1014 RETSRA=
2009101808 - SBKP 180800Z 14005KT 9999 SCT040 BKN070 18/18 Q1015 RETSRA=
2009101809 - SBKP 180900Z 11005KT 9999 FEW010 BKN090 18/18 Q1015=
2009101810 - SBKP 181000Z 09005KT 9999 FEW020 BKN100 19/19 Q1015=
2009101811 - SBKP 181100Z 06005KT 9999 FEW012 SCT100 22/22 Q1015=
2009101812 - SBKP 181200Z 36005KT 9999 BKN020 SCT100 24/21 Q1015=
2009101813 - SBKP 181300Z 33007KT 9999 BKN020 SCT070 BKN100 25/21 Q1016=
2009101814 - SBKP 181400Z 32007KT 9999 BKN025 SCT080 BKN100 26/21 Q1015=
2009101815 - SBKP 181500Z 30007KT 9999 BKN030 SCT100 27/21 Q1015=
2009101816 - SBKP 181600Z 29006KT 9999 BKN035 SCT100 28/21 Q1014=
2009101817 - SBKP 181700Z 28005KT 9999 BKN045 SCT080 28/21 Q1013=
2009101818 - SBKP 181800Z 24005KT 9999 SCT045 29/21 Q1012=
2009101819 - SBKP 181900Z 24005KT 9999 SCT045 30/20 Q1011=
2009101820 - SBKP 182000Z 24007KT 9999 FEW045 FEW050TCU 29/20 Q1011=
2009101821 - SBKP 182100Z 19005KT 9999 TS VCSH FEW045 FEW050CB SCT080 28/20 Q1011=
2009101822 - SBKP 182200Z 01004KT 9999 FEW040 BKN080 22/22 Q1012 RETS WS R15=
2009101823 - SBKP 182300Z 13011KT CAVOK 23/23 Q1012=
2009101900 - SBKP 190000Z 14013KT 9999 FEW040 BKN100 22/22 Q1014=
2009101901 - SBKP 190100Z 13012KT 9999 VCTS FEW045CB BKN100 21/21 Q1014=
2009101902 - SBKP 190200Z 11010KT 9999 VCTS FEW045CB 21/21 Q1014=
2009101903 - SBKP 190300Z 11015KT 9999 FEW040 20/20 Q1013=
2009101904 - SBKP 190400Z 11011KT 9999 FEW040 20/20 Q1013=
2009101905 - SBKP 190500Z 12012KT 9999 SCT025 SCT040 20/20 Q1013=
2009101906 - SBKP 190600Z 12012KT 9999 SCT025 SCT030 BKN100 20/20 Q1014=
2009101906 - SBKP 190617Z 16007KT 4000 TSRA SCT025 SCT040CB BKN100 20/20 Q1014=
2009101906 - SBKP 190645Z 14014KT 6000 -TSRA FEW010 FEW040CB BKN100 19/19 Q1014 RERA=
2009101907 - SBKP 190700Z 15012KT 8000 -TSRA FEW010 FEW040CB BKN100 19/19 Q1014 RERA=
2009101907 - SBKP 190730Z 12008KT 9999 SCT020 BKN100 19/19 Q1013 RETS=
2009101908 - SBKP 190800Z 11013KT 9999 FEW020 BKN100 18/18 Q1013 RETS=
2009101909 - SBKP 190900Z 11013KT 8000 NSC 19/19 Q1012=
2009101910 - SBKP 191000Z 09007KT 7000 3000E NSC 19/19 Q1013=
2009101911 - SBKP 191100Z 08009KT 8000 NSC 21/21 Q1013=
2009101912 - SBKP 191200Z 12003KT 9000 NSC 22/22 Q1013=
2009101913 - SBKP 191300Z 14003KT CAVOK 24/22 Q1013=
2009101914 - SBKP 191400Z 02002KT 9999 FEW035 26/22 Q1013=
2009101915 - SBKP 191500Z 25001KT 9999 FEW040 SCT100 27/22 Q1012=
2009101916 - SBKP 191600Z 27005KT 9999 FEW035 FEW045TCU SCT100 27/21 Q1011=
2009101917 - SBKP 191700Z 24011KT 9999 TS VCSH SCT035 FEW045CB BKN100 26/22 Q1011=
2009101917 - SBKP 191740Z 23021KT 8000 TS VCSH SCT030 FEW045CB BKN100 23/21 Q1011=
2009101918 - SBKP 191800Z 22024KT 8000 TS VCSH FEW012 BKN030 FEW045CB BKN100 22/21 Q1011=
2009101919 - SBKP 191900Z 20016KT 9999 -TSRA BKN045 FEW050CB BKN100 22/19 Q1012=
2009101919 - SBKP 191940Z 17015KT 8000 3000S +RA FEW010 BKN030 BKN100 20/19 Q1012 RETS=
2009101920 - SBKP 192000Z 14014KT 9999 4000SE -RA FEW010 BKN035 OVC100 19/19 Q1013 RETSRA=
2009101921 - SBKP 192100Z 17011KT 9999 -RA SCT030 BKN045 OVC100 19/19 Q1015=
2009101922 - SBKP 192200Z 19007KT 9999 -RA BKN045 BKN070 OVC100 19/19 Q1014=
2009101923 - SBKP 192300Z 13004KT 9999 SCT045 BKN090 19/19 Q1014=
2009102000 - SBKP 200000Z 11012KT 9999 SCT045 SCT090 19/19 Q1013=
2009102001 - SBKP 200100Z 09007KT 9999 -RA FEW045 BKN090 19/19 Q1014=
2009102002 - SBKP 200200Z 05004KT 9999 FEW045 BKN090 19/19 Q1014=
2009102003 - SBKP 200300Z 03006KT 9999 FEW045 20/19 Q1013=
2009102004 - SBKP 200400Z 20007KT CAVOK 19/19 Q1012=
2009102005 - SBKP 200500Z 20009KT CAVOK 18/18 Q1012=
2009102006 - SBKP 200600Z 19007KT 9999 FEW020 SCT100 17/17 Q1012=
2009102007 - SBKP 200700Z 21003KT CAVOK 17/17 Q1012=
2009102008 - SBKP 200800Z 26004KT CAVOK 17/17 Q1013=
2009102009 - SBKP 200900Z 19004KT 5000 BR FEW020 17/17 Q1013=
2009102009 - SBKP 200915Z 17004KT 3000 BR FEW015 17/17 Q1013=
2009102010 - SBKP 201000Z 10002KT 5000 BR FEW015 18/18 Q1013=
2009102011 - SBKP 201100Z 06002KT 9999 FEW010 OVC015 20/20 Q1014=
2009102012 - SBKP 201200Z 01006KT 7000 SCT016 21/20 Q1015=
2009102013 - SBKP 201300Z 34007KT 9000 SCT018 23/21 Q1015=
2009102014 - SBKP 201400Z 27007KT 9999 SCT030 24/20 Q1015=
2009102015 - SBKP 201500Z 28005KT 9999 SCT030 25/19 Q1014=
2009102016 - SBKP 201600Z 29007KT 9999 SCT030 25/19 Q1013=
2009102017 - SBKP 201700Z 28007KT 9999 SCT035 26/19 Q1013=
2009102018 - SBKP 201800Z 29006KT 9999 BKN040 26/19 Q1012=
2009102019 - SBKP 201900Z 25007KT 9999 SCT040 26/17 Q1012=
2009102020 - SBKP 202000Z 22007KT 9999 FEW040 26/18 Q1012=
2009102021 - SBKP 202100Z 21004KT 9999 FEW040 25/18 Q1012=
2009102022 - SBKP 202200Z 15004KT 9999 FEW025 24/19 Q1012=
2009102023 - SBKP 202300Z 16005KT CAVOK 24/18 Q1013=
2009102100 - SBKP 210000Z 12010KT CAVOK 21/21 Q1014=
2009102101 - SBKP 210100Z 11007KT CAVOK 20/20 Q1014=
2009102102 - SBKP 210200Z 11010KT CAVOK 20/20 Q1014=
2009102103 - SBKP 210300Z 12011KT CAVOK 19/19 Q1014=
2009102104 - SBKP 210400Z 11010KT CAVOK 19/19 Q1014=
2009102105 - SBKP 210500Z 11011KT CAVOK 18/18 Q1014=
2009102106 - SBKP 210600Z 12009KT CAVOK 18/18 Q1014=
2009102107 - SBKP 210700Z 13008KT CAVOK 17/17 Q1014=
2009102108 - SBKP 210800Z 13010KT CAVOK 17/17 Q1014=
2009102109 - SBKP 210900Z 13008KT CAVOK 17/17 Q1015=
2009102110 - SBKP 211000Z 12011KT CAVOK 19/17 Q1015=
2009102111 - SBKP 211100Z 11010KT CAVOK 21/18 Q1015=
2009102112 - SBKP 211200Z 11009KT CAVOK 23/18 Q1015=
2009102113 - SBKP 211300Z 13005KT CAVOK 25/19 Q1016=
2009102114 - SBKP 211400Z 17004KT 9999 FEW035 27/19 Q1015=
2009102115 - SBKP 211500Z 09002KT 9999 FEW045 29/18 Q1015=
2009102116 - SBKP 211600Z 27005KT 9999 FEW045 30/17 Q1014=
2009102117 - SBKP 211700Z 24005KT 9999 SCT040 30/17 Q1013=
2009102118 - SBKP 211800Z 24009KT 9999 SCT040 SCT100 30/16 Q1012=
2009102119 - SBKP 211900Z 27006KT 9999 SCT040 SCT100 30/16 Q1011=
2009102120 - SBKP 212000Z 23007KT 9999 FEW040 SCT100 30/17 Q1011=
2009102121 - SBKP 212100Z 22005KT 9999 FEW040 BKN100 29/16 Q1010=
2009102122 - SBKP 212200Z 12013KT 9000 FEW035 BKN100 24/19 Q1011=
2009102123 - Mensagem METAR de 'SBKP' para 21/10/2009 as 23(UTC) não localizada na base de dados da REDEMET
2009102200 - SBKP 220000Z 11013KT 6000 FEW035 BKN100 21/20 Q1012=
2009102201 - SBKP 220100Z 11014KT 7000 FEW035 SCT100 20/20 Q1012=
2009102202 - SBKP 220200Z 11011KT 9000 FEW035 SCT100 20/20 Q1011=
2009102203 - SBKP 220300Z 10012KT 9000 FEW045 BKN100 20/20 Q1011=
2009102204 - SBKP 220400Z 09009KT 9999 FEW045 BKN090 20/20 Q1011=
2009102205 - SBKP 220500Z 12004KT 9000 FEW045 BKN080 20/20 Q1011=
2009102206 - SBKP 220600Z 08004KT 9999 FEW045 BKN050 OVC080 20/20 Q1010=
2009102207 - SBKP 220700Z 04010G33KT 3000 +TSRA SCT006 BKN030 FEW040CB BKN050 20/20 Q1009=
2009102207 - SBKP 220720Z 19003KT 6000 -TSRA SCT005 BKN030 FEW040CB OVC080 18/18 Q1012 RERA=
2009102208 - SBKP 220800Z 16004KT 9999 -TSRA SCT004 BKN030 FEW040CB OVC080 18/18 Q1011 RERA=
2009102209 - SBKP 220900Z 04004KT 9999 -RA SCT005 BKN014 OVC080 18/18 Q1011 RETS=
2009102210 - SBKP 221000Z 03007KT 9999 FEW007 BKN070 19/19 Q1011=
2009102211 - SBKP 221100Z 01012KT 9999 SCT007 19/19 Q1012=
2009102212 - SBKP 221200Z 01010KT 9999 FEW010 SCT100 21/21 Q1013=
2009102213 - SBKP 221300Z 35009KT 9999 BKN016 SCT100 22/21 Q1013=
2009102214 - SBKP 221400Z 32010KT 9999 BKN020 24/21 Q1013=
2009102215 - SBKP 221500Z 29012KT 9999 BKN030 SCT090 26/21 Q1012=
2009102216 - SBKP 221600Z 28011KT 9999 BKN030 SCT090 26/21 Q1011=
2009102217 - SBKP 221700Z 29010KT 9999 FEW020 SCT030 27/21 Q1010=
2009102218 - SBKP 221800Z 30008KT 9999 FEW020 SCT035 27/21 Q1010=
2009102219 - SBKP 221900Z 27009KT 9999 SCT035 SCT100 27/21 Q1010=
2009102219 - SBKP 221945Z 25008KT 4000 RA BR SCT035 FEW040TCU BKN100 24/24 Q1010=
2009102220 - SBKP 222000Z 20005KT 9999 SCT035 FEW040TCU BKN100 24/23 Q1010 RERA=
2009102221 - SBKP 222100Z 21005KT 9999 VCSH SCT035 FEW040TCU BKN100 24/23 Q1011=
2009102222 - SBKP 222200Z 18008KT 9999 FEW035 BKN100 23/22 Q1011=
2009102223 - SBKP 222300Z 18005KT 9999 FEW020 BKN100 23/21 Q1012=
2009102300 - SBKP 230000Z 15004KT 9999 FEW020 BKN100 22/21 Q1012=
2009102301 - SBKP 230100Z 17005KT 9999 FEW020 SCT100 21/21 Q1013=
2009102302 - SBKP 230200Z 12005KT 9999 FEW020 BKN100 20/20 Q1013=
2009102303 - SBKP 230300Z 15005KT 9999 FEW020 BKN100 20/20 Q1013=
2009102304 - SBKP 230400Z 19003KT 9999 FEW020 SCT100 20/20 Q1013=
2009102305 - SBKP 230500Z 17004KT CAVOK 19/19 Q1012=
2009102306 - SBKP 230600Z 20002KT 9999 FEW020 19/19 Q1012=
2009102307 - SBKP 230700Z 20004KT CAVOK 18/18 Q1012=
2009102308 - SBKP 230800Z 17004KT 9999 FEW030 18/18 Q1012=
2009102309 - SBKP 230900Z 18004KT 8000 FEW030 19/19 Q1013=
2009102310 - SBKP 231000Z 15006KT 6000 NSC 20/20 Q1013=
2009102311 - SBKP 231100Z 12007KT 9000 SCT018 21/20 Q1014=
2009102312 - SBKP 231200Z 15009KT 9999 SCT025 23/20 Q1014=
2009102313 - SBKP 231300Z 13009KT 9999 SCT030 24/18 Q1014=
2009102314 - SBKP 231400Z 14004KT 9999 SCT040 26/18 Q1013=
2009102315 - SBKP 231500Z 16005KT 9999 SCT040 27/17 Q1013=
2009102316 - SBKP 231600Z 21005KT 9999 SCT040 28/16 Q1012=
2009102317 - SBKP 231700Z VRB02KT CAVOK 28/16 Q1012=
2009102318 - SBKP 231800Z 24008KT 9999 SCT045 29/15 Q1011=
2009102319 - SBKP 231900Z 22009KT 9999 FEW045 29/16 Q1011=
2009102320 - SBKP 232000Z 21006KT 9999 FEW045 28/15 Q1011=
2009102321 - SBKP 232100Z 21006KT CAVOK 28/16 Q1011=
2009102322 - SBKP 232200Z 12010KT CAVOK 24/19 Q1011=
2009102323 - SBKP 232300Z 12015KT CAVOK 21/19 Q1012=
2009102400 - SBKP 240000Z 11015KT CAVOK 20/19 Q1012=
2009102401 - SBKP 240100Z 11014KT 8000 NSC 20/19 Q1013=
2009102402 - SBKP 240200Z 11012KT 8000 NSC 19/19 Q1013=
2009102403 - SBKP 240300Z 12007KT 8000 NSC 19/19 Q1013=
2009102404 - SBKP 240400Z 12010KT 8000 NSC 18/18 Q1013=
2009102405 - SBKP 240500Z 11010KT 8000 NSC 18/18 Q1013=
2009102406 - SBKP 240600Z 11010KT 8000 NSC 17/17 Q1012=
2009102407 - SBKP 240700Z 11009KT CAVOK 17/17 Q1013=
2009102408 - SBKP 240800Z 10008KT CAVOK 17/17 Q1013=
2009102409 - SBKP 240900Z 10007KT 2500 BR NSC 17/17 Q1013=
2009102410 - SBKP 241000Z 10008KT 4000 BR NSC 18/18 Q1013=
2009102410 - SBKP 241030Z 10006KT 7000 2500SE NSC 20/20 Q1013=
2009102411 - SBKP 241100Z 07006KT 9000 2500SE NSC 21/21 Q1013=
2009102412 - SBKP 241200Z 02006KT CAVOK 25/18 Q1013=
2009102413 - SBKP 241300Z 01006KT CAVOK 27/18 Q1012=
2009102414 - SBKP 241400Z 33008KT CAVOK 28/16 Q1012=
2009102415 - SBKP 241500Z 32008KT CAVOK 29/17 Q1011=
2009102416 - SBKP 241600Z 32007KT CAVOK 30/17 Q1011=
2009102417 - SBKP 241700Z 28009KT CAVOK 31/15 Q1012=
2009102418 - SBKP 241800Z 30008KT CAVOK 31/15 Q1011=
2009102419 - SBKP 241900Z 25005KT CAVOK 30/16 Q1011=
2009102420 - SBKP 242000Z 21006KT CAVOK 29/18 Q1010=
2009102421 - SBKP 242100Z 20005KT CAVOK 28/17 Q1011=
2009102422 - SBKP 242200Z 16004KT CAVOK 27/18 Q1011=
2009102423 - SBKP 242300Z 16005KT CAVOK 26/18 Q1011=
2009102500 - SBKP 250000Z 10006KT CAVOK 24/18 Q1012=
2009102501 - SBKP 250100Z 10005KT CAVOK 24/18 Q1012=
2009102502 - SBKP 250200Z 09006KT CAVOK 23/19 Q1011=
2009102503 - SBKP 250300Z 07004KT CAVOK 23/19 Q1010=
2009102504 - SBKP 250400Z 11006KT CAVOK 23/19 Q1010=
2009102505 - SBKP 250500Z 12006KT CAVOK 22/19 Q1009=
2009102506 - SBKP 250600Z 23005KT CAVOK 22/20 Q1009=
2009102507 - SBKP 250700Z 19003KT CAVOK 22/20 Q1009=
2009102508 - SBKP 250800Z 22004KT CAVOK 22/20 Q1010=
2009102509 - SBKP 250900Z 17006KT 5000 BR NSC 21/20 Q1011=
2009102510 - SBKP 251000Z 11005KT 5000 BR NSC 23/20 Q1011=
2009102510 - SBKP 251010Z 11006KT 4000 BR NSC 23/20 Q1011=
2009102510 - SBKP 251030Z 10007KT 3000 BR NSC 23/21 Q1011=
2009102511 - SBKP 251100Z 11009KT 2500 BR NSC 24/21 Q1012=
2009102512 - SBKP 251200Z 11010KT 3500 HZ NSC 25/21 Q1012=
2009102512 - SBKP 251245Z 11008KT 5000 HZ NSC 26/21 Q1012=
2009102513 - SBKP 251300Z 11007KT 5000 HZ NSC 27/20 Q1012=
2009102514 - SBKP 251400Z 29002KT 5000 HZ FEW025 SCT100 28/19 Q1012=
2009102515 - SBKP 251500Z 32003KT 6000 SCT030 SCT100 29/19 Q1012=
2009102516 - SBKP 251600Z 21006KT 9000 SCT035 29/19 Q1011=
2009102517 - SBKP 251700Z 22004KT 9000 SCT035 29/20 Q1011=
2009102518 - SBKP 251800Z 22006KT 9999 SCT045 29/18 Q1011=
2009102519 - SBKP 251900Z 20010KT 9999 FEW045 28/19 Q1011=
2009102520 - SBKP 252000Z 19010KT CAVOK 28/19 Q1011=
2009102521 - SBKP 252100Z 18009KT 6000 NSC 27/20 Q1011=
2009102522 - SBKP 252200Z 14007KT CAVOK 25/20 Q1011=
2009102523 - SBKP 252300Z 12014KT CAVOK 23/20 Q1012=
2009102600 - SBKP 260000Z 12015KT CAVOK 22/20 Q1013=
2009102601 - SBKP 260100Z 12011KT CAVOK 21/19 Q1014=
2009102602 - SBKP 260200Z 12017KT 9999 BKN019 21/19 Q1014=
2009102603 - SBKP 260300Z 12012KT 9999 FEW020 21/19 Q1014=
2009102604 - SBKP 260400Z 11004KT 9999 FEW020 20/19 Q1013=
2009102605 - SBKP 260500Z 14010KT 9999 FEW020 20/19 Q1013=
2009102606 - SBKP 260600Z 14008KT 9999 FEW020 20/19 Q1012=
2009102607 - SBKP 260700Z 13005KT CAVOK 19/19 Q1012=
2009102608 - SBKP 260800Z 11008KT CAVOK 19/19 Q1012=
2009102609 - SBKP 260900Z 11008KT CAVOK 19/19 Q1012=
2009102610 - SBKP 261000Z 12008KT 9000 4000E NSC 21/20 Q1013=
2009102611 - SBKP 261100Z 10006KT CAVOK 23/20 Q1014=
2009102612 - SBKP 261200Z 06002KT 9999 FEW030 SCT100 25/20 Q1013=
2009102613 - SBKP 261300Z 33005KT 9999 FEW035 SCT100 27/19 Q1013=
2009102614 - SBKP 261400Z 33005KT 9999 FEW035 FEW045TCU SCT100 29/19 Q1013=
2009102615 - SBKP 261500Z 27004KT 9999 SCT035 FEW045TCU SCT100 29/20 Q1012=
2009102615 - SBKP 261550Z 26010KT 9999 -TSRA FEW025 SCT035 FEW045CB 27/21 Q1012=
2009102616 - SBKP 261600Z 27010KT 9999 TS FEW025 SCT035 FEW045CB 27/22 Q1012=
2009102617 - SBKP 261700Z 26011KT 9999 SCT035 SCT100 27/21 Q1012 RETS=
2009102618 - SBKP 261800Z 26011KT 9999 FEW040 SCT100 25/20 Q1011=
2009102619 - SBKP 261900Z 28005KT 9999 FEW040 SCT100 24/21 Q1012=
2009102620 - SBKP 262000Z 32005KT 9999 4000NE -RA BKN023 SCT040 BKN090 23/22 Q1012=
2009102621 - SBKP 262100Z 10012KT 9999 3000S -RA SCT017 BKN030 BKN090 19/19 Q1013=
2009102622 - SBKP 262200Z 11009KT 9999 FEW017 SCT030 BKN080 19/19 Q1014=
2009102623 - SBKP 262300Z 12012KT 9999 FEW025 BKN075 19/19 Q1014=
2009102700 - SBKP 270000Z 12010KT CAVOK 20/20 Q1014=
2009102701 - SBKP 270100Z 19007KT CAVOK 20/20 Q1014=
2009102702 - SBKP 270200Z 17008KT 9999 -RA SCT045 BKN090 20/20 Q1016=
2009102703 - SBKP 270300Z 13013KT 9999 -RA SCT045 BKN090 19/19 Q1015=
2009102704 - SBKP 270400Z 14011KT CAVOK 19/19 Q1015=
2009102705 - SBKP 270500Z 10007KT CAVOK 19/19 Q1014=
2009102706 - SBKP 270600Z 12010KT 9000 NSC 19/19 Q1013=
2009102707 - SBKP 270700Z 15010KT 8000 NSC 20/20 Q1014=
2009102708 - SBKP 270800Z 13013KT 8000 -RA FEW040 BKN100 20/20 Q1014=
2009102709 - SBKP 270900Z 13012KT 9999 FEW040 BKN100 20/20 Q1014=
2009102710 - SBKP 271000Z 15011KT 9999 FEW030 BKN100 20/20 Q1015=
2009102711 - SBKP 271100Z 12013KT 9999 SCT020 BKN100 22/20 Q1015=
2009102712 - SBKP 271200Z 12015KT 9999 SCT020 BKN100 23/20 Q1016=
2009102713 - SBKP 271300Z 12015KT 9999 SCT030 SCT100 24/20 Q1016=
2009102714 - SBKP 271400Z 12017KT 9999 SCT030 SCT100 26/20 Q1016=
2009102715 - SBKP 271500Z 12012KT 9999 SCT035 SCT100 26/19 Q1016=
2009102716 - SBKP 271600Z 14016KT 9999 SCT035 SCT100 27/19 Q1016=
2009102717 - SBKP 271700Z 13020KT 9999 SCT035 BKN100 26/19 Q1015=
2009102718 - SBKP 271800Z 14020KT 9999 SCT025 BKN070 24/19 Q1015=
2009102719 - SBKP 271900Z 14018KT 9999 FEW025 SCT070 23/18 Q1015=
2009102720 - SBKP 272000Z 14022KT 9999 FEW025 SCT070 23/18 Q1015=
2009102721 - SBKP 272100Z 14017KT 9999 SCT025 SCT090 22/18 Q1016=
2009102722 - SBKP 272200Z 13017KT 9999 BKN022 SCT090 21/18 Q1016=
2009102723 - SBKP 272300Z 14016KT 9999 OVC020 21/19 Q1017=
2009102700 - SBKP 270000Z 12010KT CAVOK 20/20 Q1014=
2009102701 - SBKP 270100Z 19007KT CAVOK 20/20 Q1014=
2009102702 - SBKP 270200Z 17008KT 9999 -RA SCT045 BKN090 20/20 Q1016=
2009102703 - SBKP 270300Z 13013KT 9999 -RA SCT045 BKN090 19/19 Q1015=
2009102704 - SBKP 270400Z 14011KT CAVOK 19/19 Q1015=
2009102705 - SBKP 270500Z 10007KT CAVOK 19/19 Q1014=
2009102706 - SBKP 270600Z 12010KT 9000 NSC 19/19 Q1013=
2009102707 - SBKP 270700Z 15010KT 8000 NSC 20/20 Q1014=
2009102708 - SBKP 270800Z 13013KT 8000 -RA FEW040 BKN100 20/20 Q1014=
2009102709 - SBKP 270900Z 13012KT 9999 FEW040 BKN100 20/20 Q1014=
2009102710 - SBKP 271000Z 15011KT 9999 FEW030 BKN100 20/20 Q1015=
2009102711 - SBKP 271100Z 12013KT 9999 SCT020 BKN100 22/20 Q1015=
2009102712 - SBKP 271200Z 12015KT 9999 SCT020 BKN100 23/20 Q1016=
2009102713 - SBKP 271300Z 12015KT 9999 SCT030 SCT100 24/20 Q1016=
2009102714 - SBKP 271400Z 12017KT 9999 SCT030 SCT100 26/20 Q1016=
2009102715 - SBKP 271500Z 12012KT 9999 SCT035 SCT100 26/19 Q1016=
2009102716 - SBKP 271600Z 14016KT 9999 SCT035 SCT100 27/19 Q1016=
2009102717 - SBKP 271700Z 13020KT 9999 SCT035 BKN100 26/19 Q1015=
2009102718 - SBKP 271800Z 14020KT 9999 SCT025 BKN070 24/19 Q1015=
2009102719 - SBKP 271900Z 14018KT 9999 FEW025 SCT070 23/18 Q1015=
2009102720 - SBKP 272000Z 14022KT 9999 FEW025 SCT070 23/18 Q1015=
2009102721 - SBKP 272100Z 14017KT 9999 SCT025 SCT090 22/18 Q1016=
2009102722 - SBKP 272200Z 13017KT 9999 BKN022 SCT090 21/18 Q1016=
2009102723 - SBKP 272300Z 14016KT 9999 OVC020 21/19 Q1017=
2009102800 - SBKP 280000Z 13018KT 9999 BKN020 20/19 Q1017=
2009102901 - SBKP 290100Z 13018KT 9999 FEW025 20/18 Q1016=
2009102902 - SBKP 290200Z 12017KT 9999 FEW025 20/18 Q1016=
2009102903 - SBKP 290300Z 14016KT CAVOK 20/18 Q1016=
2009102904 - SBKP 290400Z 14015KT CAVOK 19/18 Q1016=
2009102905 - SBKP 290500Z 13013KT CAVOK 19/18 Q1015=
2009102906 - SBKP 290600Z 15010KT CAVOK 19/19 Q1015=
2009102907 - SBKP 290700Z 14007KT 9999 FEW005 18/18 Q1014=
2009102908 - SBKP 290800Z 15010KT 9999 SCT008 18/18 Q1014=
2009102909 - SBKP 290900Z 15009KT 9999 SCT015 19/19 Q1015=
2009102910 - SBKP 291000Z 13009KT 9999 BKN015 20/20 Q1016=
2009102911 - SBKP 291100Z 12016KT 9999 BKN020 21/19 Q1016=
2009102912 - SBKP 291200Z 12017KT 9999 BKN025 23/19 Q1016=
2009102913 - SBKP 291300Z 12015KT 9999 BKN025 24/19 Q1016=
2009102914 - SBKP 291400Z 12014KT 9999 BKN030 26/18 Q1016=
2009102915 - SBKP 291500Z 15015KT 9999 BKN040 27/19 Q1015=
2009102916 - SBKP 291600Z 14015KT 9999 SCT035 27/19 Q1015=
2009102917 - SBKP 291700Z 13014KT 9999 SCT040 27/18 Q1014=
2009102918 - SBKP 291800Z 15015KT 9999 SCT038 27/19 Q1013=
2009102919 - SBKP 291900Z 15016KT 9999 SCT035 27/19 Q1013=
2009102920 - SBKP 292000Z 13015KT 9999 FEW033 26/18 Q1013=
2009102921 - SBKP 292100Z 14016KT 9999 FEW030 24/18 Q1013=
2009102922 - SBKP 292200Z 14016KT 9999 FEW025 22/19 Q1014=
2009102923 - SBKP 292300Z 15014KT 9999 FEW025 22/19 Q1014=
2009103000 - SBKP 300000Z 14013KT 9999 FEW025 21/19 Q1015=
2009103001 - SBKP 300100Z 14013KT 9999 FEW025 21/19 Q1015=
2009103002 - SBKP 300200Z 14010KT 9999 BKN020 21/20 Q1015=
2009103003 - SBKP 300300Z 12008KT 9999 BKN020 21/20 Q1014=
2009103004 - SBKP 300400Z 14012KT 9999 FEW010 SCT020 20/20 Q1013=
2009103005 - SBKP 300500Z 14009KT 9999 FEW020 19/19 Q1012=
2009103006 - SBKP 300600Z 17009KT 9999 FEW020 19/19 Q1012=
2009103007 - SBKP 300700Z 15005KT 9999 SCT025 19/19 Q1012=
2009103008 - SBKP 300800Z 14003KT 9999 SCT025 19/19 Q1012=
2009103009 - SBKP 300900Z 18005KT 9999 BKN025 20/20 Q1014=
2009103010 - SBKP 301000Z 14007KT 9999 BKN025 21/19 Q1014=
2009103011 - SBKP 301100Z 12010KT 9999 SCT020 BKN030 21/19 Q1014=
2009103012 - SBKP 301200Z 11010KT 9999 SCT020 BKN030 23/19 Q1014=
2009103013 - SBKP 301300Z 11011KT 9999 BKN030 25/19 Q1014=
2009103014 - SBKP 301400Z 10009KT 9999 BKN030 24/19 Q1014=
2009103015 - SBKP 301500Z 11007KT 9999 SCT040 26/18 Q1013=
2009103016 - SBKP 301600Z 11010KT 9999 SCT040 28/17 Q1012=
2009103017 - SBKP 301700Z 13013KT 9999 SCT045 29/17 Q1011=
2009103018 - SBKP 301800Z 15009KT 9999 SCT045 29/17 Q1010=
2009103019 - SBKP 301900Z 16008KT 9999 SCT045 29/17 Q1010=
2009103020 - SBKP 302000Z 15011KT 9999 FEW045 29/16 Q1011=
2009103021 - SBKP 302100Z 16015KT 9999 FEW045 27/19 Q1011=
2009103022 - SBKP 302200Z 12014KT CAVOK 23/19 Q1012=
2009103023 - SBKP 302300Z 13017KT CAVOK 22/19 Q1013=
2009103100 - SBKP 310000Z 13014KT CAVOK 21/19 Q1014=
2009103101 - SBKP 310100Z 12012KT CAVOK 21/20 Q1014=
2009103102 - SBKP 310200Z 13016KT 9999 FEW025 21/20 Q1014=
2009103103 - SBKP 310300Z 11011KT 9999 FEW018 21/19 Q1014=
2009103104 - SBKP 310400Z 10007KT CAVOK 20/19 Q1013=
2009103105 - SBKP 310500Z 12006KT CAVOK 19/19 Q1013=
2009103106 - SBKP 310600Z 12010KT CAVOK 19/19 Q1013=
2009103107 - SBKP 310700Z 12009KT CAVOK 19/19 Q1013=
2009103108 - SBKP 310800Z 12009KT CAVOK 19/19 Q1014=
2009103109 - SBKP 310900Z 11008KT 9999 4000E NSC 19/19 Q1014=
2009103110 - SBKP 311000Z 10008KT CAVOK 21/19 Q1015=
2009103111 - SBKP 311100Z 10007KT CAVOK 23/19 Q1015=
2009103112 - SBKP 311200Z 13007KT CAVOK 24/19 Q1015=
2009103113 - SBKP 311300Z 16005KT 9999 FEW030 26/18 Q1015=
2009103114 - SBKP 311400Z 17007KT 9999 FEW030 28/17 Q1015=
2009103115 - SBKP 311500Z 14003KT 9999 FEW030 30/15 Q1014=
2009103116 - SBKP 311600Z 13005KT 9999 SCT030 30/15 Q1013=
2009103117 - SBKP 311700Z 09006KT 9999 SCT030 32/16 Q1012=
2009103118 - SBKP 311800Z 10008KT 9999 SCT030 31/15 Q1011=
2009103119 - SBKP 311900Z 12010KT 9999 SCT030 31/14 Q1011=
2009103120 - SBKP 312000Z 14011KT 9999 FEW030 31/14 Q1011=
2009103121 - SBKP 312100Z 13010KT 9999 FEW030 29/16 Q1011=
2009103122 - SBKP 312200Z 13014KT CAVOK 27/19 Q1012=
2009103123 - SBKP 312300Z 13016KT CAVOK 24/20 Q1012=
2009110100 - SBKP 010000Z 12015KT CAVOK 22/20 Q1013=
2009110101 - SBKP 010100Z 12015KT CAVOK 22/20 Q1013=
2009110102 - SBKP 010200Z 11015KT CAVOK 21/20 Q1012=
2009110103 - SBKP 010300Z 11016KT CAVOK 21/20 Q1012=
2009110104 - SBKP 010400Z 11013KT CAVOK 20/20 Q1011=
2009110105 - SBKP 010500Z 08007KT CAVOK 20/20 Q1011=
2009110106 - SBKP 010600Z 11007KT CAVOK 19/19 Q1011=
2009110107 - SBKP 010700Z 11006KT CAVOK 19/19 Q1012=
2009110108 - SBKP 010800Z 11006KT CAVOK 19/19 Q1012=
2009110109 - SBKP 010900Z 11008KT 9999 4000E NSC 19/19 Q1013=
2009110110 - SBKP 011000Z 10006KT CAVOK 21/20 Q1014=
2009110111 - SBKP 011100Z 08004KT CAVOK 24/19 Q1015=
2009110112 - SBKP 011200Z 05002KT CAVOK 27/18 Q1015=
2009110113 - SBKP 011300Z 08003KT 9999 FEW020 28/18 Q1015=
2009110114 - SBKP 011400Z 26005KT 9999 SCT030 29/17 Q1015=
2009110115 - SBKP 011500Z VRB01KT 9999 SCT040 30/17 Q1014=
2009110116 - SBKP 011600Z 20005KT 9999 SCT040 30/16 Q1013=
2009110117 - SBKP 011700Z 24007KT 9999 SCT045 32/16 Q1012=
2009110118 - SBKP 011800Z 26006KT 9999 SCT045 32/15 Q1012=
2009110119 - SBKP 011900Z 24007KT 9999 SCT045 32/15 Q1011=
2009110120 - SBKP 012000Z 24009KT 9999 SCT045 31/15 Q1011=
2009110121 - SBKP 012100Z 21007KT 9999 FEW045 30/18 Q1011=
2009110122 - SBKP 012200Z 12011KT 9999 FEW045 26/21 Q1012=
2009110123 - SBKP 012300Z 13012KT CAVOK 24/20 Q1013=
2009110200 - SBKP 020000Z 11013KT CAVOK 23/20 Q1014=
2009110201 - SBKP 020100Z 11012KT 8000 NSC 22/19 Q1014=
2009110202 - SBKP 020200Z 11013KT 9000 NSC 21/20 Q1014=
2009110203 - SBKP 020300Z 11010KT 9000 NSC 21/20 Q1014=
2009110204 - SBKP 020400Z 09007KT 9000 NSC 20/20 Q1014=
2009110205 - SBKP 020500Z 13006KT 9000 NSC 20/20 Q1013=
2009110206 - SBKP 020600Z 11008KT 9000 NSC 19/19 Q1013=
2009110207 - SBKP 020700Z 11008KT 9000 NSC 19/19 Q1013=
2009110208 - SBKP 020800Z 11008KT 8000 NSC 19/19 Q1013=
2009110209 - SBKP 020900Z 11008KT 8000 NSC 19/19 Q1014=
2009110210 - SBKP 021000Z 10005KT 7000 NSC 21/21 Q1014=
2009110211 - SBKP 021100Z 08003KT 9000 4000SE NSC 24/20 Q1013=
2009110212 - SBKP 021200Z 03004KT 9000 NSC 27/20 Q1015=
2009110213 - SBKP 021300Z 34004KT 9999 FEW020 29/20 Q1015=
2009110214 - SBKP 021400Z VRB02KT 9999 FEW025 30/19 Q1014=
2009110215 - SBKP 021500Z 24006KT 9999 SCT030 30/18 Q1014=
2009110216 - SBKP 021600Z 27004KT 9999 SCT040 32/17 Q1013=
2009110217 - SBKP 021700Z 22005KT 9999 SCT040 32/16 Q1012=
2009110218 - SBKP 021800Z 31002KT 9999 SCT040 33/15 Q1011=
2009110219 - SBKP 021900Z 27005KT 9999 SCT040 33/15 Q1011=
2009110220 - SBKP 022000Z 21007KT 9999 FEW045 33/14 Q1011=
2009110221 - SBKP 022100Z 21007KT 9999 FEW045 32/15 Q1011=
2009110222 - SBKP 022200Z 20006KT CAVOK 30/15 Q1012=
2009110223 - SBKP 022300Z 12008KT CAVOK 26/18 Q1013=
2009110300 - SBKP 030000Z 13010KT CAVOK 25/21 Q1013=
2009110301 - SBKP 030100Z 11012KT CAVOK 23/19 Q1014=
2009110302 - SBKP 030200Z 11013KT CAVOK 22/20 Q1013=
2009110303 - SBKP 030300Z 11014KT CAVOK 22/20 Q1013=
2009110304 - SBKP 030400Z 12015KT 8000 NSC 21/20 Q1012=
2009110305 - SBKP 030500Z 10010KT 8000 NSC 20/20 Q1011=
2009110306 - SBKP 030600Z 09008KT CAVOK 19/19 Q1010=
2009110307 - SBKP 030700Z 14004KT CAVOK 19/19 Q1011=
2009110308 - SBKP 030800Z 13007KT CAVOK 19/19 Q1012=
2009110309 - SBKP 030900Z 15004KT 4000 BR NSC 20/20 Q1013=
2009110310 - SBKP 031000Z 15006KT 4000 BR NSC 21/20 Q1013=
2009110311 - SBKP 031100Z 08001KT 5000 HZ NSC 25/18 Q1014=
2009110312 - SBKP 031200Z 04003KT 8000 NSC 27/18 Q1014=
2009110313 - SBKP 031300Z 32005KT 9000 NSC 29/19 Q1014=
2009110314 - SBKP 031400Z 30004KT CAVOK 31/17 Q1013=
2009110315 - SBKP 031500Z 25008KT 9999 FEW020 32/16 Q1013=
2009110316 - SBKP 031600Z 24009KT 9999 FEW020 33/14 Q1012=
2009110317 - SBKP 031700Z 25009KT 9999 FEW020 33/15 Q1011=
2009110318 - SBKP 031800Z 22011KT 9999 SCT030 33/14 Q1011=
2009110319 - SBKP 031900Z 22009KT 9999 SCT035 33/13 Q1010=
2009110320 - SBKP 032000Z 21008KT 9999 FEW040 33/13 Q1010=
2009110321 - SBKP 032100Z 23005KT 9999 FEW040 32/14 Q1010=
2009110322 - SBKP 032200Z 19006KT CAVOK 30/16 Q1011=
2009110323 - SBKP 032300Z 17008KT CAVOK 29/15 Q1012=
2009110400 - SBKP 040000Z 11006KT CAVOK 26/16 Q1012=
2009110401 - SBKP 040100Z 11008KT CAVOK 25/16 Q1013=
2009110402 - SBKP 040200Z 12009KT CAVOK 24/16 Q1013=
2009110403 - SBKP 040300Z 12009KT CAVOK 24/16 Q1013=
2009110404 - SBKP 040400Z 10006KT CAVOK 23/16 Q1012=
2009110405 - SBKP 040500Z 12006KT CAVOK 22/16 Q1012=
2009110406 - SBKP 040600Z 10005KT CAVOK 21/16 Q1012=
2009110407 - SBKP 040700Z 10006KT CAVOK 20/16 Q1012=
2009110408 - SBKP 040800Z 07006KT CAVOK 19/16 Q1012=
2009110409 - SBKP 040900Z 05004KT 4000 BR NSC 19/16 Q1013=
2009110410 - SBKP 041000Z 03007KT 5000 HZ NSC 23/18 Q1014=
2009110411 - SBKP 041100Z 02008KT 6000 NSC 24/19 Q1015=
2009110412 - SBKP 041200Z 35009KT 8000 NSC 26/19 Q1016=
2009110413 - SBKP 041300Z 32009KT 9000 FEW030 28/19 Q1015=
2009110414 - SBKP 041400Z 32008KT 9999 SCT035 29/18 Q1015=
2009110415 - SBKP 041500Z 34008KT 9999 SCT040 30/18 Q1014=
2009110416 - SBKP 041600Z 36004KT 9999 SCT040 30/17 Q1013=
2009110417 - SBKP 041700Z 30006KT 9999 SCT040 32/15 Q1012=
2009110418 - SBKP 041800Z 33002KT 9999 SCT040 33/14 Q1012=
2009110419 - SBKP 041900Z 25006KT 9999 FEW040 33/13 Q1011=
2009110420 - SBKP 042000Z 21008KT 9999 FEW040 33/13 Q1011=
2009110421 - SBKP 042100Z 18008KT 9999 FEW040 32/15 Q1011=
2009110422 - SBKP 042200Z 16008KT CAVOK 30/14 Q1012=
2009110423 - SBKP 042300Z 15007KT CAVOK 29/13 Q1013=
2009110500 - SBKP 050000Z 11006KT CAVOK 26/14 Q1014=
2009110501 - SBKP 050100Z 11009KT CAVOK 25/17 Q1015=
2009110502 - SBKP 050200Z 12010KT CAVOK 24/19 Q1015=
2009110503 - SBKP 050300Z 11007KT 8000 NSC 24/20 Q1014=
2009110504 - SBKP 050400Z 07003KT 8000 NSC 23/20 Q1014=
2009110505 - SBKP 050500Z 05004KT CAVOK 24/19 Q1014=
2009110506 - SBKP 050600Z 07005KT CAVOK 23/19 Q1014=
2009110507 - SBKP 050700Z 07005KT CAVOK 23/19 Q1014=
2009110508 - SBKP 050800Z 03008KT CAVOK 24/19 Q1014=
2009110509 - SBKP 050900Z 05006KT 8000 NSC 24/19 Q1015=
2009110510 - SBKP 051000Z 04009KT 8000 NSC 26/19 Q1016=
2009110511 - SBKP 051100Z 03012KT CAVOK 27/20 Q1016=
2009110512 - SBKP 051200Z 02012KT 9999 FEW030 29/20 Q1017=
2009110513 - SBKP 051300Z 02012KT 9999 SCT030 29/20 Q1017=
2009110514 - SBKP 051400Z 35013KT 9999 SCT030 30/20 Q1016=
2009110515 - SBKP 051500Z 33012KT 9999 BKN035 FEW040TCU 31/20 Q1016=
2009110516 - SBKP 051600Z 35013KT 9999 BKN035 FEW040TCU 30/19 Q1015=
2009110517 - SBKP 051700Z 36012KT 9999 SCT040 FEW045TCU 32/19 Q1014=
2009110517 - SBKP 051745Z 33010KT 9999 TS SCT040 FEW045CB 32/19 Q1013 WS R33=
2009110518 - SBKP 051800Z 10008KT 9999 TS VCSH SCT040 FEW045CB 27/19 Q1013 WS R33=
2009110518 - SBKP 051805Z 12015G25KT 9999 TS VCSH SCT040 FEW045CB 26/18 Q1013 WS R33=
2009110519 - SBKP 051900Z 12010KT 9999 VCSH BKN040 FEW045TCU 25/20 Q1013 RETS=
2009110519 - SBKP 051930Z 09011KT 6000 RA FEW015 BKN040 23/22 Q1013=
2009110520 - SBKP 052000Z 10007KT 9999 -RA SCT040 SCT080 23/23 Q1013 RERA=
2009110521 - SBKP 052100Z 09006KT 9999 FEW035 BKN080 23/23 Q1013=
2009110522 - SBKP 052200Z 11005KT 9999 FEW035 BKN080 24/22 Q1014=
2009110523 - SBKP 052300Z 10005KT 9999 FEW035 BKN090 23/22 Q1015=
2009110600 - SBKP 060000Z 10005KT 9999 VCTS FEW030 FEW035CB SCT090 22/22 Q1015=
2009110601 - SBKP 060100Z 01010G20KT 9999 VCSH SCT030 BKN090 24/22 Q1017=
2009110601 - SBKP 060136Z 01015G25KT 3000 RA BR BKN010 BKN030 OVC090 21/21 Q1018=
2009110602 - SBKP 060200Z 03009KT 3000 RA BR SCT010 BKN030 OVC090 21/21 Q1017=
2009110602 - SBKP 060225Z 03008KT 6000 -RA FEW012 BKN035 OVC090 21/21 Q1017 RERA=
2009110603 - SBKP 060300Z 04007KT 9999 -RA BKN035 BKN050 OVC090 21/21 Q1017RERA=
2009110604 - SBKP 060400Z 04004KT 9999 -RA SCT035 BKN050 BKN090 21/21 Q1016=
2009110605 - SBKP 060500Z 02004KT 9999 FEW035 SCT050 OVC100 22/22 Q1015=
2009110606 - SBKP 060600Z 04004KT CAVOK 22/22 Q1015=
2009110607 - SBKP 060700Z 01003KT CAVOK 22/22 Q1015=
2009110608 - SBKP 060800Z 03003KT CAVOK 22/22 Q1015=
2009110609 - SBKP 060900Z 13003KT CAVOK 21/21 Q1016=
2009110610 - SBKP 061000Z 02004KT CAVOK 22/22 Q1016=
2009110611 - SBKP 061100Z 01007KT 9999 FEW040 SCT100 24/24 Q1016=
2009110612 - SBKP 061200Z 01009KT 9999 SCT040 BKN100 24/24 Q1016=
2009110613 - SBKP 061300Z 34010KT 9999 SCT025 FEW030TCU SCT100 25/23 Q1017=
2009110614 - SBKP 061400Z 36010KT 9999 SCT030 FEW035TCU BKN100 27/23 Q1016=
2009110615 - SBKP 061500Z 34012KT 9999 BKN030 SCT100 27/22 Q1015=
2009110616 - SBKP 061600Z 01012KT 9999 BKN035 SCT100 29/22 Q1014=
2009110617 - SBKP 061700Z 35010KT 9999 BKN035 29/22 Q1013=
2009110618 - SBKP 061800Z 36010KT 9999 SCT035 30/21 Q1012=
2009110619 - SBKP 061900Z 35009KT 9999 SCT035 31/20 Q1011=
2009110620 - SBKP 062000Z 01009KT 9999 SCT035 29/20 Q1011=
2009110620 - SBKP 062040Z 35011G23KT 7000 RA FEW030 FEW035TCU SCT080 26/22 Q1011=
2009110621 - SBKP 062100Z 33013KT 9999 -RA FEW030 FEW035TCU SCT080 25/20 Q1011 RERA=
2009110621 - SBKP 062105Z 32011G23KT 9999 -TSRA FEW030 FEW035CB BKN050 25/22 Q1012=
2009110621 - SBKP 062125Z 32021G32KT 2000 TSRA BR FEW030 FEW035CB BKN045 21/21 Q1013=
2009110621 - SBKP 062140Z 29013G23KT 6000 -TSRA FEW030 FEW035CB BKN040 22/22 Q1013 RERA=
2009110622 - SBKP 062200Z 32008KT 9999 -TSRA FEW015 FEW035CB BKN040 22/22 Q1013 RERA=
2009110622 - SBKP 062230Z 34004KT 9999 VCTS FEW015 FEW035CB BKN040 22/22 Q1013 RETS=
2009110623 - SBKP 062300Z 07002KT 9999 VCTS -RA FEW015 FEW035CB SCT040 BKN080 22/22 Q1013 RETS=
2009110700 - SBKP 070000Z 03003KT 9999 VCTS -RA FEW015 FEW035CB SCT040 BKN090 23/23 Q1014=
2009110701 - SBKP 070100Z 05005KT 9999 -RA FEW015 SCT040 BKN090 23/22 Q1014=
2009110702 - SBKP 070200Z 22004KT CAVOK 22/22 Q1014=
2009110703 - SBKP 070300Z 09002KT CAVOK 22/22 Q1014=
2009110704 - SBKP 070400Z 05003KT CAVOK 22/22 Q1013=
2009110705 - SBKP 070500Z 07004KT CAVOK 22/22 Q1013=
2009110706 - SBKP 070600Z 07005KT CAVOK 22/22 Q1012=
2009110707 - SBKP 070700Z 03004KT CAVOK 22/22 Q1012=
2009110708 - SBKP 070800Z 02005KT CAVOK 22/22 Q1013=
2009110709 - SBKP 070900Z 02004KT CAVOK 22/22 Q1013=
2009110710 - SBKP 071000Z 03004KT CAVOK 24/22 Q1013=
2009110711 - SBKP 071100Z 36007KT CAVOK 25/22 Q1014=
2009110712 - SBKP 071200Z 35009KT 9999 FEW040 BKN080 25/22 Q1014=
2009110713 - SBKP 071300Z 33013KT 9999 SCT030 BKN080 27/22 Q1015=
2009110714 - SBKP 071400Z 30014KT 9999 SCT035 BKN080 28/22 Q1014=
2009110715 - SBKP 071500Z 32016KT 9999 SCT035 BKN100 28/21 Q1013=
2009110716 - SBKP 071600Z 31011KT 9999 SCT035 SCT100 29/21 Q1013=
2009110717 - SBKP 071700Z 30013KT 9999 BKN040 29/20 Q1012=
2009110718 - SBKP 071800Z 31014KT 9999 BKN045 30/19 Q1011=
2009110719 - SBKP 071900Z 29012KT 9999 SCT045 30/18 Q1010=
2009110720 - SBKP 072000Z 27009KT 9999 SCT045 28/20 Q1011=
2009110721 - SBKP 072100Z 25007KT 9999 SCT045 BKN070 27/20 Q1011=
2009110722 - SBKP 072200Z 02012KT 9999 SCT045 BKN090 22/22 Q1012=
2009110723 - SBKP 072300Z 30011KT 4000 +RA BR BKN020 BKN090 22/22 Q1014=
2009110723 - SBKP 072325Z 30006KT 2500 +TSRA BR SCT002 BKN020 FEW030CB OVC090 21/21 Q1015=
2009110723 - SBKP 072344Z 34006KT 5000 -TSRA BR SCT002 BKN020 FEW030CB OVC090 20/20 Q1015 RERA=
2009110800 - SBKP 080000Z 34006KT 5000 -TSRA BR SCT002 BKN020 FEW030CB OVC090 20/20 Q1015 RERA=
2009110801 - SBKP 080100Z 34005KT 9999 -RA SCT006 BKN030 OVC090 21/21 Q1015 RETS=
2009110802 - SBKP 080200Z 36009KT 9999 SCT006 BKN030 OVC090 21/21 Q1015=
2009110803 - SBKP 080300Z 36008KT 9000 -RA BKN006 BKN045 OVC100 20/20 Q1014=
2009110804 - SBKP 080400Z 35010KT 7000 -RA BKN006 OVC100 20/20 Q1014=
2009110805 - SBKP 080500Z 34008KT 9000 -RA BKN008 OVC100 20/20 Q1013=
2009110805 - SBKP 080530Z 36007KT 8000 -RA FEW008 OVC100 20/20 Q1013=
2009110806 - SBKP 080600Z 36007KT 9000 -RA BKN005 OVC100 20/20 Q1013=
2009110807 - SBKP 080700Z 36005KT 9000 BKN005 OVC100 20/20 Q1013=
2009110808 - SBKP 080800Z 36005KT 7000 SCT006 OVC100 20/20 Q1012=
2009110808 - SBKP 080820Z 01005KT 4000 BR SCT006 20/20 Q1012=
2009110809 - SBKP 080900Z 36006KT 2200 BR BKN006 BKN100 20/20 Q1012=
2009110810 - SBKP 081000Z 01008KT 4000 BR BKN007 BKN100 21/21 Q1013=
2009110811 - SBKP 081100Z 36008KT 7000 BKN008 BKN100 21/21 Q1013=
2009110812 - SBKP 081200Z 36008KT 9999 BKN010 BKN100 22/22 Q1013=
2009110813 - SBKP 081300Z 36010KT 9999 BKN015 BKN100 23/23 Q1013=
2009110814 - SBKP 081400Z 34011KT 9999 BKN018 BKN100 24/23 Q1014=
2009110815 - SBKP 081500Z 33012KT 9999 BKN025 BKN100 25/22 Q1013=
2009110816 - SBKP 081600Z 31010KT 9999 BKN025 SCT040 BKN100 26/22 Q1013=
2009110817 - SBKP 081700Z 31008KT 9999 VCSH SCT025 SCT040 FEW045TCU BKN100 26/22 Q1012=
2009110818 - SBKP 081800Z 31008KT 9999 BKN030 FEW040TCU 26/22 Q1011=
2009110819 - SBKP 081900Z 32007KT 9999 BKN030 FEW040TCU 26/21 Q1011=
2009110820 - SBKP 082000Z 36004KT 9999 4000E -RA BKN030 FEW040TCU 26/22 Q1011=
2009110821 - SBKP 082100Z 26008KT 9999 3000NE TSRA BKN030 FEW040CB 24/24 Q1011=
2009110822 - SBKP 082200Z 06004KT 9999 TS SCT030 FEW040CB BKN100 23/23 Q1012 RERA=
2009110823 - SBKP 082300Z 08003KT 9999 -RA BKN030 OVC100 23/23 Q1012 RETS=
2009110900 - SBKP 090000Z 11004KT 9999 FEW030 BKN075 OVC100 22/22 Q1013=
2009110901 - SBKP 090100Z 08003KT 9999 8000W VCTS RA FEW010 SCT040CB BKN075 22/22 Q1013=
2009110902 - SBKP 090200Z 09003KT 9999 BKN040 BKN075 BKN100 22/22 Q1012 RERA=
2009110903 - SBKP 090300Z 02005KT 9999 FEW006 BKN020 BKN040 22/22 Q1012=
2009110904 - SBKP 090400Z 02007KT 9999 TS FEW006 BKN020 FEW030CB BKN040 22/22 Q1012=
2009110904 - SBKP 090425Z 36011KT 3000 -TSRA BR SCT006 BKN020 FEW030CB BKN040 21/21 Q1012=
2009110905 - SBKP 090500Z 26005KT 4000 -RA BR SCT004 BKN020 BKN030 21/21 Q1012 RETS=
2009110906 - SBKP 090600Z 22005KT 8000 -TSRA FEW004 BKN030 FEW045CB BKN090 20/20 Q1011=
2009110907 - SBKP 090700Z 10002KT 9999 TS BKN030 FEW045CB BKN100 20/20 Q1011=
2009110908 - SBKP 090800Z 27004KT 9999 FEW020 SCT035 BKN100 20/20 Q1012 RETS=
2009110908 - SBKP 090810Z 30003KT 0800 R15/1500 R33/P2000 FG SCT010 SCT035 BKN100 20/20 Q1013=
2009110908 - SBKP 090830Z 33003KT 2000 BR FEW010 SCT035 BKN100 20/20 Q1013=
2009110909 - SBKP 090900Z 01002KT 8000 FEW006 BKN030 BKN100 20/20 Q1013=
2009110910 - SBKP 091000Z 32003KT 9000 SCT006 BKN030 OVC100 21/21 Q1014=
2009110911 - SBKP 091100Z 03004KT 9999 FEW009 BKN015 BKN100 22/22 Q1014=
2009110912 - SBKP 091200Z 36002KT 9999 BKN015 BKN100 23/23 Q1015=
2009110913 - SBKP 091300Z 24005KT 7000 -RA FEW007 BKN015 OVC100 23/23 Q1015=
2009110914 - SBKP 091400Z 30004KT 8000 -RA FEW009 BKN015 OVC100 23/23 Q1015=
2009110915 - SBKP 091500Z 28006KT 9000 -RA FEW009 BKN015 OVC100 23/23 Q1015=
2009110916 - SBKP 091600Z 24007KT 9999 FEW015 SCT020 OVC100 25/24 Q1013=
2009110917 - SBKP 091700Z 23007KT 9999 SCT020 BKN090 25/22 Q1013=
2009110918 - SBKP 091800Z 21005KT 9999 SCT020 FEW040TCU 27/22 Q1012=
2009110919 - SBKP 091900Z 22004KT 9999 SCT030 27/21 Q1012=
2009110920 - SBKP 092000Z 23005KT 9999 SCT030 27/21 Q1012=
2009110921 - SBKP 092100Z 23004KT 9999 SCT030 FEW040TCU 26/21 Q1012=
2009110922 - SBKP 092200Z 17002KT 9999 BKN030 26/22 Q1013=
2009110923 - SBKP 092300Z 12008KT 9999 SCT030 24/23 Q1014=
2009111000 - SBKP 100000Z 11012KT 9999 FEW030 23/23 Q1014=
2009111001 - SBKP 100100Z 11011KT 9999 FEW030 22/22 Q1015=
2009111002 - SBKP 100200Z 11009KT 9999 FEW030 21/21 Q1014=
2009111003 - SBKP 100300Z 12009KT 9999 FEW030 21/21 Q1014=
2009111004 - SBKP 100400Z 12007KT CAVOK 21/21 Q1014=
2009111005 - SBKP 100500Z 10004KT CAVOK 20/20 Q1014=
2009111006 - SBKP 100600Z 15008KT CAVOK 20/20 Q1014=
2009111007 - SBKP 100700Z 15008KT CAVOK 20/20 Q1014=
2009111008 - SBKP 100800Z 14008KT CAVOK 20/20 Q1014=
2009111009 - SBKP 100900Z 13008KT 5000 BR NSC 20/20 Q1014=
2009111010 - SBKP 101000Z 11009KT CAVOK 23/23 Q1015=
2009111011 - SBKP 101100Z 10006KT CAVOK 24/23 Q1014=
2009111012 - SBKP 101200Z 05006KT 9999 FEW025 26/22 Q1014=
2009111013 - SBKP 101300Z 03005KT 9999 SCT030 27/21 Q1013=
2009111014 - SBKP 101400Z 02003KT 9999 BKN035 28/22 Q1013=
2009111015 - SBKP 101500Z 09003KT 9999 SCT035 FEW040TCU 29/21 Q1013=
2009111016 - SBKP 101600Z 25004KT 9999 SCT040 FEW045TCU 30/20 Q1012=
2009111017 - SBKP 101700Z 29005KT 9999 SCT040 FEW045TCU 31/19 Q1011=
2009111018 - SBKP 101800Z 28003KT 9999 SCT040 FEW045TCU 31/19 Q1010=
2009111019 - SBKP 101900Z 25005KT 9999 SCT040 FEW045TCU 32/19 Q1010=
2009111020 - SBKP 102000Z 20006KT 9999 FEW040 31/20 Q1010=
2009111021 - SBKP 102100Z 12018KT 9999 FEW040 FEW045TCU 25/22 Q1011=
2009111022 - SBKP 102200Z 11012KT CAVOK 24/21 Q1012=
2009111023 - SBKP 102300Z 13013KT CAVOK 23/23 Q1013=
2009111100 - SBKP 110000Z 13012KT 9000 NSC 24/23 Q1014=
2009111101 - SBKP 110100Z 12010KT 9000 NSC 23/23 Q1013=
2009111102 - SBKP 110200Z 12011KT 9000 NSC 23/23 Q1014=
2009111103 - SBKP 110300Z 12011KT 9999 FEW035 SCT070 23/23 Q1014=
2009111104 - SBKP 110400Z 11006KT 9999 FEW035 SCT070 22/22 Q1013=
2009111105 - SBKP 110500Z 13009KT 9999 FEW035 SCT070 22/22 Q1011=
2009111106 - SBKP 110600Z 14007KT CAVOK 21/21 Q1010=
2009111107 - SBKP 110700Z 14006KT CAVOK 21/21 Q1010=
2009111108 - SBKP 110800Z 13005KT CAVOK 21/21 Q1011=
2009111109 - SBKP 110900Z 13005KT 9000 NSC 21/21 Q1012=
2009111110 - SBKP 111000Z 13007KT 9000 NSC 23/23 Q1013=
2009111111 - SBKP 111100Z 08003KT CAVOK 25/22 Q1013=
2009111112 - SBKP 111200Z 02005KT 9999 FEW025 27/23 Q1013=
2009111113 - SBKP 111300Z 32006KT 9999 SCT030 28/22 Q1013=
2009111114 - SBKP 111400Z 30007KT 9999 SCT033 29/22 Q1013=
2009111115 - SBKP 111500Z 29006KT 9999 SCT035 30/22 Q1012=
2009111116 - SBKP 111600Z 25006KT 9999 SCT040 31/22 Q1011=
2009111117 - SBKP 111700Z 26008KT 9999 SCT040 FEW045TCU 31/21 Q1011=
2009111118 - SBKP 111800Z 22011KT 9999 SCT040 FEW045TCU 31/22 Q1010=
2009111119 - SBKP 111900Z 23012KT 9999 FEW040 FEW045TCU 30/22 Q1010=
2009111120 - SBKP 112000Z 23008KT 9999 FEW040 FEW045TCU 29/23 Q1010=
2009111121 - SBKP 112100Z 09010KT 9999 FEW025 SCT040TCU 26/23 Q1011=
2009111122 - SBKP 112200Z 11009KT 9999 BKN030 25/23 Q1012=
2009111123 - SBKP 112300Z 12010KT 9999 FEW030 SCT100 24/22 Q1012=
2009111200 - SBKP 120000Z 11009KT CAVOK 23/23 Q1013=
2009111201 - SBKP 120100Z 12012KT CAVOK 23/22 Q1013=
2009111202 - SBKP 120200Z 13011KT CAVOK 22/22 Q1013=
2009111203 - SBKP 120300Z 10006KT 9000 NSC 22/22 Q1013=
2009111204 - SBKP 120400Z 14007KT 9000 NSC 22/22 Q1013=
2009111205 - SBKP 120500Z 13010KT 9000 FEW045 22/22 Q1013=
2009111206 - SBKP 120600Z 11006KT 9000 FEW045 21/21 Q1012=
2009111207 - SBKP 120700Z 14006KT 9000 NSC 21/21 Q1012=
2009111208 - SBKP 120800Z 14009KT 8000 NSC 21/21 Q1012=
2009111208 - SBKP 120820Z 12011KT 4500 BR NSC 21/21 Q1012=
2009111209 - SBKP 120900Z 11009KT 4500 BR NSC 20/20 Q1012=
2009111209 - SBKP 120935Z 11010KT 7000 3000E NSC 22/22 Q1013=
2009111210 - SBKP 121000Z 11012KT 8000 NSC 23/22 Q1013=
2009111211 - SBKP 121100Z 11012KT 9999 FEW035 24/21 Q1013=
2009111212 - SBKP 121200Z 10012KT 9999 FEW035 26/20 Q1014=
2009111213 - SBKP 121300Z 10008KT 9999 FEW035 27/20 Q1014=
2009111214 - SBKP 121400Z 07005KT 9999 FEW035 29/20 Q1013=
2009111215 - SBKP 121500Z 08005KT 9999 SCT035 30/20 Q1013=
2009111216 - SBKP 121600Z 06002KT 9999 FEW035 30/12 Q1012=
2009111217 - SBKP 121700Z 14004KT 9999 FEW035 32/17 Q1011=
2009111218 - SBKP 121800Z 20007KT 9999 SCT040 32/19 Q1011=
2009111219 - SBKP 121900Z 21009KT 9999 SCT040 30/19 Q1011=
2009111220 - Mensagem METAR de 'SBKP' para 12/11/2009 as 20(UTC) não localizada na base de dados da REDEMET
2009111221 - Mensagem METAR de 'SBKP' para 12/11/2009 as 21(UTC) não localizada na base de dados da REDEMET
2009111222 - Mensagem METAR de 'SBKP' para 12/11/2009 as 22(UTC) não localizada na base de dados da REDEMET
2009111223 - Mensagem METAR de 'SBKP' para 12/11/2009 as 23(UTC) não localizada na base de dados da REDEMET
2009111300 - Mensagem METAR de 'SBKP' para 13/11/2009 as 00(UTC) não localizada na base de dados da REDEMET
2009111301 - Mensagem METAR de 'SBKP' para 13/11/2009 as 01(UTC) não localizada na base de dados da REDEMET
2009111302 - SBKP 130200Z 12012KT 7000 NSC 22/21 Q1014=
2009111303 - SBKP 130300Z 11011KT 9000 NSC 22/21 Q1013=
2009111304 - SBKP 130400Z 11010KT CAVOK 21/21 Q1013=
2009111305 - SBKP 130500Z 12012KT CAVOK 21/21 Q1012=
2009111306 - SBKP 130600Z 13010KT CAVOK 20/20 Q1012=
2009111307 - SBKP 130700Z 13010KT CAVOK 20/20 Q1012=
2009111308 - SBKP 130800Z 12012KT CAVOK 21/21 Q1013=
2009111309 - SBKP 130900Z 11013KT 9000 4000E NSC 21/21 Q1013=
2009111310 - SBKP 131000Z 11014KT 6000 NSC 23/21 Q1014=
2009111311 - SBKP 131100Z 12013KT 8000 FEW030 24/21 Q1015=
2009111312 - SBKP 131200Z 11010KT 8000 FEW030 26/21 Q1015=
2009111313 - SBKP 131300Z 13007KT 9999 FEW030 28/21 Q1015=
2009111314 - SBKP 131400Z 10005KT 9999 SCT030 29/20 Q1015=
2009111315 - SBKP 131500Z 06003KT 9999 BKN045 30/20 Q1014=
2009111316 - SBKP 131600Z 14003KT 9999 BKN045 30/20 Q1013=
2009111317 - SBKP 131700Z 19002KT 9999 BKN045 32/19 Q1012=
2009111318 - SBKP 131800Z 20003KT 9999 BKN045 33/19 Q1012=
2009111319 - SBKP 131900Z 24005KT 9999 SCT045 33/18 Q1011=
2009111320 - SBKP 132000Z 17007KT 9999 FEW45 32/18 Q1012=
2009111321 - SBKP 132100Z 15013KT 9000 NSC 29/21 Q1012=
2009111322 - SBKP 132200Z 14014KT CAVOK 27/21 Q1012=
2009111323 - SBKP 132300Z 14016KT CAVOK 25/21 Q1013=
2009111400 - SBKP 140000Z 14015KT CAVOK 24/21 Q1014=
2009111401 - SBKP 140100Z 14017KT CAVOK 24/21 Q1014=
2009111402 - SBKP 140200Z 11015KT CAVOK 23/21 Q1014=
2009111402 - SBKP 140225Z 11016G26KT CAVOK 22/21 Q1013=
2009111403 - SBKP 140300Z 11016KT CAVOK 22/21 Q1012=
2009111404 - SBKP 140400Z 11012KT CAVOK 22/22 Q1012=
2009111405 - SBKP 140500Z 12007KT CAVOK 22/22 Q1012=
2009111406 - SBKP 140600Z 13011KT 9999 FEW045 22/22 Q1013=
2009111407 - SBKP 140700Z 09007KT 9999 FEW045 22/22 Q1012=
2009111408 - SBKP 140800Z 07005KT 9999 FEW045 22/22 Q1012=
2009111409 - SBKP 140900Z 10004KT 9000 NSC 22/22 Q1013=
2009111410 - SBKP 141000Z 05006KT CAVOK 24/22 Q1014=
2009111411 - SBKP 141100Z 05007KT CAVOK 27/21 Q1015=
2009111412 - SBKP 141200Z 01008KT CAVOK 28/21 Q1015=
2009111413 - SBKP 141300Z 36011KT 9999 FEW035 29/22 Q1016=
2009111414 - SBKP 141400Z 34013KT 9999 SCT035 30/22 Q1015=
2009111415 - SBKP 141500Z 35010KT 9999 SCT040 31/21 Q1015=
2009111416 - SBKP 141600Z 32009KT 9999 SCT045 32/22 Q1014=
2009111417 - SBKP 141700Z 32008KT 9999 SCT045 32/21 Q1014=
2009111418 - SBKP 141800Z 31011KT 9999 SCT045 30/22 Q1013=
2009111419 - SBKP 141900Z 23004KT 9999 -RA SCT040 FEW045TCU 27/24 Q1012=
2009111420 - SBKP 142000Z 33004KT 9999 FEW040 FEW045TCU BKN100 25/23 Q1013=
2009111421 - SBKP 142100Z 22001KT 9999 SCT040 BKN100 26/21 Q1013=
2009111422 - SBKP 142200Z 11005KT 9999 FEW045 BKN100 26/23 Q1013=
2009111423 - SBKP 142300Z 11005KT CAVOK 25/24 Q1014=
2009111500 - SBKP 150000Z 15007KT CAVOK 26/24 Q1015=
2009111501 - SBKP 150100Z 13011KT CAVOK 25/24 Q1015=
2009111502 - SBKP 150200Z 11010KT CAVOK 25/25 Q1015=
2009111503 - SBKP 150300Z 12011KT CAVOK 24/24 Q1014=
2009111504 - SBKP 150400Z 11008KT CAVOK 24/24 Q1013=
2009111505 - SBKP 150500Z 17003KT 8000 FEW030 24/24 Q1013=
2009111506 - SBKP 150600Z 12006KT 7000 FEW030 BKN090 24/24 Q1013=
2009111507 - SBKP 150700Z 05002KT 6000 VCTS FEW030CB BKN090 24/24 Q1013=
2009111508 - SBKP 150800Z 09004KT 4500 VCTS BR FEW030 FEW035CB BKN090 23/23 Q1013=
2009111509 - SBKP 150900Z 04004KT 7000 SCT030 SCT045 BKN080 24/24 Q1013=
2009111510 - SBKP 151000Z VRB01KT 9000 4000NW SCT030 FEW040TCU BKN090 25/25 Q1014=
2009111511 - SBKP 151100Z 18005KT 6000 FEW030 SCT090 24/24 Q1014=
2009111512 - SBKP 151200Z 21008KT 4000 -RA BR FEW010 FEW030TCU SCT090 24/24 Q1015=
2009111513 - SBKP 151300Z 07003KT 5000 BR FEW015 25/25 Q1014=
2009111514 - SBKP 151400Z 09010KT 5000 BR FEW012 SCT090 26/26 Q1011=
2009111515 - SBKP 151500Z 35006KT 9999 FEW030 29/23 Q1012=
2009111516 - SBKP 151600Z 27010KT 9999 FEW030 SCT090 28/24 Q1014=
2009111517 - SBKP 151700Z 30004KT 9999 FEW040 BKN070 30/23 Q1013=
2009111518 - SBKP 151800Z 26005KT 9999 FEW040 SCT070 31/22 Q1011=
2009111519 - SBKP 151900Z 24007KT 9999 FEW040 FEW045TCU SCT070 30/23 Q1011=
2009111520 - SBKP 152000Z 08004KT 9999 FEW040 FEW045TCU BKN090 28/20 Q1011=
2009111521 - SBKP 152100Z 19007KT 9999 FEW045TCU SCT090 27/20 Q1011=
2009111522 - SBKP 152200Z 13004KT 9999 FEW045TCU SCT090 26/21 Q1012=
2009111523 - SBKP 152300Z 13008KT 9999 SCT040 FEW045TCU SCT090 26/21 Q1012=
2009111600 - SBKP 160000Z 15010KT 9999 VCTS FEW040 FEW045CB SCT090 25/24 Q1013=
2009111600 - SBKP 160033Z 28013G33KT 9999 TSRA SCT015 FEW045CB SCT090 23/23 Q1015=
2009111600 - SBKP 160040Z 26024KT 4000 +TSRA SCT015 FEW045CB SCT090 21/21 Q1015=
2009111601 - SBKP 160100Z 23017KT 9999 -TSRA FEW007 SCT015 FEW045CB BKN090 20/20 Q1014 RERA=
2009111602 - SBKP 160200Z 18007KT 9999 -TSRA FEW007 SCT015 FEW045CB OVC090 21/21 Q1016=
2009111603 - SBKP 160300Z 03004KT 9999 VCTS FEW007 SCT015 FEW040CB OVC090 21/21 Q1016 RETS=
2009111604 - SBKP 160400Z 03005KT 9999 VCTS SCT015 FEW040CB OVC090 21/21 Q1015=
2009111605 - SBKP 160500Z 01005KT 9999 FEW006 SCT015 OVC090 21/21 Q1014=
2009111606 - SBKP 160600Z 08006KT 9999 FEW015 SCT040 BKN090 21/21 Q1012=
2009111607 - SBKP 160700Z 04003KT 9999 FEW020 SCT090 21/21 Q1012=
2009111608 - SBKP 160800Z 35002KT 9999 FEW030 SCT090 20/20 Q1012=
2009111609 - SBKP 160900Z 14002KT 9999 FEW030 BKN070 21/21 Q1012=
2009111610 - SBKP 161000Z 12004KT CAVOK 22/22 Q1013=
2009111611 - SBKP 161100Z 21008KT CAVOK 23/23 Q1013=
2009111612 - SBKP 161200Z 26001KT CAVOK 25/21 Q1013=
2009111613 - SBKP 161300Z 24003KT 9999 FEW020 26/22 Q1013=
2009111614 - SBKP 161400Z 24003KT 9999 FEW020 28/21 Q1013=
2009111615 - SBKP 161500Z 19007KT 9999 FEW030 SCT100 28/21 Q1013=
2009111616 - SBKP 161600Z 20008KT 9999 SCT030 29/19 Q1013=
2009111617 - SBKP 161700Z 20009KT 9999 FEW030 FEW040TCU 29/20 Q1013=
2009111618 - SBKP 161800Z 19015KT 9999 SCT035 FEW040TCU SCT100 28/22 Q1012=
2009111619 - Mensagem METAR de 'SBKP' para 16/11/2009 as 19(UTC) não localizada na base de dados da REDEMET
2009111620 - Mensagem METAR de 'SBKP' para 16/11/2009 as 20(UTC) não localizada na base de dados da REDEMET
2009111621 - SBKP 162100Z 16013KT 9999 SCT035 SCT100 27/20 Q1012=
2009111622 - SBKP 162200Z 12010KT 9999 FEW035 SCT100 24/20 Q1013=
2009111623 - SBKP 162300Z 13015KT 9999 FEW020 BKN080 23/20 Q1014=
2009111700 - SBKP 170000Z 12013KT 9999 FEW020 SCT080 22/20 Q1014=
2009111701 - SBKP 170100Z 14014KT 9999 FEW020 22/20 Q1015=
2009111702 - SBKP 170200Z 13013KT 9999 FEW020 21/19 Q1015=
2009111703 - SBKP 170300Z 13014KT 9999 FEW020 SCT090 21/19 Q1015=
2009111704 - SBKP 170400Z 13011KT 9999 FEW020 BKN090 21/19 Q1014=
2009111705 - SBKP 170500Z 14011KT 9999 FEW020 BKN090 20/19 Q1014=
2009111706 - SBKP 170600Z 12006KT 9999 FEW020 20/20 Q1014=
2009111707 - SBKP 170700Z 11004KT 9999 BKN025 BKN090 19/19 Q1014=
2009111708 - SBKP 170800Z 11005KT 9999 BKN025 BKN090 20/19 Q1014=
2009111709 - SBKP 170900Z 11007KT 9999 BKN020 BKN090 20/19 Q1015=
2009111710 - SBKP 171000Z 12011KT 9999 FEW020 21/19 Q1016=
2009111711 - SBKP 171100Z 12012KT 9999 FEW020 22/19 Q1016=
2009111712 - SBKP 171200Z 12014KT 9999 FEW025 24/18 Q1016=
2009111713 - SBKP 171300Z 11009KT 9999 FEW025 26/19 Q1016=
2009111714 - SBKP 171400Z 13009KT 9999 FEW025 27/18 Q1016=
2009111715 - SBKP 171500Z 13009KT 9999 FEW025 28/18 Q1016=
2009111716 - SBKP 171600Z 13007KT 9999 SCT040 29/19 Q1015=
2009111717 - SBKP 171700Z 12007KT 9999 SCT040 28/18 Q1015=
2009111718 - SBKP 171800Z 11006KT 9999 BKN040 30/19 Q1014=
2009111719 - SBKP 171900Z 16008KT 9999 BKN040 30/19 Q1014=
2009111720 - SBKP 172000Z 12008KT 9999 SCT040 29/19 Q1013=
2009111721 - SBKP 172100Z 12010KT 9999 FEW040 27/19 Q1013=
2009111722 - SBKP 172200Z 13016KT 9000 FEW025 25/19 Q1013=
2009111723 - SBKP 172300Z 12017KT CAVOK 23/19 Q1014=
2009111800 - SBKP 180000Z 12014KT CAVOK 22/20 Q1015=
2009111801 - SBKP 180100Z 11015KT 9999 FEW045 22/20 Q1015=
2009111802 - SBKP 180200Z 11013KT CAVOK 21/20 Q1016=
2009111803 - SBKP 180300Z 11010KT CAVOK 21/20 Q1016=
2009111804 - SBKP 180400Z 11008KT CAVOK 20/20 Q1015=
2009111805 - SBKP 180500Z 11007KT CAVOK 20/20 Q1015=
2009111806 - SBKP 180600Z 12007KT CAVOK 19/19 Q1015=
2009111807 - SBKP 180700Z 12008KT CAVOK 19/19 Q1015=
2009111808 - SBKP 180800Z 11008KT 9999 FEW006 19/19 Q1015=
2009111809 - SBKP 180900Z 11007KT 9999 4000SE BCFG FEW040 19/19 Q1016=
2009111810 - SBKP 181000Z 12005KT 6000 FEW040 22/20 Q1016=
2009111811 - SBKP 181100Z 09005KT CAVOK 24/19 Q1015=
2009111812 - SBKP 181200Z 07009KT CAVOK 27/18 Q1014=
2009111813 - SBKP 181300Z 04008KT CAVOK 28/19 Q1014=
2009111814 - SBKP 181400Z 36006KT 9999 FEW040 30/20 Q1014=
2009111815 - SBKP 181500Z 04006KT 9999 FEW040 31/19 Q1014=
2009111816 - SBKP 181600Z 01006KT 9999 SCT040 32/18 Q1013=
2009111817 - SBKP 181700Z 34006KT 9999 SCT045 32/18 Q1013=
2009111818 - SBKP 181800Z 32005KT 9999 SCT045 33/17 Q1012=
2009111819 - SBKP 181900Z 34004KT 9999 SCT045 33/18 Q1012=
2009111820 - SBKP 182000Z 31003KT 9999 VCSH FEW045 FEW050TCU 32/18 Q1012=
2009111821 - SBKP 182100Z 33003KT 9999 FEW045 FEW050TCU 31/19 Q1012=
2009111822 - SBKP 182200Z 07002KT 9999 FEW045 30/19 Q1013=
2009111823 - SBKP 182300Z 35004KT 9999 FEW045 29/20 Q1014=
2009111900 - SBKP 190000Z 30004KT 9999 FEW045 28/20 Q1015=
2009111901 - SBKP 190100Z 13007KT 9999 SCT045 27/22 Q1015=
2009111902 - SBKP 190200Z 11006KT CAVOK 25/22 Q1015=
2009111903 - SBKP 190300Z 06003KT CAVOK 25/22 Q1014=
2009111904 - SBKP 190400Z 08005KT CAVOK 24/22 Q1013=
2009111905 - SBKP 190500Z 07003KT CAVOK 24/22 Q1012=
2009111906 - SBKP 190600Z 11004KT CAVOK 23/22 Q1013=
2009111907 - SBKP 190700Z 05004KT CAVOK 22/22 Q1012=
2009111908 - SBKP 190800Z 34003KT CAVOK 23/21 Q1013=
2009111909 - SBKP 190900Z 01005KT CAVOK 23/22 Q1014=
2009111910 - SBKP 191000Z 03005KT CAVOK 24/21 Q1014=
2009111911 - SBKP 191100Z 04009KT CAVOK 26/21 Q1014=
2009111912 - SBKP 191200Z 03012KT CAVOK 28/21 Q1015=
2009111913 - SBKP 191300Z 01012KT 9999 FEW040 SCT070 29/21 Q1015=
2009111914 - SBKP 191400Z 01012KT 9999 FEW040 SCT070 29/21 Q1015=
2009111915 - SBKP 191500Z 35011KT 9999 SCT040 31/21 Q1014=
2009111916 - SBKP 191600Z 36011KT 9999 SCT040 32/21 Q1014=
2009111917 - SBKP 191700Z 35010KT 9999 SCT040 FEW045TCU 32/20 Q1013=
2009111918 - SBKP 191800Z 28018KT 9999 VCSH SCT025 SCT040 SCT045TCU BKN080 25/22 Q1015=
2009111918 - SBKP 191820Z 32007KT 9999 VCSH TS SCT025 SCT040CB BKN080 25/22 Q1015=
2009111919 - SBKP 191900Z 04006KT 9999 TS SCT035 FEW040CB BKN080 24/23 Q1014=
2009111919 - SBKP 191920Z 04002KT 9999 -RA SCT035 SCT050 BKN080 25/23 Q1013 RETS=
2009111920 - SBKP 192000Z 16005KT 9999 SCT035 SCT050 BKN080 25/23 Q1013 RETS=
2009111921 - SBKP 192100Z 11004KT 9999 FEW035 BKN090 27/22 Q1012=
2009111922 - SBKP 192200Z 07005KT 9999 FEW030 BKN090 25/22 Q1013=
2009111923 - SBKP 192300Z 11004KT 9999 FEW030 SCT090 25/22 Q1014=
2009112000 - SBKP 200000Z 04004KT 9999 FEW030 SCT090 24/24 Q1014=
2009112001 - SBKP 200100Z 11006KT 9999 FEW030 BKN090 25/22 Q1015=
2009112002 - SBKP 200200Z 08004KT 9999 VCTS FEW040CB 25/22 Q1015=
2009112003 - SBKP 200300Z 22004KT 9999 VCTS FEW040CB 24/23 Q1015=
2009112004 - SBKP 200400Z 20007KT 9999 FEW040 SCT070 23/23 Q1015=
2009112005 - SBKP 200500Z 16008KT 9999 FEW040 SCT080 24/22 Q1015=
2009112006 - SBKP 200600Z 13005KT 9999 FEW040 SCT080 23/22 Q1014=
2009112007 - SBKP 200700Z 14005KT 9999 SCT040 SCT070 23/22 Q1015=
2009112008 - SBKP 200800Z 15002KT 9999 SCT040 SCT070 23/22 Q1016=
2009112009 - SBKP 200900Z 20006KT 9999 SCT040 23/22 Q1016=
2009112010 - SBKP 201000Z 08007KT 9999 SCT040 SCT070 23/22 Q1015=
2009112011 - SBKP 201100Z 08007KT 9999 FEW040 SCT070 25/22 Q1015=
2009112012 - SBKP 201200Z 01007KT 9999 FEW040 SCT070 26/23 Q1015=
2009112013 - SBKP 201300Z 01005KT 9999 FEW040 SCT070 28/22 Q1016=
2009112014 - SBKP 201400Z 01005KT 9999 FEW040 SCT070 30/21 Q1016=
2009112015 - SBKP 201500Z 33010KT 9999 FEW040 31/20 Q1016=
2009112016 - SBKP 201600Z 29008KT 9999 BKN040 31/21 Q1015=
2009112017 - SBKP 201700Z 28008KT 9999 VCSH SCT040 FEW045TCU 32/20 Q1015=
2009112018 - SBKP 201800Z 25008KT 9999 SCT040 FEW045TCU BKN090 30/22 Q1013=
2009112018 - SBKP 201820Z 27009KT 9999 VCSH TS SCT040 FEW045CB BKN090 29/22 Q1013=
2009112019 - SBKP 201900Z 29027G47KT 1000 R15/0900 R33/0900 +TSRA BKN002 BKN040 BKN045CB OVC090 21/21 Q1015=
2009112019 - SBKP 201940Z 05010KT 3000 TSRA SCT020 SCT040 SCT045CB OVC090 20/20 Q1016 RERA=
2009112020 - SBKP 202000Z 07007KT 6000 -TSRA SCT020 SCT040 FEW045CB OVC090 20/20 Q1014 RERA=
2009112021 - SBKP 202100Z 03003KT 9000 -TSRA SCT020 FEW040CB OVC090 21/21 Q1014=
2009112022 - SBKP 202200Z 12004KT 9000 -RA SCT020 SCT035 OVC090 21/21 Q1015 RETS=
2009112023 - SBKP 202300Z 07002KT 9999 -RA FEW005 SCT020 OVC090 21/21 Q1016=
2009112100 - SBKP 210000Z 15012KT 9999 SCT020 BKN080 OVC100 22/22 Q1016=
2009112101 - SBKP 210100Z 14006KT 9999 SCT020 BKN070 OVC100 23/23 Q1017=
2009112102 - SBKP 210200Z 13008KT 6000 FEW020 OVC090 22/22 Q1017=
2009112103 - SBKP 210300Z 13006KT 5000 BR NSC 22/22 Q1017=
2009112104 - SBKP 210400Z 13007KT 5000 BR FEW030 22/22 Q1017=
2009112105 - SBKP 210500Z 14008KT 7000 NSC 22/22 Q1016=
2009112106 - SBKP 210600Z 18003KT 8000 FEW015 BKN070 22/22 Q1017=
2009112107 - SBKP 210700Z 12004KT 6000 -RA SCT015 BKN070 22/22 Q1017=
2009112108 - SBKP 210800Z 15008KT 6000 SCT015 BKN070 22/22 Q1017=
2009112109 - SBKP 210900Z 13013KT 7000 3000SE FEW030 22/22 Q1017=
2009112110 - SBKP 211000Z 11010KT 7000 3000SE FEW030 23/23 Q1017=
2009112111 - SBKP 211100Z 11011KT 8000 FEW030 23/23 Q1018=
2009112112 - SBKP 211200Z 11011KT 9999 FEW030 BKN100 24/24 Q1018=
2009112113 - SBKP 211300Z 10008KT 9999 SCT030 BKN100 26/24 Q1018=
2009112114 - SBKP 211400Z 08004KT 9999 SCT035 BKN100 27/23 Q1017=
2009112115 - SBKP 211500Z 05009KT 9999 SCT035 BKN100 29/22 Q1017=
2009112116 - SBKP 211600Z 01006KT 9999 SCT035 BKN090 29/22 Q1016=
2009112117 - SBKP 211700Z 01004KT 9999 SCT040 FEW045TCU BKN100 29/22 Q1015=
2009112118 - SBKP 211800Z 27008KT 9999 VCSH SCT040 FEW045TCU BKN090 29/23 Q1015=
2009112118 - SBKP 211840Z 22006KT 9999 VCSH TS SCT040 SCT045CB BKN090 30/22 Q1014=
2009112119 - SBKP 211900Z 11011KT 9999 VCSH TS SCT040 SCT045CB BKN090 28/20 Q1014=
2009112119 - SBKP 211930Z 34016G31KT 9999 3000E -TSRA SCT012 SCT040 SCT045CB BKN090 21/21 Q1016=
2009112119 - SBKP 211945Z 32006KT 4000 TSRA BR SCT012 SCT040 FEW045CB OVC090 20/20 Q1016=
2009112120 - SBKP 212000Z 32006KT 4500 -TSRA BR SCT012 SCT040 FEW045CB OVC090 19/19 Q1016 RERA=
2009112120 - SBKP 212030Z 33002KT 7000 -RA FEW015 SCT040 OVC090 20/20 Q1016 RETS=
2009112121 - SBKP 212100Z 11004KT 8000 -RA SCT020 SCT050 OVC090 21/21 Q1016 RETS=
2009112122 - SBKP 212200Z 16009KT 9999 -RA SCT020 BKN050 OVC090 21/21 Q1016=
2009112123 - SBKP 212300Z 11012KT 9999 -RA SCT020 BKN050 OVC090 20/20 Q1016=
2009112100 - SBKP 210000Z 15012KT 9999 SCT020 BKN080 OVC100 22/22 Q1016=
2009112101 - SBKP 210100Z 14006KT 9999 SCT020 BKN070 OVC100 23/23 Q1017=
2009112102 - SBKP 210200Z 13008KT 6000 FEW020 OVC090 22/22 Q1017=
2009112103 - SBKP 210300Z 13006KT 5000 BR NSC 22/22 Q1017=
2009112104 - SBKP 210400Z 13007KT 5000 BR FEW030 22/22 Q1017=
2009112105 - SBKP 210500Z 14008KT 7000 NSC 22/22 Q1016=
2009112106 - SBKP 210600Z 18003KT 8000 FEW015 BKN070 22/22 Q1017=
2009112107 - SBKP 210700Z 12004KT 6000 -RA SCT015 BKN070 22/22 Q1017=
2009112108 - SBKP 210800Z 15008KT 6000 SCT015 BKN070 22/22 Q1017=
2009112109 - SBKP 210900Z 13013KT 7000 3000SE FEW030 22/22 Q1017=
2009112110 - SBKP 211000Z 11010KT 7000 3000SE FEW030 23/23 Q1017=
2009112111 - SBKP 211100Z 11011KT 8000 FEW030 23/23 Q1018=
2009112112 - SBKP 211200Z 11011KT 9999 FEW030 BKN100 24/24 Q1018=
2009112113 - SBKP 211300Z 10008KT 9999 SCT030 BKN100 26/24 Q1018=
2009112114 - SBKP 211400Z 08004KT 9999 SCT035 BKN100 27/23 Q1017=
2009112115 - SBKP 211500Z 05009KT 9999 SCT035 BKN100 29/22 Q1017=
2009112116 - SBKP 211600Z 01006KT 9999 SCT035 BKN090 29/22 Q1016=
2009112117 - SBKP 211700Z 01004KT 9999 SCT040 FEW045TCU BKN100 29/22 Q1015=
2009112118 - SBKP 211800Z 27008KT 9999 VCSH SCT040 FEW045TCU BKN090 29/23 Q1015=
2009112118 - SBKP 211840Z 22006KT 9999 VCSH TS SCT040 SCT045CB BKN090 30/22 Q1014=
2009112119 - SBKP 211900Z 11011KT 9999 VCSH TS SCT040 SCT045CB BKN090 28/20 Q1014=
2009112119 - SBKP 211930Z 34016G31KT 9999 3000E -TSRA SCT012 SCT040 SCT045CB BKN090 21/21 Q1016=
2009112119 - SBKP 211945Z 32006KT 4000 TSRA BR SCT012 SCT040 FEW045CB OVC090 20/20 Q1016=
2009112120 - SBKP 212000Z 32006KT 4500 -TSRA BR SCT012 SCT040 FEW045CB OVC090 19/19 Q1016 RERA=
2009112120 - SBKP 212030Z 33002KT 7000 -RA FEW015 SCT040 OVC090 20/20 Q1016 RETS=
2009112121 - SBKP 212100Z 11004KT 8000 -RA SCT020 SCT050 OVC090 21/21 Q1016 RETS=
2009112122 - SBKP 212200Z 16009KT 9999 -RA SCT020 BKN050 OVC090 21/21 Q1016=
2009112123 - SBKP 212300Z 11012KT 9999 -RA SCT020 BKN050 OVC090 20/20 Q1016=
2009112200 - SBKP 220000Z 11011KT 9999 FEW020 SCT050 BKN070 21/21 Q1016=
2009112301 - SBKP 230100Z 11004KT 9999 SCT040 23/23 Q1014=
2009112302 - SBKP 230200Z 09004KT 9999 SCT040 23/23 Q1014=
2009112303 - SBKP 230300Z 34004KT 9999 FEW040 23/23 Q1013=
2009112304 - SBKP 230400Z 29005KT 9999 FEW020 23/23 Q1012=
2009112305 - SBKP 230500Z 00000KT CAVOK 22/22 Q1012=
2009112306 - SBKP 230600Z 19002KT CAVOK 23/23 Q1012=
2009112307 - SBKP 230700Z 16005KT CAVOK 22/22 Q1012=
2009112308 - SBKP 230800Z 14005KT 9999 FEW030 BKN090 23/23 Q1013=
2009112309 - SBKP 230900Z 16004KT 9000 SCT030 BKN090 23/23 Q1013=
2009112310 - SBKP 231000Z 09004KT 9000 4000SE -RA SCT035 BKN090 22/22 Q1014=
2009112311 - SBKP 231100Z 11003KT 9000 4000SE SCT035 BKN090 23/23 Q1014=
2009112312 - SBKP 231200Z 11002KT 9000 SCT030 BKN100 25/23 Q1014=
2009112313 - SBKP 231300Z 10003KT 9999 SCT030 SCT100 26/23 Q1013=
2009112314 - SBKP 231400Z 15002KT 9999 BKN030 BKN100 27/23 Q1013=
2009112315 - SBKP 231500Z 10002KT 9999 SCT030 SCT100 28/23 Q1012=
2009112316 - SBKP 231600Z 30003KT 9999 SCT030 FEW040TCU SCT100 29/22 Q1011=
2009112316 - SBKP 231625Z 33014KT 9999 -TSRA SCT035 FEW040CB SCT100 25/23 Q1012=
2009112316 - SBKP 231640Z 28016KT 2000 +TSRA BR SCT035 SCT040CB BKN100 23/23 Q1013=
2009112317 - SBKP 231700Z 25011KT 2000 +TSRA BR SCT035 SCT040CB BKN100 22/22 Q1013=
2009112318 - SBKP 231800Z 16004KT 9999 4000E -TSRA FEW040 SCT045CB 22/22 Q1011 RERA=
2009112319 - SBKP 231900Z 11005KT 9999 -TSRA FEW040 FEW045CB 23/23 Q1012=
2009112320 - SBKP 232000Z 10007KT 9999 -RA SCT040 23/23 Q1011 RETS=
2009112321 - SBKP 232100Z 10006KT 9999 FEW040 BKN100 24/24 Q1011=
2009112322 - SBKP 232200Z 12005KT 9999 VCTS SCT040CB BKN100 23/23 Q1012=
2009112323 - SBKP 232300Z 02003KT 9999 VCTS SCT040CB OVC100 23/23 Q1013=
2009112400 - SBKP 240000Z 33008KT 9999 -RA SCT015 SCT040TCU OVC100 22/22Q1015=
2009112401 - SBKP 240100Z 34007KT 9999 -RA FEW002 SCT040 22/22 Q1015=
2009112402 - SBKP 240200Z 08002KT 9999 FEW002 SCT040 21/21 Q1015=
2009112403 - SBKP 240300Z 12003KT 9999 FEW040 21/21 Q1014=
2009112404 - SBKP 240400Z 14006KT 9999 FEW040 21/21 Q1013=
2009112405 - SBKP 240500Z 13006KT 9999 FEW040 21/21 Q1012=
2009112406 - SBKP 240600Z 11004KT 9999 FEW040 21/21 Q1011=
2009112407 - SBKP 240700Z 11005KT 9999 FEW040 21/21 Q1011=
2009112408 - SBKP 240800Z 13005KT 9999 FEW040 21/21 Q1011=
2009112409 - SBKP 240900Z 13005KT 9999 FEW040 21/21 Q1012=
2009112410 - SBKP 241000Z 10004KT 9999 FEW040 BKN080 22/22 Q1013=
2009112411 - SBKP 241100Z 07006KT 9999 FEW040 BKN080 24/24 Q1013=
2009112412 - SBKP 241200Z 23001KT 9999 FEW040 SCT070 27/23 Q1013=
2009112413 - SBKP 241300Z 34002KT 9999 FEW030 SCT070 28/22 Q1013=
2009112414 - SBKP 241400Z 29005KT 9999 SCT035 BKN070 29/23 Q1013=
2009112415 - SBKP 241500Z 33006KT 9999 SCT030 FEW040TCU BKN070 29/21 Q1013=
2009112416 - SBKP 241600Z 31011KT 9999 SCT035 FEW040TCU BKN070 29/22 Q1013=
2009112417 - SBKP 241700Z 33010KT 9999 SCT035 FEW040TCU BKN070 29/21 Q1011=
2009112418 - SBKP 241800Z 34016KT 9999 -TSRA SCT040 SCT045CB BKN070 29/22 Q1011=
2009112419 - SBKP 241900Z 32011KT 9999 TS SCT040 FEW045CB BKN070 26/19 Q1011=
2009112420 - SBKP 242000Z 32007KT 9999 TS SCT040 FEW045CB BKN070 27/21 Q1012=
2009112421 - SBKP 242100Z 20007KT 9999 SCT035 FEW045TCU BKN070 25/22 Q1012 RETS=
2009112422 - SBKP 242200Z 18007KT 9999 TS SCT035 SCT045CB BKN070 24/23 Q1013=
2009112423 - SBKP 242300Z 16006KT 9999 TS SCT040 SCT045CB BKN100 24/23 Q1014=
2009112500 - SBKP 250000Z 12009KT 9999 VCTS SCT030 FEW045CB 22/22 Q1014 RETS=
2009112501 - SBKP 250100Z 12012KT 9999 SCT030 22/22 Q1015=
2009112502 - SBKP 250200Z 10008KT 9999 SCT030 21/21 Q1014=
2009112503 - SBKP 250300Z 07006KT 9999 FEW040 21/21 Q1012=
2009112504 - SBKP 250400Z 07006KT 9999 FEW040 21/21 Q1012=
2009112505 - SBKP 250500Z 11003KT 9999 FEW040 21/21 Q1011=
2009112506 - SBKP 250600Z 14003KT CAVOK 20/20 Q1011=
2009112507 - SBKP 250700Z 13005KT CAVOK 20/20 Q1011=
2009112508 - SBKP 250800Z 13007KT CAVOK 20/20 Q1012=
2009112509 - SBKP 250900Z 13007KT CAVOK 20/20 Q1013=
2009112510 - SBKP 251000Z 10006KT CAVOK 21/21 Q1014=
2009112511 - SBKP 251100Z 10004KT CAVOK 23/23 Q1014=
2009112512 - SBKP 251200Z 12002KT CAVOK 25/22 Q1015=
2009112513 - SBKP 251300Z 10004KT CAVOK 27/22 Q1015=
2009112514 - SBKP 251400Z 14003KT 9999 FEW035 BKN070 28/21 Q1015=
2009112515 - SBKP 251500Z 26001KT 9999 FEW035 BKN070 30/21 Q1014=
2009112516 - SBKP 251600Z 34007KT 9999 FEW035 BKN070 31/19 Q1014=
2009112517 - SBKP 251700Z 34005KT 9999 FEW035 SCT070 31/19 Q1013=
2009112518 - SBKP 251800Z 34008KT 9999 FEW035 SCT080 32/19 Q1012=
2009112519 - SBKP 251900Z 31006KT 9999 SCT035 32/18 Q1012=
2009112520 - SBKP 252000Z 29002KT 9999 FEW035 FEW040TCU 33/18 Q1011=
2009112521 - SBKP 252100Z 26003KT 9999 FEW035 FEW040TCU SCT090 30/19 Q1012=
2009112522 - SBKP 252200Z 30013KT 9999 FEW035 FEW040TCU SCT090 25/19 Q1013=
2009112523 - SBKP 252300Z 15008KT 9999 VCTS FEW035 FEW040CB SCT090 26/19 Q1013=
2009112600 - SBKP 260000Z 13012KT 9999 VCTS FEW040CB BKN090 24/17 Q1014=
2009112601 - SBKP 260100Z 14012KT 9999 VCTS FEW040CB BKN080 23/19 Q1015=
2009112602 - SBKP 260200Z 12009KT 9999 FEW045 BKN070 23/21 Q1015=
2009112603 - SBKP 260300Z 13012KT 9999 FEW045 BKN070 23/20 Q1014=
2009112604 - SBKP 260400Z 12006KT CAVOK 22/21 Q1014=
2009112605 - SBKP 260500Z 12006KT CAVOK 21/21 Q1013=
2009112606 - SBKP 260600Z 09004KT CAVOK 21/21 Q1013=
2009112607 - SBKP 260700Z 11003KT CAVOK 20/20 Q1013=
2009112608 - SBKP 260800Z 12004KT CAVOK 20/20 Q1014=
2009112609 - SBKP 260900Z 12004KT 9999 FEW040 20/20 Q1015=
2009112610 - SBKP 261000Z 09003KT 9999 FEW035 23/22 Q1016=
2009112611 - SBKP 261100Z 36007KT 9999 FEW035 26/20 Q1016=
2009112612 - SBKP 261200Z 36008KT 9999 FEW035 SCT080 27/20 Q1016=
2009112613 - SBKP 261300Z 02008KT CAVOK 29/19 Q1016=
2009112614 - SBKP 261400Z 01008KT 9999 FEW030 30/20 Q1015=
2009112615 - SBKP 261500Z 34008KT 9999 FEW035 SCT080 31/20 Q1015=
2009112616 - SBKP 261600Z 34007KT 9999 SCT035 SCT080 32/20 Q1015=
2009112617 - SBKP 261700Z 33007KT 9999 SCT035 32/19 Q1014=
2009112618 - SBKP 261800Z 34007KT 9999 SCT035 32/19 Q1012=
2009112619 - SBKP 261900Z 31007KT 9999 SCT035 FEW045TCU SCT090 32/18 Q1012=
2009112619 - SBKP 261930Z 33009KT 5000 -TSRA SCT035 FEW045CB SCT090 30/20 Q1012=
2009112620 - SBKP 262000Z 09009KT 4000 -TSRA SCT030 FEW037CB BKN090 25/20 Q1011 WS R33=
2009112621 - SBKP 262100Z 19010KT 9999 4000E -TSRA SCT030 FEW037CB BKN090 24/21 Q1012=
2009112622 - SBKP 262200Z 13008KT 9999 -TSRA SCT030 FEW040CB 22/22 Q1014=
2009112623 - SBKP 262300Z 11012KT 9999 -TSRA FEW030 FEW040CB BKN100 22/22 Q1014=
2009112700 - SBKP 270000Z 11013KT 9999 4500E TSRA SCT035 FEW040CB BKN100 22/22 Q1015=
2009112700 - SBKP 270045Z 03010KT 4000 RA BR SCT010 SCT040 OVC090 22/22 Q1017 RETS WS R15=
2009112701 - SBKP 270100Z 04009KT 3000 TSRA BR SCT010 SCT035 FEW040CB OVC090 21/21 Q1016 WS RWY15=
2009112701 - SBKP 270105Z 36008KT 3000 +TSRA BR SCT010 SCT035 FEW040CB OVC090 21/21 Q1016=
2009112701 - SBKP 270135Z 01005KT 3000 TSRA BR SCT010 SCT030 SCT040CB OVC090 21/21 Q1016 RERA=
2009112702 - SBKP 270200Z 02005KT 2500 TSRA BR SCT010 SCT030 SCT040CB OVC090 21/21 Q1016 RERA=
2009112702 - SBKP 270220Z 05010KT 3500 RA BR SCT010 BKN040 OVC070 21/21 Q1016 RETS=
2009112703 - SBKP 270300Z 04006KT 3000 RA BR SCT010 BKN040 OVC080 21/21 Q1015 RETS=
2009112704 - SBKP 270400Z 08006KT 6000 -RA SCT010 BKN040 OVC100 21/21 Q1014 RERA=
2009112705 - SBKP 270500Z 06006KT 6000 -RA SCT010 BKN040 21/21 Q1013=
2009112706 - SBKP 270600Z 02001KT 9999 -RA FEW010 BKN040 OVC100 22/22 Q1013=
2009112707 - SBKP 270700Z 23004KT 6000 FEW005 BKN040 21/21 Q1013=
2009112707 - SBKP 270730Z 27003KT 4000 BR BKN004 SCT040 21/21 Q1013=
2009112708 - SBKP 270800Z 31002KT 2500 BR BKN004 21/21 Q1014=
2009112709 - SBKP 270900Z 02002KT 2500 BR BKN004 21/21 Q1014=
2009112710 - SBKP 271000Z 02006KT 4000 BR FEW004 22/22 Q1015=
2009112711 - SBKP 271100Z 01005KT 5000 BR FEW009 23/23 Q1016=
2009112712 - SBKP 271200Z 35006KT 6000 FEW010 24/24 Q1016=
2009112713 - SBKP 271300Z 33010KT 7000 SCT020 26/24 Q1016=
2009112714 - SBKP 271400Z 31007KT 9999 BKN025 27/23 Q1016=
2009112715 - SBKP 271500Z 29008KT 9999 BKN030 28/22 Q1015=
2009112716 - SBKP 271600Z 30008KT 9999 BKN030 29/22 Q1014=
2009112717 - SBKP 271700Z 27005KT 9999 SCT030 FEW040TCU 29/22 Q1013=
2009112718 - SBKP 271800Z 24006KT 9999 SCT030 FEW040TCU 30/22 Q1012=
2009112719 - SBKP 271900Z 19008KT 9999 SCT030 FEW040TCU 29/22 Q1011=
2009112720 - SBKP 272000Z 19008KT 9999 2000N -TSRA SCT025 SCT040CB 28/23 Q1011=
2009112720 - SBKP 272025Z 34014G24KT 0800 R15/1000 R33/0800 TSRA BKN020 SCT040CB 21/21 Q1013=
2009112720 - SBKP 272045Z 20005KT 8000 2500S -TSRA SCT020 FEW040CB OVC100 21/21 Q1013 RERA=
2009112721 - SBKP 272100Z 23007KT 9999 3000SE -TSRA SCT020 FEW040CB OVC100 21/21 Q1013 RERA=
2009112721 - SBKP 272120Z 07002KT 9999 FEW020 BKN070 21/21 Q1013 RETS=
2009112722 - SBKP 272200Z 09005KT 9999 FEW040 BKN070 BKN100 22/22 Q1013 RETS=
2009112723 - SBKP 272300Z 10006KT CAVOK 22/22 Q1013=
2009112800 - SBKP 280000Z 10006KT CAVOK 22/22 Q1014=
2009112801 - SBKP 280100Z 10003KT CAVOK 22/22 Q1015=
2009112801 - SBKP 280135Z 29014KT 4500 -RA BR BKN008 SCT030 BKN090 22/22 Q1016=
2009112802 - SBKP 280200Z 31012KT 2500 R15/1800 R33/P2000 RA BR BKN008 SCT030 OVC090 21/21 Q1016=
2009112802 - SBKP 280215Z 36003KT 6000 RA SCT008 SCT030 OVC090 21/21 Q1015=
2009112803 - SBKP 280300Z 07006KT 2500 RA BR SCT008 BKN045 OVC090 21/21 Q1014=
2009112804 - SBKP 280400Z 07007KT 4500 -RA BR SCT008 BKN045 22/22 Q1013 RERA=
2009112804 - SBKP 280440Z 05008KT 9000 SCT045 22/22 Q1013=
2009112805 - SBKP 280500Z 05011KT 9999 SCT045 OVC100 22/22 Q1013=
2009112806 - SBKP 280600Z 03008KT 9999 FEW009 BKN050 21/21 Q1012=
2009112807 - SBKP 280700Z 33006KT 9999 VCSH FEW015 SCT030 FEW035TCU 21/21 Q1013=
2009112807 - SBKP 280720Z 32004KT 4000 RA BR FEW004 BKN015 FEW045TCU 21/21 Q1013=
2009112808 - SBKP 280800Z 05007KT 4000 RA BR SCT015 FEW045TCU OVC100 20/20 Q1013=
2009112808 - SBKP 280815Z 04008KT 6000 -RA SCT015 OVC100 21/21 Q1013 RERA=
2009112809 - SBKP 280900Z 03007KT 9999 SCT040 21/21 Q1013 RERA=
2009112810 - SBKP 281000Z 01009KT 9999 4000NW -RA FEW010 SCT045 FEW050TCU 21/21 Q1014=
2009112810 - SBKP 281040Z 31012KT 2000 R15/1500 R33/P2000 +RA FEW001 BKN010 FEW050TCU 20/20 Q1015=
2009112811 - SBKP 281100Z 33011KT 2000 R15/1600 R33/P2000 +RA BR SCT002 BKN010 FEW050TCU 20/20 Q1015=
2009112811 - SBKP 281128Z 36007KT 4000 -RA BR FEW004 SCT010 BKN040 21/21 Q1015 RERA=
2009112812 - SBKP 281200Z 01008KT 5000 -RA BR SCT007 BKN040 21/21 Q1014 RERA=
2009112813 - SBKP 281300Z 35010KT 8000 -RA BKN010 23/23 Q1014=
2009112814 - SBKP 281400Z 36014KT 9999 BKN020 25/24 Q1013=
2009112815 - SBKP 281500Z 34016KT 9999 BKN020 25/24 Q1013=
2009112816 - SBKP 281600Z 34012KT 9999 BKN020 26/25 Q1013=
2009112817 - SBKP 281700Z 33013KT 9999 BKN020 FEW040TCU 26/23 Q1012=
2009112818 - SBKP 281800Z 32010KT 9999 SCT020 FEW040TCU 26/24 Q1011=
2009112819 - SBKP 281900Z 32009KT 9999 BKN025 FEW040TCU 26/22 Q1010=
2009112820 - SBKP 282000Z 32007KT 9999 SCT025 BKN100 26/23 Q1010=
2009112821 - SBKP 282100Z 31005KT 9999 SCT025 FEW030TCU BKN100 26/23 Q1010=
2009112822 - SBKP 282200Z 34004KT 9999 SCT025 FEW035TCU BKN100 25/24 Q1010=
2009112823 - SBKP 282300Z 35005KT 9999 VCTS SCT030 FEW040CB BKN100 25/23 Q1011=
2009112823 - SBKP 282346Z 35009KT 9999 TS FEW020 SCT030 FEW040CB BKN100 24/24 Q1012=
2009112900 - SBKP 290000Z 32012KT 9999 TS FEW020 SCT030 FEW040CB BKN100 23/23 Q1012=
2009112901 - SBKP 290100Z 36009KT 9999 FEW008 SCT015 BKN100 22/22 Q1013 RETS=
2009112901 - SBKP 290115Z 36008KT 9999 BKN007 SCT030 BKN100 22/22 Q1013=
2009112902 - SBKP 290200Z 36010KT 9999 BKN005 BKN100 22/22 Q1013=
2009112903 - SBKP 290300Z 01010KT 9999 BKN006 BKN100 22/22 Q1012=
2009112904 - SBKP 290400Z 36013KT 9999 -RA BKN007 BKN100 21/21 Q1011=
2009112905 - SBKP 290500Z 36010KT 9000 BKN006 OVC080 21/21 Q1011=
2009112905 - SBKP 290512Z 33009KT 2000 +RA BR BKN006 SCT030 OVC080 21/21 Q1011=
2009112905 - SBKP 290535Z 35010KT 3000 RA BR BKN005 SCT030 OVC080 21/21 Q1011 RERA=
2009112906 - SBKP 290600Z 35011KT 5000 -RA BR BKN005 SCT030 OVC080 21/21 Q1011 RERA=
2009112907 - SBKP 290700Z 01010KT 5000 -RA BR BKN007 OVC080 21/21 Q1011=
2009112908 - SBKP 290800Z 34010KT 5000 -RA BR BKN007 OVC080 21/21 Q1011=
2009112909 - SBKP 290900Z 34008KT 6000 -RA BKN007 OVC080 21/21 Q1012=
2009112910 - SBKP 291000Z 34009KT 5000 -RA BR BKN005 BKN020 21/21 Q1013=
2009112911 - SBKP 291100Z 33009KT 8000 BKN006 BKN020 22/22 Q1013=
2009112912 - SBKP 291200Z 31007KT 9999 BKN010 BKN020 22/22 Q1014=
2009112913 - SBKP 291300Z 31010KT 9999 5000NW -RA BKN010 BKN020 23/23 Q1014=
2009112914 - SBKP 291400Z 30012KT 5000 -RA BR BKN010 BKN020 22/22 Q1013=
2009112915 - SBKP 291500Z 32009KT 9999 BKN010 BKN025 23/23 Q1013=
2009112916 - SBKP 291600Z 31012KT 5000 2000E -RA BR BKN010 BKN025 23/23 Q1012=
2009112917 - SBKP 291700Z 31014KT 9999 4000SE -RA BKN015 BKN030 24/24 Q1012=
2009112918 - SBKP 291800Z 30009KT 9999 FEW021 BKN030 26/24 Q1011=
2009112919 - SBKP 291900Z 01004KT 9999 FEW015 BKN030 25/25 Q1010=
2009112920 - SBKP 292000Z 20006KT 9999 VCSH BKN030 FEW035TCU BKN100 23/23 Q1010=
2009112921 - SBKP 292100Z 17006KT 9999 VCSH SCT030 BKN090 24/23 Q1010=
2009112922 - SBKP 292200Z 08003KT 9999 SCT030 BKN090 23/23 Q1011=
2009112923 - SBKP 292300Z 02008KT 9999 SCT030 BKN090 23/23 Q1011=
2009113000 - SBKP 300000Z 04005KT 9999 FEW006 SCT030 22/22 Q1012=
2009113001 - SBKP 300100Z 05004KT 9999 FEW030 SCT090 22/22 Q1013=
2009113002 - SBKP 300200Z 03007KT 9999 SCT030 BKN080 22/22 Q1012=
2009113003 - SBKP 300300Z 03006KT 9999 SCT030 BKN080 22/22 Q1012=
2009113004 - SBKP 300400Z 01005KT 9999 SCT006 BKN030 BKN080 22/22 Q1011=
2009113005 - SBKP 300500Z 04004KT 9999 SCT006 BKN030 BKN080 22/22 Q1010=
2009113006 - SBKP 300600Z 02004KT 9000 SCT006 BKN030 BKN080 22/22 Q1010=
2009113007 - SBKP 300700Z 02004KT 9000 SCT006 BKN022 BKN080 22/22 Q1010=
2009113008 - SBKP 300800Z 01005KT 7000 FEW007 SCT022 BKN080 22/22 Q1011=
2009113009 - SBKP 300900Z 01004KT 9000 SCT022 BKN080 22/22 Q1011=
2009113010 - SBKP 301000Z 36006KT 9999 FEW020 BKN070 22/22 Q1012=
2009113011 - SBKP 301100Z 36006KT 6000 2500N FEW010 BKN070 23/23 Q1012=
2009113012 - SBKP 301200Z 01004KT 9999 FEW010 BKN025 BKN070 24/24 Q1013=
2009113013 - SBKP 301300Z 35006KT 9999 FEW018 BKN020 BKN070 25/24 Q1012=
2009113014 - SBKP 301400Z 32009KT 9999 FEW018 SCT025 BKN070 27/25 Q1013=
2009113015 - SBKP 301500Z 31008KT 9999 FEW020 BKN030 29/24 Q1013=
2009113016 - SBKP 301600Z 29009KT 9999 VCSH FEW020 SCT030 FEW040TCU 28/24 Q1012=
2009113017 - SBKP 301700Z 30010KT 9999 VCSH SCT030 FEW040TCU 29/24 Q1011=
2009113018 - SBKP 301800Z 30007KT 9999 SCT030 FEW040TCU 30/23 Q1011=
2009113019 - SBKP 301900Z 29014KT 9999 -RA SCT030 FEW040TCU 25/21 Q1010=
2009113020 - SBKP 302000Z 27003KT 9999 VCSH SCT030 FEW040TCU 26/24 Q1010=
2009113021 - SBKP 302100Z 20005KT 9999 FEW030 FEW040TCU SCT090 26/24 Q1010=
2009113022 - SBKP 302200Z 04003KT 9999 FEW030 SCT090 25/25 Q1010=
2009113023 - SBKP 302300Z 07002KT 9999 FEW035 SCT090 25/25 Q1011=
2009120100 - SBKP 010000Z 10004KT 9999 SCT040 25/24 Q1011=
2009120101 - SBKP 010100Z 09004KT 9999 FEW040 24/24 Q1011=
2009120102 - SBKP 010200Z 34003KT 9999 SCT035 SCT090 23/23 Q1012=
2009120103 - SBKP 010300Z 36007KT 9999 SCT030 24/24 Q1011=
2009120104 - SBKP 010400Z 01007KT 9999 FEW030 23/23 Q1011=
2009120105 - SBKP 010500Z 02006KT 9999 SCT025 FEW033TCU SCT090 23/23 Q1010=
2009120106 - SBKP 010600Z 02004KT 9999 SCT025 SCT090 22/22 Q1010=
2009120107 - SBKP 010700Z 36005KT 9999 FEW012 SCT025 BKN080 22/22 Q1010=
2009120108 - SBKP 010800Z 36005KT 9000 SCT012 SCT025 BKN080 22/22 Q1011=
2009120108 - SBKP 010825Z 36004KT 7000 3000E BKN010 OVC090 22/22 Q1011=
2009120109 - SBKP 010900Z 36004KT 7000 BKN010 OVC090 22/22 Q1011=
2009120110 - SBKP 011000Z 36004KT 5000 BR BKN008 OVC090 22/22 Q1012=
2009120110 - SBKP 011030Z 01006KT 2500 BR BKN006 OVC090 22/22 Q1013=
2009120111 - SBKP 011100Z 36004KT 2500 BR BKN007 OVC090 22/22 Q1013=
2009120111 - SBKP 011154Z 32002KT 1500 R15/P2000 R33/P2000 -DZ BR BKN007 OVC090 22/22 Q1013=
2009120112 - SBKP 011200Z 35002KT 1000 R15/1900 R33/P2000 -DZ BR BKN007 OVC090 23/23 Q1013=
2009120112 - SBKP 011250Z 33001KT 2500 -DZ BR SCT007 BKN010 OVC090 23/23 Q1014=
2009120113 - SBKP 011300Z 33003KT 4000 BR SCT007 BKN010 BKN090 24/24 Q1013=
2009120113 - SBKP 011345Z 35004KT 5000 BR SCT014 BKN020 25/25 Q1013=
2009120114 - SBKP 011400Z 30004KT 5000 BR SCT014 BKN020 26/25 Q1013=
2009120115 - SBKP 011500Z 22002KT 6000 FEW015 BKN025 27/24 Q1012=
2009120116 - SBKP 011600Z 22003KT 9999 BKN030 FEW040TCU 29/23 Q1011=
2009120117 - SBKP 011700Z 08002KT 9999 VCSH BKN035 FEW050TCU 28/24 Q1010=
2009120118 - SBKP 011800Z 09002KT 9999 VCSH SCT040 FEW050TCU 28/23 Q1010=
2009120119 - SBKP 011900Z 15010KT 9999 VCSH SCT040 FEW050TCU 26/24 Q1009=
2009120119 - SBKP 011940Z 16011KT 9999 -TSRA SCT040 FEW050CB SCT070 24/24 Q1009=
2009120120 - SBKP 012000Z 18011KT 9999 -TSRA SCT040 FEW050CB SCT070 24/22 Q1009=
2009120121 - SBKP 012100Z 15010KT 9999 -TSRA SCT040 FEW050CB BKN100 23/23 Q1010=
2009120122 - SBKP 012200Z 12004KT 9999 FEW040TCU BKN100 23/23 Q1010 RETS=
2009120123 - SBKP 012300Z 13007KT 9999 SCT040 BKN100 22/22 Q1011=
2009120200 - SBKP 020000Z 12008KT 9999 FEW045 BKN100 22/22 Q1012=
2009120201 - SBKP 020100Z 12008KT 9999 FEW045 BKN100 22/22 Q1012=
2009120202 - SBKP 020200Z 13007KT 9999 FEW045 BKN100 22/22 Q1013=
2009120203 - SBKP 020300Z 13006KT 8000 NSC 22/22 Q1012=
2009120204 - SBKP 020400Z 15007KT 8000 NSC 22/22 Q1011=
2009120205 - SBKP 020500Z 13007KT 8000 NSC 22/22 Q1011=
2009120206 - SBKP 020600Z 11008KT 8000 NSC 21/21 Q1010=
2009120207 - SBKP 020700Z 08005KT 9000 FEW045 22/22 Q1011=
2009120208 - SBKP 020800Z 16006KT 9999 OVC045 22/22 Q1011=
2009120209 - SBKP 020900Z 12006KT 9999 BKN045 22/22 Q1012=
2009120210 - SBKP 021000Z 11007KT 7000 FEW045 SCT090 23/23 Q1012=
2009120211 - SBKP 021100Z 12005KT 8000 FEW045 25/24 Q1013=
2009120212 - SBKP 021200Z 06005KT 9999 SCT024 27/23 Q1013=
2009120213 - SBKP 021300Z 35008KT 9999 SCT025 28/23 Q1013=
2009120214 - SBKP 021400Z 35009KT 9999 SCT030 29/21 Q1013=
2009120215 - SBKP 021500Z 01007KT 9999 SCT035 29/22 Q1012=
2009120216 - SBKP 021600Z 33008KT 9999 SCT040 30/21 Q1012=
2009120217 - SBKP 021700Z 33006KT 9999 FEW045 31/21 Q1010=
2009120218 - SBKP 021800Z 35005KT 9999 SCT045 32/20 Q1009=
2009120219 - SBKP 021900Z 28007KT 9999 SCT045 31/20 Q1008=
2009120220 - SBKP 022000Z 36005KT 9999 SCT045 FEW050TCU 32/21 Q1007=
2009120221 - SBKP 022100Z 29007KT 9999 VCSH SCT045 FEW050TCU SCT100 31/21 Q1008=
2009120221 - SBKP 022120Z 31006KT 9999 -TSRA SCT045 FEW050CB SCT100 30/22 Q1009=
2009120222 - SBKP 022200Z 28001KT 9999 BKN045 FEW050TCU BKN070 29/22 Q1009 RETS=
2009120223 - SBKP 022300Z 05008KT 9999 VCTS SCT045 FEW050CB BKN070 25/23 Q1010=
2009120300 - SBKP 030000Z 36006KT 9999 VCTS SCT045 FEW050CB SCT100 25/22 Q1011=
2009120301 - SBKP 030100Z 13013KT 9999 -TSRA BKN030 FEW050CB BKN100 25/23 Q1012=
2009120302 - SBKP 030200Z 11011KT 9999 TS FEW003 BKN030 FEW050CB BKN100 23/22 Q1012=
2009120303 - SBKP 030300Z 25008KT 9999 -TSRA SCT003 BKN030 FEW045CB OVC090 23/23 Q1012=
2009120303 - SBKP 030328Z 17014KT 4000 +TSRA BR SCT003 BKN030 FEW045CB OVC090 21/21 Q1012=
2009120304 - SBKP 030400Z 08009KT 4000 TSRA BR SCT003 BKN030 FEW045CB OVC090 20/20 Q1012 RERA=
2009120305 - SBKP 030500Z 33004KT 7000 -TSRA BR FEW003 BKN030 FEW045CB OVC090 21/21 Q1011 RERA=
2009120306 - SBKP 030600Z 07004KT 9999 -RA BKN030 OVC090 20/20 Q1010 RETS=
2009120307 - SBKP 030700Z 07004KT 9999 -RA BKN030 OVC090 21/21 Q1011=
2009120308 - SBKP 030800Z 31003KT 9999 BKN030 OVC090 21/21 Q1011=
2009120309 - SBKP 030900Z 36007KT 7000 FEW012 BKN030 BKN090 21/21 Q1011=
2009120310 - SBKP 031000Z 36006KT 9999 FEW009 BKN030 BKN100 21/21 Q1011=
2009120311 - SBKP 031100Z 06007KT 9999 FEW009 BKN030 22/22 Q1012=
2009120312 - SBKP 031200Z 05008KT 9999 BKN013 23/23 Q1012=
2009120313 - SBKP 031300Z 05011KT 9999 BKN013 24/24 Q1011=
2009120314 - SBKP 031400Z 36005KT 9999 BKN013 SCT090 25/23 Q1012=
2009120315 - SBKP 031500Z 36009KT 9999 SCT013 SCT090 26/23 Q1011=
2009120316 - SBKP 031600Z 01010KT 9999 SCT015 SCT090 28/23 Q1011=
2009120317 - SBKP 031700Z 33007KT 9999 BKN030 28/21 Q1011=
2009120318 - SBKP 031800Z 32008KT 9999 SCT035 29/22 Q1010=
2009120319 - SBKP 031900Z 32006KT 9999 SCT035 SCT090 29/21 Q1009=
2009120320 - SBKP 032000Z 31004KT 9999 SCT045 SCT070 29/21 Q1009=
2009120321 - SBKP 032100Z 30004KT 9999 VCSH SCT045 FEW050TCU SCT090 27/23 Q1009=
2009120322 - SBKP 032200Z 13009KT 9999 BKN040 FEW050TCU BKN090 26/22 Q1010=
2009120322 - SBKP 032230Z 13016KT 5000 TSRA SCT007 BKN020 FEW050CB BKN070 23/23 Q1010=
2009120322 - SBKP 032246Z 13011KT 4000 +TSRA BR SCT007 BKN020 FEW050CB BKN070 22/22 Q1011=
2009120323 - SBKP 032300Z 13011KT 4000 +TSRA BR SCT008 BKN020 SCT040CB OVC090 22/22 Q1011=
2009120323 - SBKP 032349Z 12015KT 2000 R15/1300 R33/1300 +TSRA BR BKN008 BKN020 SCT040CB OVC090 21/21 Q1012=
2009120400 - SBKP 040000Z 13015KT 2000 R15/1800 R33/1500 +TSRA BR BKN007 BKN020 SCT040CB OVC090 21/21 Q1012=
2009120400 - SBKP 040030Z 12006KT 8000 -TSRA SCT007 BKN020 FEW040CB OVC090 22/22 Q1012 RERA=
2009120401 - SBKP 040100Z 11007KT 8000 -TSRA SCT007 BKN030 FEW040CB OVC090 22/22 Q1012 RERA=
2009120402 - SBKP 040200Z 12005KT 9999 -RA SCT007 BKN030 OVC090 22/22 Q1013 RETS=
2009120403 - SBKP 040300Z 13010KT 9999 -RA BKN030 OVC090 22/22 Q1013=
2009120404 - SBKP 040400Z 13010KT 9999 BKN030 OVC090 22/22 Q1012=
2009120405 - SBKP 040500Z 18006KT 9999 -RA BKN040 OVC090 21/21 Q1012=
2009120406 - SBKP 040600Z 15005KT 9999 -RA FEW015 BKN040 OVC090 21/21 Q1011=
2009120407 - SBKP 040700Z 15005KT 9999 -RA FEW015 BKN040 OVC090 21/21 Q1011=
2009120408 - SBKP 040800Z 15007KT 9999 FEW015 BKN040 OVC090 21/21 Q1012=
2009120409 - SBKP 040900Z 20005KT 9999 FEW010 BKN030 OVC090 20/20 Q1012=
2009120410 - SBKP 041000Z 17005KT 9999 FEW010 BKN035 OVC090 21/21 Q1012=
2009120411 - SBKP 041100Z 17005KT 9999 -RA FEW010 BKN035 BKN070 21/21 Q1013=
2009120412 - SBKP 041200Z 16007KT 9999 BKN020 BKN070 OVC090 22/22 Q1013=
2009120413 - SBKP 041300Z 16006KT 9999 BKN022 SCT035 OVC090 23/22 Q1013=
2009120414 - SBKP 041400Z 15014KT 9999 SCT022 SCT035 OVC090 23/20 Q1013=
2009120415 - SBKP 041500Z 15015KT 9999 SCT026 SCT035 OVC100 23/20 Q1013=
2009120416 - SBKP 041600Z 15018KT 9999 SCT026 BKN080 24/18 Q1013=
2009120417 - SBKP 041700Z 13016KT 9999 SCT030 BKN080 24/18 Q1012=
2009120418 - SBKP 041800Z 12019KT 9999 SCT030 BKN080 22/18 Q1012=
2009120419 - SBKP 041900Z 13020KT 9999 SCT030 BKN080 21/18 Q1012=
2009120419 - SBKP 041935Z 13020G30KT 9999 SCT030 BKN080 22/16 Q1011=
2009120420 - SBKP 042000Z 13020G30KT 9999 SCT025 BKN070 21/14 Q1011=
2009120421 - SBKP 042100Z 13017G27KT 9999 FEW020 BKN070 21/14 Q1012=
2009120422 - SBKP 042200Z 13015KT 9999 FEW020 BKN080 20/14 Q1012=
2009120423 - SBKP 042300Z 13018KT 9999 SCT030 BKN090 20/15 Q1013=
2009120500 - SBKP 050000Z 13012KT 9999 BKN020 BKN100 20/16 Q1014=
2009120501 - SBKP 050100Z 13014KT 9999 BKN025 BKN100 20/15 Q1014=
2009120502 - SBKP 050200Z 13014KT 9999 BKN025 BKN090 20/15 Q1014=
2009120503 - SBKP 050300Z 13014KT 9999 BKN025 BKN090 20/15 Q1014=
2009120504 - SBKP 050400Z 12012KT 9999 SCT030 BKN090 18/15 Q1013=
2009120505 - SBKP 050500Z 13016KT 9999 SCT030 BKN090 18/15 Q1012=
2009120506 - SBKP 050600Z 12013KT 9999 FEW030 BKN100 18/15 Q1012=
2009120507 - SBKP 050700Z 13014KT 9999 FEW030 BKN100 18/14 Q1012=
2009120508 - SBKP 050800Z 12013KT 9999 FEW030 BKN100 18/14 Q1012=
2009120509 - SBKP 050900Z 12014KT 9999 FEW030 BKN100 18/14 Q1013=
2009120510 - SBKP 051000Z 12012KT 9999 FEW015 19/14 Q1013=
2009120511 - SBKP 051100Z 12016KT 9999 FEW015 21/15 Q1013=
2009120512 - SBKP 051200Z 12018KT 9999 FEW020 23/16 Q1013=
2009120513 - SBKP 051300Z 12018KT 9999 FEW025 24/16 Q1014=
2009120514 - SBKP 051400Z 12018KT 9999 FEW030 BKN070 25/17 Q1013=
2009120515 - SBKP 051500Z 12016KT 9999 FEW030 BKN070 25/17 Q1013=
2009120516 - SBKP 051600Z 13020KT 9999 FEW030 SCT070 25/17 Q1012=
2009120517 - SBKP 051700Z 13017KT 9999 FEW035 SCT080 26/18 Q1012=
2009120518 - SBKP 051800Z 14019KT 9999 FEW035 SCT090 26/18 Q1011=
2009120519 - SBKP 051900Z 14018KT 9999 SCT045 26/17 Q1011=
2009120520 - SBKP 052000Z 13020KT 9999 BKN045 24/17 Q1011=
2009120521 - SBKP 052100Z 13019KT 9999 BKN045 SCT070 23/17 Q1011=
2009120522 - SBKP 052200Z 12019KT 9999 SCT045 OVC070 21/16 Q1012=
2009120523 - SBKP 052300Z 11014KT 9999 SCT045 OVC070 21/16 Q1013=
2009120600 - SBKP 060000Z 11013KT 9999 FEW045 OVC070 20/16 Q1013=
2009120601 - SBKP 060100Z 11012KT 9999 FEW045 BKN070 20/16 Q1014=
2009120602 - SBKP 060200Z 11009KT CAVOK 19/16 Q1014=
2009120603 - SBKP 060300Z 10012KT CAVOK 19/16 Q1014=
2009120604 - SBKP 060400Z 12010KT CAVOK 18/16 Q1013=
2009120605 - SBKP 060500Z 11010KT CAVOK 18/16 Q1013=
2009120606 - SBKP 060600Z 12009KT CAVOK 18/16 Q1012=
2009120607 - SBKP 060700Z 12007KT CAVOK 17/16 Q1012=
2009120608 - SBKP 060800Z 10007KT CAVOK 17/16 Q1012=
2009120609 - SBKP 060900Z 11008KT 9999 4000E NSC 18/16 Q1013=
2009120610 - SBKP 061000Z 11007KT CAVOK 20/16 Q1013=
2009120611 - SBKP 061100Z 11008KT CAVOK 22/17 Q1014=
2009120612 - SBKP 061200Z 10006KT 9999 FEW025 24/18 Q1013=
2009120613 - SBKP 061300Z 06007KT 9999 BKN030 25/18 Q1013=
2009120614 - SBKP 061400Z 03004KT 9999 BKN030 25/18 Q1013=
2009120615 - SBKP 061500Z 09002KT 9999 BKN035 26/18 Q1013=
2009120616 - SBKP 061600Z 12002KT 9999 BKN035 BKN045 BKN070 26/18 Q1013=
2009120617 - SBKP 061700Z 18004KT 9999 BKN035 BKN045 BKN070 26/19 Q1012=
2009120618 - SBKP 061800Z 17005KT 9999 FEW035 BKN045 BKN080 27/18 Q1011=
2009120619 - SBKP 061900Z 14006KT 9999 FEW035 SCT060 BKN080 27/19 Q1010=
2009120620 - SBKP 062000Z 13006KT 9999 FEW035 BKN080 27/19 Q1010=
2009120621 - SBKP 062100Z 15011KT 9999 FEW040 SCT080 26/20 Q1011=
2009120622 - SBKP 062200Z 12010KT 9999 FEW040 SCT080 24/20 Q1011=
2009120623 - SBKP 062300Z 12010KT CAVOK 23/20 Q1012=
2009120700 - SBKP 070000Z 12011KT CAVOK 22/19 Q1012=
2009120701 - SBKP 070100Z 11012KT 9999 FEW045 BKN080 22/19 Q1013=
2009120702 - SBKP 070200Z 09008KT 9999 FEW023 BKN080 22/19 Q1013=
2009120703 - SBKP 070300Z 11009KT 8000 -RA SCT015 BKN070 BKN080 21/20 Q1013=
2009120703 - SBKP 070315Z 12007KT 4000 -RA BR SCT013 OVC070 21/20 Q1013=
2009120704 - SBKP 070400Z 11007KT 2000 R15/1900 R33/P2000 RA BR FEW004 SCT010 OVC070 20/20 Q1012=
2009120704 - SBKP 070435Z 11005KT 3000 -RA BR FEW004 SCT010 OVC070 20/20 Q1012 RERA=
2009120705 - SBKP 070500Z 11006KT 7000 -RA FEW005 BKN013 OVC070 20/20 Q1012 RERA=
2009120706 - SBKP 070600Z 10007KT 4000 -RA BR FEW005 BKN010 OVC100 20/20 Q1012=
2009120707 - SBKP 070700Z 05006KT 9999 FEW005 SCT010 OVC100 21/20 Q1012=
2009120708 - SBKP 070800Z 04006KT 9999 VCSH SCT010 SCT020 OVC100 22/20 Q1012=
2009120709 - SBKP 070900Z 04009KT 9999 BKN015 BKN020 OVC100 21/20 Q1013=
2009120710 - SBKP 071000Z 02012KT 9999 VCSH BKN012 BKN020 OVC100 22/19 Q1013=
2009120711 - SBKP 071100Z 01011KT 9999 VCSH BKN014 BKN025 OVC100 22/20 Q1014=
2009120712 - SBKP 071200Z 02011KT 9999 4000S -RA BKN014 BKN025 OVC100 22/20 Q1014=
2009120713 - SBKP 071300Z 01010KT 4000 -DZ BR BKN010 BKN020 OVC100 21/20 Q1014=
2009120714 - SBKP 071400Z 02010KT 6000 -RA BKN010 BKN020 OVC100 22/20 Q1014=
2009120715 - SBKP 071500Z 03012KT 8000 BKN018 BKN020 OVC100 22/20 Q1014=
2009120716 - SBKP 071600Z 36011KT 9999 VCSH BKN018 BKN020 OVC100 24/20=
2009120717 - SBKP 071700Z 36011KT 6000 -RA BKN018 BKN020 OVC100 23/21 Q1013=
2009120718 - SBKP 071800Z 36008KT 2000 -RA BR BKN018 BKN020 OVC100 22/21 Q1012=
2009120719 - SBKP 071900Z 35004KT 6000 -RA BKN018 BKN025 OVC100 22/21 Q1012=
2009120720 - SBKP 072000Z 36007KT 6000 -RA BKN018 BKN025 OVC100 23/21 Q1011=
2009120721 - SBKP 072100Z 36007KT 2000 -RA BR BKN013 BKN025 OVC100 21/20 Q1013=
2009120722 - SBKP 072200Z 01006KT 3000 -RA BR BKN012 BKN025 OVC100 21/20 Q1013=
2009120723 - SBKP 072300Z 02006KT 8000 -RA BKN012 BKN025 OVC100 21/21 Q1013=
2009120800 - SBKP 080000Z 02006KT 8000 -RA BKN012 BKN025 OVC100 21/21 Q1013=
2009120801 - SBKP 080100Z 02006KT 8000 -RA BKN012 BKN025 OVC100 21/21 Q1013=
2009120801 - SBKP 080135Z 35006KT 7000 3000NW -RA BKN004 BKN015 OVC100 21/21 Q1013=
2009120802 - SBKP 080200Z 36007KT 4000 -RA BR BKN002 BKN015 OVC100 21/21 Q1013=
2009120803 - SBKP 080300Z 35005KT 4000 -RA BR SCT002 BKN010 OVC100 21/21Q1013=
2009120803 - SBKP 080330Z 35008KT 4000 1500NW RA BR BKN002 BKN010 OVC100 21/21 Q1012=
2009120804 - SBKP 080400Z 34007KT 5000 RA BR BKN002 BKN010 OVC100 21/21 Q1012=
2009120804 - SBKP 080425Z 34008KT 3000 RA BR BKN002 BKN010 OVC100 21/21 Q1012=
2009120805 - SBKP 080500Z 36007KT 3000 RA BR BKN002 BKN010 OVC100 21/21 Q1012=
2009120806 - SBKP 080600Z 02009KT 4000 RA BR BKN004 BKN010 OVC100 21/20 Q1012=
2009120806 - SBKP 080615Z 36009KT 7000 BKN004 BKN010 OVC100 21/21 Q1012 RERA=
2009120807 - SBKP 080700Z 36009KT 9000 -RA BKN003 SCT012 OVC100 21/21Q1012 RERA=
2009120808 - SBKP 080800Z 31007KT 5000 -RA BR BKN002 BKN010 OVC100 21/20 Q1013=
2009120808 - SBKP 080830Z 27003KT 2500 -RA BR BKN001 BKN010 OVC100 20/20 Q1013=
2009120809 - SBKP 080900Z 24003KT 2500 RA BR BKN002 BKN010 OVC100 20/20 Q1013=
2009120810 - SBKP 081000Z 18003KT 2400 RA BR BKN001 BKN010 OVC100 20/20 Q1014=
2009120810 - SBKP 081020Z 17003KT 3000 RA BR SCT003 BKN010 OVC100 20/20 Q1014=
2009120811 - SBKP 081100Z 16004KT 3000 RA BR BKN002 BKN010 OVC100 20/20 Q1014=
2009120812 - SBKP 081200Z 11007KT 3000 -RA BR SCT003 BKN015 OVC100 21/20 Q1014 RERA=
2009120812 - SBKP 081240Z 10006KT 6000 -RA FEW008 BKN018 BKN020 20/20 Q1015=
2009120813 - SBKP 081300Z 11006KT 5000 -RA BR SCT008 BKN018 BKN020 21/20 Q1015=
2009120813 - SBKP 081330Z 10004KT 3000 RA BR SCT008 BKN018 BKN020 21/20 Q1015=
2009120814 - SBKP 081400Z 11004KT 4000 RA BR SCT006 BKN020 BKN035 21/20 Q1014=
2009120814 - SBKP 081430Z 10003KT 7000 -RA SCT007 BKN020 BKN035 21/20 Q1014 RERA=
2009120815 - SBKP 081500Z 11005KT 7000 -RA SCT009 BKN020 BKN035 22/21 Q1014 RERA=
2009120816 - SBKP 081600Z 08005KT 9999 BKN018 BKN035 BKN100 24/21 Q1014=
2009120817 - SBKP 081700Z 12005KT 9999 BKN020 BKN035 BKN100 24/20 Q1013=
2009120818 - SBKP 081800Z 12006KT 9999 BKN020 BKN100 26/20 Q1013=
2009120819 - SBKP 081900Z 11008KT 9999 BKN030 BKN100 25/20 Q1012=
2009120820 - SBKP 082000Z 11006KT 9999 -RA BKN030 BKN100 25/20 Q1012=
2009120821 - SBKP 082100Z 14011KT 5000 -RA SCT010 BKN020 FEW030TCU BKN100 24/20 Q1013=
2009120822 - SBKP 082200Z 13011KT 8000 VCSH SCT010 BKN020 BKN100 22/20 Q1014=
2009120823 - SBKP 082300Z 12010KT 9999 FEW010 BKN030 OVC100 22/20 Q1014=
2009120900 - SBKP 090000Z 13009KT 9999 BKN040 OVC100 22/19 Q1015=
2009120901 - SBKP 090100Z 13009KT 9999 BKN040 OVC100 22/19 Q1015=
2009120902 - SBKP 090200Z 14007KT 9999 SCT040 BKN080 21/19 Q1016=
2009120903 - SBKP 090300Z 14009KT 9999 FEW017 BKN080 21/19 Q1015=
2009120904 - SBKP 090400Z 15009KT 9999 FEW015 BKN070 21/19 Q1015=
2009120905 - SBKP 090500Z 16010KT 9999 FEW045 BKN070 20/18 Q1014=
2009120906 - SBKP 090600Z 15010KT CAVOK 20/18 Q1015=
2009120907 - SBKP 090700Z 15009KT CAVOK 20/18 Q1015=
2009120908 - SBKP 090800Z 15009KT CAVOK 19/18 Q1015=
2009120909 - SBKP 090900Z 15008KT 9999 FEW018 SCT070 20/18 Q1016=
2009120910 - SBKP 091000Z 12010KT 9999 FEW018 SCT070 21/18 Q1017=
2009120911 - SBKP 091100Z 12010KT 9999 FEW018 SCT070 22/19 Q1017=
2009120912 - SBKP 091200Z 11011KT 9999 BKN020 23/19 Q1017=
2009120913 - SBKP 091300Z 13012KT 9999 BKN025 25/19 Q1017=
2009120914 - SBKP 091400Z 14015KT 9999 FEW025 SCT035 25/20 Q1016=
2009120915 - SBKP 091500Z 13014KT 9999 SCT040 26/20 Q1016=
2009120916 - SBKP 091600Z 13016KT 9999 BKN040 BKN080 26/20 Q1015=
2009120917 - SBKP 091700Z 14018KT 9999 SCT045 BKN100 26/20 Q1015=
2009120918 - SBKP 091800Z 14016KT 9999 SCT045 SCT100 26/19 Q1014=
2009120919 - SBKP 091900Z 13017KT 9999 FEW045 SCT100 25/18 Q1014=
2009120920 - SBKP 092000Z 14017KT 9999 FEW045 SCT100 24/18 Q1014=
2009120921 - SBKP 092100Z 14017KT 9999 FEW045 SCT100 24/18 Q1014=
2009120922 - SBKP 092200Z 15011KT 7000 FEW045 SCT100 22/18 Q1015=
2009120923 - SBKP 092300Z 13013KT 9999 SCT030 21/17 Q1016=
2009121000 - SBKP 100000Z 13014KT 9999 FEW040 BKN050 21/17 Q1017=
2009121001 - SBKP 100100Z 13014KT 9999 FEW040 BKN050 21/17 Q1017=
2009121002 - SBKP 100200Z 15016KT 9999 FEW040 BKN060 20/17 Q1016=
2009121003 - SBKP 100300Z 14013KT 9999 FEW040 20/17 Q1016=
2009121004 - SBKP 100400Z 14009KT 9999 SCT045 19/17 Q1016=
2009121005 - SBKP 100500Z 13011KT 9999 SCT045 19/17 Q1015=
2009121006 - SBKP 100600Z 13013KT 9999 FEW045 19/17 Q1015=
2009121007 - SBKP 100700Z 13014KT 9999 FEW045 19/17 Q1015=
2009121008 - SBKP 100800Z 12012KT 9999 FEW045 19/17 Q1015=
2009121009 - SBKP 100900Z 13010KT CAVOK 19/17 Q1015=
2009121010 - SBKP 101000Z 10009KT CAVOK 21/17 Q1016=
2009121011 - SBKP 101100Z 08006KT CAVOK 23/18 Q1017=
2009121012 - SBKP 101200Z 01005KT 9999 SCT035 25/19 Q1017=
2009121013 - SBKP 101300Z 36007KT 9999 OVC025 25/20 Q1017=
2009121014 - SBKP 101400Z 01005KT 9999 SCT025 OVC045 26/20 Q1017=
2009121015 - SBKP 101500Z 35002KT 9999 SCT025 BKN045 28/20 Q1017=
2009121016 - SBKP 101600Z 30012KT 5000 -TSRA BR BKN035 FEW045CB BKN070 25/21 Q1016=
2009121017 - SBKP 101700Z 21005KT 9999 FEW035 FEW045TCU BKN070 22/20 Q1016 RETS=
2009121018 - SBKP 101800Z 23007KT 9999 -TSRA FEW010 BKN035 FEW050CB 22/20 Q1015=
2009121018 - SBKP 101836Z 03001KT 9999 FEW010 SCT035 22/19 Q1014 RETS=
2009121019 - SBKP 101900Z 05003KT 9999 FEW015 SCT035 BKN100 23/20 Q1015 RETS=
2009121019 - SBKP 101940Z 14003KT 9999 3000S -TSRA FEW018 SCT035 FEW040CB BKN100 24/21 Q1015=
2009121020 - SBKP 102000Z 16007KT 9999 4000S -TSRA FEW018 SCT035 FEW040CB BKN100 24/21 Q1015=
2009121021 - SBKP 102100Z 13007KT 9999 -TSRA FEW018 SCT035 FEW040CB BKN100 23/20 Q1016=
2009121022 - SBKP 102200Z 13008KT 5000 BR FEW023 BKN035 BKN100 22/20 Q01017RETS=
2009121023 - SBKP 102300Z 10010KT 9999 FEW023 BKN035 BKN100 22/20 Q1018 WS R15=
2009121100 - SBKP 110000Z 10009KT 9999 SCT035 BKN090 22/19 Q1019=
2009121101 - SBKP 110100Z 11007KT 9999 FEW035 BKN090 21/20 Q1019=
2009121102 - SBKP 110200Z 12006KT 9999 FEW035 BKN090 21/19 Q1018=
2009121103 - SBKP 110300Z 11005KT CAVOK 21/19 Q1018=
2009121104 - SBKP 110400Z 14007KT CAVOK 20/19 Q1016=
2009121105 - SBKP 110500Z 14010KT CAVOK 20/19 Q1016=
2009121106 - SBKP 110600Z 12007KT CAVOK 20/19 Q1015=
2009121107 - SBKP 110700Z 11004KT CAVOK 20/19 Q1016=
2009121108 - SBKP 110800Z 15005KT CAVOK 19/18 Q1016=
2009121109 - SBKP 110900Z 13005KT 6000 NSC 20/19 Q1016=
2009121110 - SBKP 111000Z 11004KT 8000 NSC 21/19 Q1017=
2009121111 - SBKP 111100Z 02004KT 9999 FEW015 23/20 Q1017=
2009121112 - SBKP 111200Z 31002KT 9999 FEW020 BKN100 26/20 Q1017=
2009121113 - SBKP 111300Z 35005KT 9999 FEW020 BKN100 27/21 Q1017=
2009121114 - SBKP 111400Z 31005KT 9999 FEW020 BKN100 28/20 Q1017=
2009121115 - SBKP 111500Z 35006KT 9999 SCT020 BKN100 29/20 Q1016=
2009121116 - SBKP 111600Z 33006KT 9999 FEW035 BKN100 28/21 Q1016=
2009121117 - SBKP 111700Z 30007KT 9999 SCT035 BKN100 29/20 Q1014=
2009121118 - SBKP 111800Z 32006KT 9999 VCSH SCT040 FEW045TCU BKN100 30/19 Q1013=
2009121119 - SBKP 111900Z 29007KT 9999 VCSH FEW040 FEW045TCU BKN100 29/19 Q1012=
2009121120 - SBKP 112000Z 02006KT 9999 VCSH FEW040 FEW045TCU BKN100 28/20 Q1012=
2009121121 - SBKP 112100Z 02003KT 9999 VCSH FEW040 FEW045TCU 27/19 Q1013=
2009121122 - SBKP 112200Z 16003KT 9999 VCSH FEW040 27/19 Q1013=
2009121123 - SBKP 112300Z 13007KT 9999 FEW040 25/21 Q1014=
2009121200 - SBKP 120000Z 11008KT 9999 FEW035 24/21 Q1014=
2009121201 - SBKP 120100Z 08003KT 9999 TS FEW035 FEW040CB 24/21 Q1015=
2009121202 - SBKP 120200Z 24006KT 9999 -TSRA FEW035 FEW040CB 24/21 Q1015=
2009121203 - SBKP 120300Z 14006KT 9999 -TSRA FEW035 FEW040CB 22/21 Q1014=
2009121204 - SBKP 120400Z 10005KT 9999 -TSRA FEW035 FEW040CB 22/21 Q1013=
2009121205 - SBKP 120500Z 10005KT 9999 TS FEW035 SCT040 FEW045CB OVC100 22/21 Q1012=
2009121205 - SBKP 120520Z 25013G24KT 9999 TS BKN004 SCT040 FEW045CB OVC100 22/21 Q1013=
2009121206 - SBKP 120600Z 26008KT 4000 TSRA BR BKN004 BKN040 FEW045CB OVC100 21/21 Q1014=
2009121206 - SBKP 120640Z 24005KT 7000 -RA SCT004 BKN040 OVC100 21/20 Q1014 RETSRA=
2009121207 - SBKP 120700Z 26002KT 7000 -RA SCT004 BKN040 OVC100 21/20 Q1013 RETSRA=
2009121208 - SBKP 120800Z 07003KT 6000 -RA SCT006 BKN040 BKN045 20/20 Q1014=
2009121209 - SBKP 120900Z 05004KT 7000 -RA FEW010 BKN040 BKN045 20/20 Q1014=
2009121210 - SBKP 121000Z 03005KT 7000 -RA FEW010 BKN040 OVC100 21/21 Q1014=
2009121211 - SBKP 121100Z 03005KT 8000 SCT010 BKN045 BKN100 22/20 Q1013=
2009121212 - SBKP 121200Z 36008KT 8000 FEW012 BKN045 BKN100 25/21 Q1013=
2009121213 - SBKP 121300Z 36012KT 9999 SCT022 SCT100 26/21 Q1013=
2009121214 - SBKP 121400Z 34016KT 9999 SCT022 SCT100 27/21 Q1012=
2009121215 - SBKP 121500Z 33017KT 4000 -TSRA BR BKN022 FEW030CB OVC090 25/22 Q1012=
2009121216 - SBKP 121600Z 33008KT 7000 BKN022 FEW030TCU OVC090 25/21 Q1011 RETS=
2009121217 - SBKP 121700Z 01014KT 9999 4000SE -TSRA BKN025 FEW030CB OVC090 23/21 Q1010=
2009121217 - SBKP 121722Z 34010KT 9999 SCT025 FEW030TCU SCT100 28/23 Q1009 RETS=
2009121218 - SBKP 121800Z 33017KT 9999 SCT040 FEW045TCU SCT100 29/20 Q1008 RETS=
2009121219 - SBKP 121900Z 32016KT 9999 SCT040 FEW045TCU 29/19 Q1008=
2009121220 - SBKP 122000Z 32014KT 9999 SCT040 FEW045TCU 29/19 Q1008=
2009121221 - SBKP 122100Z 31010KT 9999 VCSH SCT040 FEW045TCU BKN100 28/20 Q1009=
2009121221 - SBKP 122125Z 25015G31KT 9000 4000NW -RA FEW018 SCT040 SCT045TCU BKN100 23/20 Q1010=
2009121221 - SBKP 122145Z 25018KT 4000 RA BR FEW018 SCT025 SCT045TCU BKN100 21/20 Q1011=
2009121222 - SBKP 122200Z 25018KT 6000 RA FEW018 SCT025 SCT045TCU BKN100 21/20 Q1011 WS R33=
2009121222 - SBKP 122212Z 26015KT 9000 -RA FEW018 SCT025 SCT045TCU BKN100 21/20 Q1011 RERA=
2009121223 - SBKP 122300Z 27006KT 9999 -RA FEW004 SCT018 OVC100 21/20 Q1012 RERA=
2009121300 - SBKP 130000Z 31003KT 9999 -RA FEW004 SCT017 OVC100 20/20 Q1012=
2009121301 - SBKP 130100Z 36006KT 9999 -RA FEW004 SCT017 OVC100 21/20 Q1011=
2009121302 - SBKP 130200Z 35006KT 9999 -RA SCT004 BKN018 OVC100 21/20 Q1012=
2009121303 - SBKP 130300Z 33005KT 9999 -RA BKN005 BKN017 OVC100 21/20 Q1011=
2009121304 - SBKP 130400Z 31007KT 9999 BKN006 BKN015 OVC100 21/20 Q1011=
2009121305 - SBKP 130500Z 29006KT 9999 BKN007 BKN015 BKN100 20/20 Q1010=
2009121306 - SBKP 130600Z 29005KT 9999 SCT010 BKN040 BKN100 20/19 Q1010=
2009121307 - SBKP 130700Z 28006KT 9999 FEW010 BKN030 BKN090 20/19 Q1010=
2009121308 - SBKP 130800Z 31003KT 9999 BKN024 OVC090 20/18 Q1011=
2009121308 - SBKP 130815Z 26003KT 2500 -RA BR BKN024 OVC090 19/18 Q1011=
2009121308 - SBKP 130835Z 34003KT 9999 BKN015 OVC090 20/18 Q1011=
2009121309 - SBKP 130900Z 33003KT 2000 -RA BR BKN007 OVC090 19/19 Q1011=
2009121310 - SBKP 131000Z 32004KT 2000 -RA BR BKN005 OVC090 19/19 Q1012=
2009121311 - SBKP 131100Z 27003KT 2000 -RA BR BKN005 OVC090 20/19 Q1012=
2009121312 - SBKP 131200Z 29003KT 3000 -RA BR BKN005 OVC090 20/20 Q1012=
2009121312 - SBKP 131234Z 28004KT 1000 R15/1600 R33/P2000 -RA BR BKN005 OVC090 21/20 Q1012=
2009121313 - SBKP 131300Z 24005KT 1500 R15/P2000 R33/P2000 -RA BKN005 OVC090 20/20 Q1013=
2009121313 - SBKP 131335Z 22006KT 5000 2000NE -DZ BR SCT006 BKN009 OVC015 21/20 Q1013=
2009121314 - SBKP 131400Z 21006KT 5000 -RA SCT006 BKN013 OVC022 21/20 Q1012=
2009121315 - SBKP 131500Z 12007KT 3000 -RA BR SCT006 BKN013 OVC030 19/18 Q1012=
2009121316 - SBKP 131600Z 11009KT 3000 RA BR SCT006 BKN013 OVC030 19/18 Q1012=
2009121316 - SBKP 131615Z 10010KT 5000 -RA SCT006 BKN013 OVC030 19/18 Q1012 RERA=
2009121317 - SBKP 131700Z 11010KT 5000 -RA BR SCT006 BKN015 OVC070 18/17 Q1012 RERA=
2009121318 - SBKP 131800Z 11009KT 5000 -RA BR SCT006 BKN020 OVC070 19/17 Q1012=
2009121319 - SBKP 131900Z 11009KT 3000 -RA BR SCT006 BKN020 OVC070 18/17 Q1012=
2009121320 - SBKP 132000Z 13010KT 4000 -RA BR SCT006 BKN025 OVC070 18/17 Q1012=
2009121321 - SBKP 132100Z 12013KT 4000 -RA BR FEW006 BKN030 OVC070 18/16 Q1012=
2009121321 - SBKP 132120Z 12013KT 9999 FEW006 BKN050 OVC070 18/16 Q1013=
2009121322 - SBKP 132200Z 12013KT 9999 FEW009 BKN050 BKN070 18/16 Q1013=
2009121323 - SBKP 132300Z 12011KT 9999 FEW009 BKN035 BKN070 18/16 Q1014=
2009121400 - SBKP 140000Z 12013KT 9999 FEW009 SCT035 BKN080 18/16 Q1014=
2009121401 - SBKP 140100Z 12011KT 9999 SCT020 BKN100 17/16 Q1014=
2009121402 - SBKP 140200Z 12011KT 9999 FEW015 SCT020 BKN070 17/16 Q1014=
2009121403 - SBKP 140300Z 12012KT 9999 SCT020 BKN070 17/15 Q1014=
2009121404 - SBKP 140400Z 12011KT 9999 SCT020 BKN070 17/15 Q1013=
2009121405 - SBKP 140500Z 12010KT 9999 SCT020 BKN070 17/15 Q1013=
2009121406 - SBKP 140600Z 12013KT 9999 FEW020 BKN080 17/15 Q1013=
2009121407 - SBKP 140700Z 13010KT CAVOK 17/15 Q1013=
2009121408 - SBKP 140800Z 14012KT CAVOK 17/15 Q1014=
2009121409 - SBKP 140900Z 13013KT CAVOK 17/15 Q1014=
2009121410 - SBKP 141000Z 11013KT CAVOK 18/15 Q1015=
2009121411 - SBKP 141100Z 11012KT CAVOK 19/16 Q1016=
2009121412 - SBKP 141200Z 11012KT 9999 FEW025 BKN070 20/16 Q1016=
2009121413 - SBKP 141300Z 12009KT 9999 BKN025 OVC070 21/17 Q1017=
2009121414 - SBKP 141400Z 13006KT 9999 BKN024 OVC070 21/17 Q1017=
2009121415 - SBKP 141500Z 13011KT 9999 BKN024 OVC070 22/18 Q1017=
2009121416 - SBKP 141600Z 12005KT 9999 BKN024 BKN070 24/19 Q1016=
2009121417 - SBKP 141700Z 13005KT 9999 BKN024 BKN070 25/19 Q1016=
2009121418 - SBKP 141800Z 13004KT 9999 BKN030 OVC070 25/19 Q1016=
2009121419 - SBKP 141900Z 19006KT 9999 BKN030 OVC070 25/19 Q1015=
2009121420 - SBKP 142000Z 11006KT 9999 BKN030 OVC070 24/20 Q1016=
2009121421 - SBKP 142100Z 12009KT 8000 BKN030 OVC070 23/19 Q1016=
2009121421 - SBKP 142105Z 11007KT 4000 -RA BR FEW015 BKN030 OVC070 22/19 Q1016=
2009121421 - SBKP 142110Z 09007KT 3000 RA BR FEW010 BKN025 OVC070 22/20 Q1017=
2009121422 - SBKP 142200Z 25003KT 6000 -RA SCT012 BKN025 BKN080 21/20 Q1017 RERA=
2009121423 - SBKP 142300Z 11005KT 9999 FEW015 BKN025 BKN080 21/20 Q1017=
2009121500 - SBKP 150000Z 12009KT 9999 FEW015 BKN025 BKN090 20/19 Q1017=
2009121501 - SBKP 150100Z 12009KT 9999 FEW015 SCT025 BKN090 20/18 Q1018=
2009121502 - SBKP 150200Z 11009KT 9999 SCT025 BKN090 20/18 Q1018=
2009121503 - SBKP 150300Z 11009KT 8000 NSC 19/18 Q1018=
2009121504 - SBKP 150400Z 12012KT 9000 SCT040 BKN100 19/18 Q1017=
2009121505 - SBKP 150500Z 11011KT 9000 SCT040 BKN100 19/18 Q1016=
2009121506 - SBKP 150600Z 11010KT 8000 FEW040 BKN100 19/18 Q1015=
2009121507 - SBKP 150700Z 11008KT 9999 FEW040 BKN100 19/18 Q1015=
2009121508 - SBKP 150800Z 10007KT CAVOK 19/18 Q1016=
2009121509 - SBKP 150900Z 11007KT CAVOK 19/18 Q1016=
2009121510 - SBKP 151000Z 12007KT 9000 FEW020 21/19 Q1017=
2009121511 - SBKP 151100Z 11004KT 9999 FEW020 22/19 Q1018=
2009121512 - SBKP 151200Z 11003KT 9999 BKN025 24/19 Q1018=
2009121513 - SBKP 151300Z 35002KT 9999 BKN025 25/19 Q1018=
2009121514 - SBKP 151400Z 33005KT 9999 BKN030 26/20 Q1018=
2009121515 - SBKP 151500Z 33003KT 9999 BKN030 27/19 Q1017=
2009121516 - SBKP 151600Z 23006KT 9999 BKN040 28/19 Q1016=
2009121517 - SBKP 151700Z 05003KT 9999 SCT040 FEW045TCU BKN100 28/19 Q1016=
2009121518 - SBKP 151800Z 24004KT 9999 SCT040 SCT100 29/19 Q1015=
2009121519 - SBKP 151900Z 24004KT 9999 SCT040 30/19 Q1014=
2009121520 - SBKP 152000Z 27005KT 9999 FEW040 FEW045TCU 30/18 Q1014=
2009121521 - SBKP 152100Z 23005KT 9999 FEW040 FEW045TCU 29/19 Q1014=
2009121522 - SBKP 152200Z 12013KT 8000 SCT040 FEW050TCU 24/20 Q1015=
2009121523 - SBKP 152300Z 12013KT 8000 SCT045 SCT100 23/19 Q1016=
2009121600 - SBKP 160000Z 11014KT 9999 -RA BKN035 BKN100 22/19 Q1016=
2009121601 - SBKP 160100Z 11011KT 9999 BKN045 BKN100 22/19 Q1017=
2009121602 - SBKP 160200Z 11010KT CAVOK 21/19 Q1017=
2009121603 - SBKP 160300Z 10006KT CAVOK 21/19 Q1016=
2009121604 - SBKP 160400Z 09004KT 9999 FEW040 BKN100 21/19 Q1016=
2009121605 - SBKP 160500Z 12004KT 9999 FEW040 BKN080 21/19 Q1016=
2009121606 - SBKP 160600Z 11005KT CAVOK 21/19 Q1016=
2009121607 - SBKP 160700Z 11006KT CAVOK 20/19 Q1016=
2009121608 - SBKP 160800Z 11005KT 9999 FEW045 BKN080 20/19 Q1017=
2009121609 - SBKP 160900Z 11005KT 9999 FEW045 BKN090 20/19 Q1017=
2009121610 - SBKP 161000Z 10004KT 9999 SCT045 BKN090 21/20 Q1018=
2009121611 - SBKP 161100Z 10005KT 9999 FEW045 BKN090 23/20 Q1018=
2009121612 - SBKP 161200Z 06003KT 9999 FEW020 BKN080 25/20 Q1019=
2009121613 - SBKP 161300Z 33001KT 9999 FEW023 BKN080 28/20 Q1018=
2009121614 - SBKP 161400Z 33007KT 9999 FEW025 BKN100 28/19 Q1018=
2009121615 - SBKP 161500Z 27004KT 9999 SCT040 SCT100 29/20 Q1017=
2009121616 - SBKP 161600Z 32005KT 9999 SCT040 SCT090 29/19 Q1017=
2009121617 - SBKP 161700Z 29004KT 9999 SCT040 FEW045TCU 30/19 Q1016=
2009121618 - SBKP 161800Z 27007KT 9999 SCT040 FEW050TCU 31/19 Q1015=
2009121619 - SBKP 161900Z 30008KT 9999 SCT040 FEW050TCU 31/20 Q1014=
2009121619 - SBKP 161914Z 32008KT 9999 TS VCSH SCT040 FEW050CB SCT090 29/20 Q1014=
2009121620 - SBKP 162000Z 02018KT 9999 4000SE -TSRA BKN040 FEW050CB SCT090 24/19 Q1014 WS R33=
2009121620 - SBKP 162015Z 08013KT 4000 +TSRA BKN025 FEW050CB SCT090 22/20 Q1014 WSR33=
2009121621 - SBKP 162100Z 10008KT 6000 -TSRA BKN025 SCT040CB BKN090 20/19 Q1015RERA WS R15=
2009121622 - SBKP 162200Z 12013KT 4000 TSRA SCT015 BKN030 SCT040CB BKN090 20/19 Q1017=
2009121623 - SBKP 162300Z /////KT 8000 -TSRA SCT035 FEW040CB BKN090 ///// Q1017 RERA=
2009121600 - SBKP 160000Z 11014KT 9999 -RA BKN035 BKN100 22/19 Q1016=
2009121601 - SBKP 160100Z 11011KT 9999 BKN045 BKN100 22/19 Q1017=
2009121602 - SBKP 160200Z 11010KT CAVOK 21/19 Q1017=
2009121603 - SBKP 160300Z 10006KT CAVOK 21/19 Q1016=
2009121604 - SBKP 160400Z 09004KT 9999 FEW040 BKN100 21/19 Q1016=
2009121605 - SBKP 160500Z 12004KT 9999 FEW040 BKN080 21/19 Q1016=
2009121606 - SBKP 160600Z 11005KT CAVOK 21/19 Q1016=
2009121607 - SBKP 160700Z 11006KT CAVOK 20/19 Q1016=
2009121608 - SBKP 160800Z 11005KT 9999 FEW045 BKN080 20/19 Q1017=
2009121609 - SBKP 160900Z 11005KT 9999 FEW045 BKN090 20/19 Q1017=
2009121610 - SBKP 161000Z 10004KT 9999 SCT045 BKN090 21/20 Q1018=
2009121611 - SBKP 161100Z 10005KT 9999 FEW045 BKN090 23/20 Q1018=
2009121612 - SBKP 161200Z 06003KT 9999 FEW020 BKN080 25/20 Q1019=
2009121613 - SBKP 161300Z 33001KT 9999 FEW023 BKN080 28/20 Q1018=
2009121614 - SBKP 161400Z 33007KT 9999 FEW025 BKN100 28/19 Q1018=
2009121615 - SBKP 161500Z 27004KT 9999 SCT040 SCT100 29/20 Q1017=
2009121616 - SBKP 161600Z 32005KT 9999 SCT040 SCT090 29/19 Q1017=
2009121617 - SBKP 161700Z 29004KT 9999 SCT040 FEW045TCU 30/19 Q1016=
2009121618 - SBKP 161800Z 27007KT 9999 SCT040 FEW050TCU 31/19 Q1015=
2009121619 - SBKP 161900Z 30008KT 9999 SCT040 FEW050TCU 31/20 Q1014=
2009121619 - SBKP 161914Z 32008KT 9999 TS VCSH SCT040 FEW050CB SCT090 29/20 Q1014=
2009121620 - SBKP 162000Z 02018KT 9999 4000SE -TSRA BKN040 FEW050CB SCT090 24/19 Q1014 WS R33=
2009121620 - SBKP 162015Z 08013KT 4000 +TSRA BKN025 FEW050CB SCT090 22/20 Q1014 WSR33=
2009121621 - SBKP 162100Z 10008KT 6000 -TSRA BKN025 SCT040CB BKN090 20/19 Q1015RERA WS R15=
2009121622 - SBKP 162200Z 12013KT 4000 TSRA SCT015 BKN030 SCT040CB BKN090 20/19 Q1017=
2009121623 - SBKP 162300Z /////KT 8000 -TSRA SCT035 FEW040CB BKN090 ///// Q1017 RERA=
2009121700 - SBKP 170000Z /////KT 8000 -TSRA SCT035 FEW050CB BKN090 ///// Q1017=
2009121801 - SBKP 180100Z 04007KT 8000 -RA BKN030 BKN040 OVC090 19/18 Q1018RETSRA=
2009121802 - SBKP 180200Z 05002KT 9999 FEW025 BKN048 OVC090 19/18 Q1018=
2009121803 - SBKP 180300Z 10004KT 9999 FEW003 BKN048 OVC090 19/18 Q1018=
2009121804 - SBKP 180400Z 10004KT 9999 FEW005 SCT050 OVC100 19/18 Q1017=
2009121805 - SBKP 180500Z 11005KT 9999 FEW005 SCT050 OVC100 18/18 Q1016=
2009121806 - SBKP 180600Z 12005KT CAVOK 18/18 Q1015=
2009121807 - SBKP 180700Z 13006KT CAVOK 18/18 Q1015=
2009121808 - SBKP 180800Z 11006KT CAVOK 18/17 Q1015=
2009121809 - SBKP 180900Z 13005KT 8000 NSC 18/18 Q1016=
2009121810 - SBKP 181000Z 14005KT CAVOK 19/18 Q1017=
2009121811 - SBKP 181100Z 18004KT 9999 FEW015 SCT080 21/18 Q1018=
2009121812 - SBKP 181200Z 10006KT 9999 FEW018 SCT090 22/18 Q1018=
2009121813 - SBKP 181300Z 13007KT 9999 SCT023 23/18 Q1019=
2009121814 - SBKP 181400Z 13007KT 9999 BKN028 SCT100 25/18 Q1019=
2009121815 - SBKP 181500Z 22004KT 9999 BKN030 BKN100 25/18 Q1020=
2009121816 - SBKP 181600Z 17004KT 9999 SCT030 SCT100 26/18 Q1019=
2009121817 - SBKP 181700Z 12005KT 9999 SCT030 SCT100 27/19 Q1018=
2009121818 - SBKP 181800Z 22005KT 9999 SCT030 FEW035TCU BKN100 28/18 Q1018=
2009121819 - SBKP 181900Z 21007KT 9999 SCT035 FEW040TCU BKN100 27/18 Q1017=
2009121820 - SBKP 182000Z 17009KT 9999 SCT035 FEW040TCU BKN100 26/19 Q1017=
2009121821 - SBKP 182100Z 10007KT 9999 SCT030 FEW040TCU BKN100 25/19 Q1017=
2009121822 - SBKP 182200Z 14010KT 9999 FEW035 FEW040TCU SCT100 24/18 Q1017=
2009121823 - SBKP 182300Z 13013KT CAVOK 22/18 Q1018=
2009121900 - Mensagem METAR de 'SBKP' para 19/12/2009 as 00(UTC) não localizada na base de dados da REDEMET
2009121901 - Mensagem METAR de 'SBKP' para 19/12/2009 as 01(UTC) não localizada na base de dados da REDEMET
2009121902 - Mensagem METAR de 'SBKP' para 19/12/2009 as 02(UTC) não localizada na base de dados da REDEMET
2009121903 - SBKP 190300Z 13010KT CAVOK 20/18 Q1020=
2009121904 - SBKP 190400Z 13008KT CAVOK 19/18 Q1019=
2009121905 - SBKP 190500Z 14009KT CAVOK 20/17 Q1019=
2009121906 - SBKP 190600Z 15008KT CAVOK 19/17 Q1018=
2009121907 - SBKP 190700Z 14008KT CAVOK 19/17 Q1018=
2009121908 - SBKP 190800Z 12006KT CAVOK 18/17 Q1018=
2009121909 - SBKP 190900Z 11007KT 8000 NSC 19/17 Q1019=
2009121910 - SBKP 191000Z 11011KT CAVOK 20/17 Q1019=
2009121911 - SBKP 191100Z 11013KT CAVOK 22/18 Q1019=
2009121912 - SBKP 191200Z 10010KT CAVOK 24/18 Q1020=
2009121913 - SBKP 191300Z 11005KT 9999 FEW025 26/18 Q1020=
2009121914 - SBKP 191400Z 12007KT 9999 SCT035 26/18 Q1019=
2009121915 - SBKP 191500Z 11005KT 9999 BKN040 27/18 Q1019=
2009121916 - SBKP 191600Z 10004KT 9999 BKN040 29/18 Q1019=
2009121917 - SBKP 191700Z 14005KT 9999 SCT040 29/17 Q1018=
2009121918 - SBKP 191800Z 17007KT 9999 SCT045 30/16 Q1017=
2009121919 - SBKP 191900Z 19007KT 9999 SCT045 30/18 Q1016=
2009121920 - SBKP 192000Z 16016KT 9999 FEW045 29/18 Q1016=
2009121921 - SBKP 192100Z 13017KT 9999 FEW045 27/18 Q1016=
2009121922 - SBKP 192200Z 12014KT CAVOK 24/18 Q1016=
2009121923 - SBKP 192300Z 13017KT CAVOK 23/17 Q1017=
2009122000 - SBKP 200000Z 12015KT CAVOK 21/17 Q1018=
2009122001 - SBKP 200100Z 12014KT CAVOK 21/17 Q1018=
2009122002 - SBKP 200200Z 11012KT CAVOK 20/17 Q1018=
2009122003 - SBKP 200300Z 11011KT CAVOK 20/17 Q1018=
2009122004 - SBKP 200400Z 11014KT CAVOK 19/17 Q1018=
2009122005 - SBKP 200500Z 11010KT CAVOK 19/17 Q1018=
2009122006 - SBKP 200600Z 11009KT CAVOK 19/17 Q1017=
2009122007 - SBKP 200700Z 12008KT CAVOK 19/17 Q1017=
2009122008 - SBKP 200800Z 12010KT 9999 FEW030 18/17 Q1017=
2009122009 - SBKP 200900Z 12009KT CAVOK 19/17 Q1018=
2009122010 - SBKP 201000Z 11009KT CAVOK 21/18 Q1018=
2009122011 - SBKP 201100Z 05005KT CAVOK 23/18 Q1018=
2009122012 - SBKP 201200Z 01007KT CAVOK 25/18 Q1019=
2009122013 - SBKP 201300Z 35005KT 9999 FEW030 27/18 Q1019=
2009122014 - SBKP 201400Z 36004KT 9999 SCT035 28/19 Q1018=
2009122015 - SBKP 201500Z 35005KT 9999 SCT040 29/19 Q1018=
2009122016 - SBKP 201600Z 27005KT 9999 SCT040 30/18 Q1017=
2009122017 - SBKP 201700Z 21008KT 9999 SCT040 30/19 Q1016=
2009122018 - SBKP 201800Z 24005KT 9999 SCT045 31/18 Q1016=
2009122019 - SBKP 201900Z 21007KT 9999 SCT045 31/17 Q1014=
2009122020 - SBKP 202000Z 23008KT 9999 SCT045 32/16 Q1014=
2009122021 - SBKP 202100Z 18008KT 9999 FEW045 30/16 Q1014=
2009122022 - SBKP 202200Z 18004KT CAVOK 29/17 Q1015=
2009122023 - SBKP 202300Z 12012KT CAVOK 25/20 Q1015=
2009122100 - SBKP 210000Z 11012KT CAVOK 24/20 Q1016=
2009122101 - SBKP 210100Z 11016KT CAVOK 23/19 Q1016=
2009122102 - SBKP 210200Z 12015KT CAVOK 22/19 Q1017=
2009122103 - SBKP 210300Z 11013KT CAVOK 21/18 Q1017=
2009122104 - SBKP 210400Z 11009KT CAVOK 21/18 Q1016=
2009122105 - SBKP 210500Z 11007KT CAVOK 20/18 Q1016=
2009122106 - SBKP 210600Z 10006KT CAVOK 20/18 Q1016=
2009122107 - SBKP 210700Z 12006KT CAVOK 19/18 Q1016=
2009122108 - SBKP 210800Z 12007KT 8000 NSC 19/18 Q1016=
2009122109 - SBKP 210900Z 12006KT 8000 3500E NSC 19/18 Q1016=
2009122110 - SBKP 211000Z 11004KT 7000 3000SE NSC 22/19 Q1017=
2009122111 - SBKP 211100Z 03003KT 7000 NSC 25/19 Q1017=
2009122112 - SBKP 211200Z 33005KT CAVOK 27/19 Q1017=
2009122113 - SBKP 211300Z 33007KT 9999 FEW030 28/20 Q1018=
2009122114 - SBKP 211400Z 33007KT 9999 FEW035 29/19 Q1018=
2009122115 - SBKP 211500Z 33008KT 9999 SCT045 30/17 Q1017=
2009122116 - SBKP 211600Z 26005KT 9999 BKN045 30/17 Q1017=
2009122117 - SBKP 211700Z 31005KT 9999 SCT045 31/17 Q1016=
2009122118 - SBKP 211800Z 25008KT 9999 SCT040 32/15 Q1016=
2009122119 - SBKP 211900Z 25008KT 9999 SCT040 32/14 Q1015=
2009122120 - SBKP 212000Z 25007KT 9999 FEW040 32/15 Q1014=
2009122121 - SBKP 212100Z 22007KT CAVOK 31/16 Q1013=
2009122122 - SBKP 212200Z 21004KT CAVOK 29/16 Q1014=
2009122123 - SBKP 212300Z 18003KT CAVOK 28/16 Q1015=
2009122200 - SBKP 220000Z 17006KT CAVOK 28/15 Q1016=
2009122201 - SBKP 220100Z 11007KT CAVOK 24/17 Q1017=
2009122202 - SBKP 220200Z 11008KT CAVOK 23/19 Q1016=
2009122203 - SBKP 220300Z 11008KT CAVOK 22/19 Q1019=
2009122204 - SBKP 220400Z 13009KT CAVOK 22/19 Q1016=
2009122205 - SBKP 220500Z 07004KT CAVOK 21/18 Q1017=
2009122206 - SBKP 220600Z 07005KT CAVOK 21/18 Q1016=
2009122207 - SBKP 220700Z 02010KT CAVOK 22/19 Q1017=
2009122208 - SBKP 220800Z 02009KT CAVOK 21/18 Q1017=
2009122209 - SBKP 220900Z 01008KT CAVOK 21/18 Q1018=
2009122210 - SBKP 221000Z 01005KT CAVOK 22/18 Q1018=
2009122211 - SBKP 221100Z 01006KT CAVOK 24/18 Q1019=
2009122212 - SBKP 221200Z 34002KT CAVOK 26/18 Q1019=
2009122213 - SBKP 221300Z 34006KT 9999 FEW030 27/18 Q1019=
2009122214 - SBKP 221400Z 32006KT 9999 FEW035 28/19 Q1019=
2009122215 - SBKP 221500Z 35004KT 9999 FEW035 30/19 Q1018=
2009122216 - SBKP 221600Z 29008KT 9999 FEW035 31/17 Q1018=
2009122217 - SBKP 221700Z 27006KT 9999 SCT045 32/16 Q1017=
2009122218 - SBKP 221800Z 24006KT 9999 SCT045 32/16 Q1016=
2009122219 - SBKP 221900Z 27004KT 9999 SCT045 32/16 Q1015=
2009122220 - SBKP 222000Z 27004KT 9999 SCT045 32/16 Q1015=
2009122221 - SBKP 222100Z 20004KT 9999 SCT030 31/16 Q1015=
2009122222 - SBKP 222200Z 17013KT 9999 SCT030 SCT070 25/18 Q1016=
2009122223 - SBKP 222300Z 16006KT 9999 SCT030 SCT070 26/18 Q1017=
2009122300 - SBKP 230000Z 11008KT 9999 SCT030 BKN070 24/19 Q1017=
2009122301 - SBKP 230100Z 11014KT 9999 FEW030 SCT070 23/19 Q1018=
2009122302 - SBKP 230200Z 13014KT CAVOK 22/19 Q1018=
2009122303 - SBKP 230300Z 12011KT CAVOK 22/18 Q1018=
2009122304 - SBKP 230400Z 12010KT 9999 FEW020 21/18 Q1017=
2009122305 - SBKP 230500Z 09003KT 9999 FEW020 BKN070 21/18 Q1017=
2009122306 - SBKP 230600Z 16006KT 9999 FEW020 SCT070 21/17 Q1017=
2009122307 - SBKP 230700Z 14008KT CAVOK 20/17 Q1017=
2009122308 - SBKP 230800Z 11006KT 9999 FEW020 19/17 Q1018=
2009122309 - SBKP 230900Z 11005KT 9000 3000E NSC 20/17 Q1018=
2009122310 - SBKP 231000Z 08003KT 8000 3000E NSC 22/18 Q1018=
2009122311 - SBKP 231100Z 02008KT 8000 NSC 25/18 Q1018=
2009122312 - SBKP 231200Z 35007KT CAVOK 27/19 Q1019=
2009122313 - SBKP 231300Z 34008KT 9999 FEW030 28/19 Q1019=
2009122314 - SBKP 231400Z 34007KT 9999 SCT035 29/19 Q1018=
2009122315 - SBKP 231500Z 32004KT 9999 SCT035 30/19 Q1018=
2009122316 - SBKP 231600Z 30004KT 9999 SCT035 31/18 Q1017=
2009122317 - SBKP 231700Z 29003KT 9999 SCT040 31/19 Q1016=
2009122318 - SBKP 231800Z 25005KT 9999 SCT040 32/18 Q1015=
2009122319 - SBKP 231900Z 24007KT 9999 SCT040TCU 32/17 Q1015=
2009122320 - SBKP 232000Z 17007KT 9999 SCT040TCU 32/18 Q1014=
2009122321 - SBKP 232100Z 12003KT 9999 SCT030 FEW040TCU SCT070 30/19 Q1014=
2009122322 - SBKP 232200Z 05006KT 8000 SCT030 FEW040TCU SCT070 26/19 Q1016=
2009122323 - SBKP 232300Z 10008KT 9999 SCT030 SCT070 25/19 Q1016=
2009122400 - SBKP 240000Z 11009KT 9999 SCT030 SCT070 24/19 Q1017=
2009122401 - SBKP 240100Z 12010KT CAVOK 23/20 Q1017=
2009122402 - SBKP 240200Z 11006KT CAVOK 23/20 Q1017=
2009122403 - SBKP 240300Z 12007KT CAVOK 23/20 Q1017=
2009122404 - SBKP 240400Z 12006KT 8000 NSC 22/20 Q1016=
2009122405 - SBKP 240500Z 12005KT CAVOK 22/20 Q1016=
2009122406 - SBKP 240600Z 12005KT 8000 NSC 21/20 Q1015=
2009122407 - SBKP 240700Z 11006KT 8000 NSC 21/20 Q1015=
2009122408 - SBKP 240800Z 13007KT 7000 FEW040 21/19 Q1016=
2009122409 - SBKP 240900Z 10005KT 6000 2500E NSC 21/19 Q1016=
2009122410 - SBKP 241000Z 12004KT 8000 NSC 23/20 Q1016=
2009122411 - SBKP 241100Z 34004KT 8000 NSC 24/20 Q1017=
2009122412 - SBKP 241200Z 01007KT CAVOK 26/19 Q1017=
2009122413 - SBKP 241300Z 35006KT CAVOK 28/19 Q1017=
2009122414 - SBKP 241400Z 35008KT 9999 FEW020 BKN090 29/19 Q1017=
2009122415 - SBKP 241500Z 31006KT 9999 SCT025 BKN100 30/19 Q1017=
2009122416 - SBKP 241600Z 29005KT 9999 SCT035 SCT100 30/19 Q1016=
2009122417 - SBKP 241700Z 32007KT 9999 BKN035 SCT100 32/17 Q1014=
2009122418 - SBKP 241800Z 29005KT 9999 SCT035 BKN070 31/18 Q1014=
2009122419 - SBKP 241900Z 29009KT 9999 SCT035 BKN090 29/19 Q1014=
2009122420 - SBKP 242000Z 22013KT 8000 SCT035 SCT090 25/21 Q1014=
2009122421 - SBKP 242100Z 23009KT 4000 -RA BR BKN035 BKN090 23/22 Q1014=
2009122422 - SBKP 242200Z 26004KT 5000 BR SCT035 BKN090 23/21 Q1015=
2009122423 - SBKP 242300Z 12003KT 9000 SCT035 BKN070 23/21 Q1015=
2009122500 - SBKP 250000Z 20002KT 9999 FEW035 BKN090 23/21 Q1016=
2009122501 - SBKP 250100Z 14005KT 9999 FEW035 OVC090 23/20 Q1016=
2009122502 - SBKP 250200Z 11004KT 9999 FEW035 BKN090 22/19 Q1016=
2009122503 - SBKP 250300Z 12005KT CAVOK 22/20 Q1016=
2009122504 - SBKP 250400Z 08003KT CAVOK 21/19 Q1015=
2009122505 - SBKP 250500Z 06004KT CAVOK 21/20 Q1014=
2009122505 - SBKP 250530Z 35004KT 9999 BKN008 22/21 Q1014=
2009122506 - SBKP 250600Z 33003KT 8000 BKN010 22/21 Q1013=
2009122507 - SBKP 250700Z 10002KT 8000 FEW007 BKN010 22/20 Q1013=
2009122508 - SBKP 250800Z 10002KT 6000 SCT006 BKN012 22/20 Q1013=
2009122509 - SBKP 250900Z 06003KT 6000 FEW008 BKN015 22/21 Q1014=
2009122510 - SBKP 251000Z 36006KT 8000 FEW008 BKN015 23/20 Q1014=
2009122511 - SBKP 251100Z 01006KT 6000 OVC012 23/20 Q1015=
2009122512 - SBKP 251200Z 34007KT 9999 BKN015 BKN100 24/20 Q1015=
2009122513 - SBKP 251300Z 34008KT 9999 BKN025 BKN100 26/20 Q1015=
2009122514 - SBKP 251400Z 01007KT 9999 SCT029 BKN100 27/20 Q1014=
2009122515 - SBKP 251500Z 35008KT 9999 SCT045 BKN100 28/19 Q1015=
2009122516 - SBKP 251600Z 33008KT 9999 SCT045 BKN100 28/19 Q1014=
2009122517 - SBKP 251700Z 32005KT 9999 BKN045 BKN100 29/20 Q1012=
2009122518 - SBKP 251800Z 33005KT 9999 VCSH SCT045 FEW047TCU BKN100 29/20 Q1011=
2009122519 - SBKP 251900Z 36010KT 9999 4000S -RA SCT045 FEW047TCU SCT100 28/20 Q1010=
2009122520 - SBKP 252000Z 36006KT 9999 VCSH SCT045 FEW047TCU BKN100 27/20 Q1011=
2009122520 - SBKP 252020Z 26008KT 9999 -TSRA SCT045 FEW047CB BKN100 24/22 Q1011=
2009122520 - SBKP 252022Z 26008KT 9999 -TSRA SCT045 FEW047CB BKN100 24/22 Q1011=
2009122521 - SBKP 252100Z 20008KT 8000 -TSRA FEW020 SCT045 FEW047CB BKN090 22/22 Q1011=
2009122522 - SBKP 252200Z 09004KT 9999 VCSH FEW030 FEW040TCU BKN090 22/21 Q1011 RETS=
2009122523 - SBKP 252300Z 09004KT CAVOK 22/21 Q1011=
2009122600 - SBKP 260000Z 12003KT CAVOK 22/21 Q1012=
2009122601 - SBKP 260100Z 10006KT CAVOK 22/21 Q1013=
2009122602 - SBKP 260200Z 09004KT 9999 FEW045 SCT100 21/20 Q1012=
2009122603 - SBKP 260300Z 10005KT 9999 FEW045 BKN100 21/21 Q1012=
2009122604 - SBKP 260400Z 07005KT 9999 SCT045 SCT100 21/21 Q1011=
2009122604 - SBKP 260435Z 29004KT 9999 BKN006 SCT045 22/21 Q1011=
2009122605 - SBKP 260500Z 32006KT 9999 -RA FEW006 SCT030 BKN100 22/21 Q1011=
2009122606 - SBKP 260600Z 36006KT 9999 SCT020 BKN070 22/21 Q1011=
2009122607 - SBKP 260700Z 02008KT 9999 FEW006 SCT070 22/21 Q1010=
2009122608 - SBKP 260800Z 02005KT 9999 FEW010 SCT070 22/20 Q1011=
2009122609 - SBKP 260900Z 02004KT 9999 FEW018 BKN070 22/21 Q1011=
2009122610 - SBKP 261000Z 01004KT 9999 BKN010 OVC070 23/21 Q1011=
2009122611 - SBKP 261100Z 01007KT 9999 BKN008 OVC070 23/21 Q1012=
2009122612 - SBKP 261200Z 01006KT 9999 FEW008 BKN015 BKN070 24/22 Q1012=
2009122613 - SBKP 261300Z 36007KT 9999 FEW008 BKN025 25/22 Q1012=
2009122614 - SBKP 261400Z 34007KT 9999 SCT020 SCT025 27/22 Q1011=
2009122615 - SBKP 261500Z 33008KT 9999 SCT020 BKN040 28/21 Q1010=
2009122616 - SBKP 261600Z 31004KT 9999 SCT020 BKN040 27/22 Q1010=
2009122616 - SBKP 261650Z 26012KT 5000 -TSRA BR SCT020 BKN040 FEW045CB 25/21 Q1010=
2009122617 - SBKP 261700Z 24010KT 3500 -TSRA BR SCT020 BKN040 FEW045CB 24/22 Q1010=
2009122617 - SBKP 261720Z 22005KT 5000 -TSRA FEW020 SCT040 FEW045CB BKN100 23/22 Q1010=
2009122618 - SBKP 261800Z 12005KT 9999 TS VCSH FEW020 SCT040 FEW045CB BKN100 23/22 Q1009=
2009122619 - SBKP 261900Z 13005KT 9999 SCT040 BKN100 24/22 Q1008 RETS=
2009122620 - SBKP 262000Z 28003KT 9999 FEW040 SCT100 27/22 Q1008=
2009122621 - SBKP 262100Z 11004KT 9999 FEW040 FEW045TCU SCT100 25/23 Q1008=
2009122622 - SBKP 262200Z 09004KT 9999 FEW040 FEW045TCU SCT100 24/23 Q1008=
2009122623 - SBKP 262300Z 10004KT 9999 FEW030 SCT100 24/22 Q1009=
2009122700 - SBKP 270000Z 12004KT 9999 VCTS FEW030 FEW045CB SCT080 24/22 Q1010=
2009122701 - SBKP 270100Z 08004KT 9999 FEW025 23/22 Q1011=
2009122702 - SBKP 270200Z 11003KT 9999 FEW025 23/22 Q1011=
2009122703 - SBKP 270300Z 07003KT 9999 FEW025 SCT080 23/22 1010=
2009122704 - SBKP 270400Z 04003KT 9999 SCT040 SCT070 23/22 Q1010=
2009122705 - SBKP 270500Z 26006KT 8000 -RA SCT010 BKN030 BKN070 23/22 Q1009=
2009122705 - SBKP 270513Z 24005KT 4000 RA BR BKN010 BKN030 BKN070 22/22 Q1009=
2009122705 - SBKP 270544Z 03003KT 9999 -RA SCT010 BKN030 BKN070 22/22 Q1009 RERA=
2009122706 - SBKP 270600Z 04003KT 9999 -RA FEW012 SCT030 BKN070 22/22 Q1009 RERA=
2009122707 - SBKP 270700Z 36003KT 9999 SCT020 BKN070 23/22 Q1009=
2009122708 - SBKP 270800Z 32006KT 5000 RA BR BKN009 BKN020 OVC070 22/21 Q1009=
2009122708 - SBKP 270838Z 02005KT 6000 -RA FEW009 BKN020 BKN070 21/21 Q1010 RERA=
2009122709 - SBKP 270900Z 02004KT 8000 -RA FEW010 BKN020 OVC070 22/21 Q1010 RERA=
2009122710 - SBKP 271000Z 07004KT 5000 -RA BKN010 BKN025 OVC070 22/22 Q1011=
2009122711 - SBKP 271100Z 01004KT 5000 -RA BKN010 BKN025 OVC070 22/22 Q1011=
2009122712 - SBKP 271200Z 34007KT 5000 -RA BR BKN010 BKN025 OVC070 23/22 Q1010=
2009122713 - SBKP 271300Z 36008KT 6000 SCT010 BKN025 OVC070 25/22 Q1011=
2009122714 - SBKP 271400Z 34007KT 8000 FEW010 BKN025 BKN070 27/22 Q1010=
2009122715 - SBKP 271500Z 35008KT 9999 BKN027 BKN100 28/22 Q1009=
2009122716 - SBKP 271600Z 33008KT 9999 BKN035 FEW045TCU SCT100 29/22 Q1009=
2009122717 - SBKP 271700Z 31011KT 9999 VCSH BKN035 FEW045TCU SCT100 29/22 Q1008=
2009122718 - SBKP 271800Z 31010KT 9999 VCSH SCT040 FEW045TCU 30/21 Q1007=
2009122719 - SBKP 271900Z 22002KT 9999 VCSH SCT040 FEW045TCU 28/22 Q1007=
2009122719 - SBKP 271930Z 33007KT 1000 +TSRA BKN030 FEW035CB 25/22 Q1007=
2009122719 - SBKP 271950Z 14007KT 9999 3000SE -TSRA FEW020 SCT030 FEW035CB 22/21 Q1006 RERA=
2009122720 - SBKP 272000Z 12008KT 9999 3000S -TSRA FEW020 SCT030 FEW035CB 22/22 Q1007 RERA=
2009122720 - SBKP 272025Z 29011KT 3000 TSRA BR BKN015 SCT030 FEW035CB 23/21 Q1008=
2009122721 - SBKP 272100Z 07002KT 8000 -TSRA FEW020 SCT030 FEW035CB BKN100 22/21 Q1007 RERA=
2009122722 - SBKP 272200Z 22008KT 9999 -TSRA SCT013 BKN020 FEW035CB OVC100 22/21 Q1008=
2009122723 - SBKP 272300Z 32005KT 3500 TSRA BR SCT013 BKN020 FEW035CB OVC100 22/21 Q1009=
2009122723 - SBKP 272315Z 33007KT 3500 +TSRA BR SCT013 BKN020 FEW035CB OVC100 21/21 Q1010=
2009122800 - SBKP 280000Z 29004KT 6000 -TSRA SCT002 SCT020 FEW035CB OVC100 21/21 Q1010 RERA=
2009122800 - SBKP 280025Z 24001KT 4000 TSRA BR BKN002 SCT020 FEW035CB OVC100 21/21 Q1010=
2009122801 - SBKP 280100Z 14004KT 5000 TSRA BR SCT002 SCT020 FEW035CB OVC100 22/21 Q1010=
2009122802 - SBKP 280200Z 09005KT 9999 -RA SCT004 SCT020 OVC100 21/21 Q1009 RETSRA=
2009122803 - SBKP 280300Z 04007KT 9999 FEW006 SCT025 OVC100 22/21 Q1008=
2009122804 - SBKP 280400Z 33004KT 8000 BKN006 SCT025 OVC100 21/21 Q1008=
2009122805 - SBKP 280500Z 36007KT 9999 BKN004 SCT025 OVC100 21/21 Q1007=
2009122806 - SBKP 280600Z 01005KT 9999 BKN007 BKN035 BKN100 21/21 Q1007=
2009122807 - SBKP 280700Z 04005KT 8000 -RA BKN005 BKN035 OVC100 21/21 Q1007=
2009122808 - SBKP 280800Z 01004KT 8000 -RA BKN006 BKN035 OVC100 22/21 Q1008=
2009122809 - SBKP 280900Z 01006KT 4000 -RA BR BKN005 BKN008 OVC100 22/21 Q1008=
2009122810 - SBKP 281000Z 36004KT 2000 -RA BR BKN002 BKN008 OVC070 22/21 Q1009=
2009122811 - SBKP 281100Z 35006KT 4000 -RA BR SCT002 BKN008 OVC070 23/22 Q1009=
2009122812 - SBKP 281200Z 33010KT 4000 -RA BR SCT008 BKN015 OVC070 21/22 Q1010=
2009122813 - SBKP 281300Z 33012KT 6000 FEW008 BKN015 BKN070 26/22 Q1010=
2009122814 - SBKP 281400Z 33013KT 6000 VCSH FEW008 BKN015 BKN070 24/22 Q1010=
2009122815 - SBKP 281500Z 34012KT 9999 -RA FEW015 BKN020 BKN090 25/22 Q1009=
2009122816 - SBKP 281600Z 32008KT 8000 FEW015 BKN020 BKN090 25/22 Q1009=
2009122817 - SBKP 281700Z 32008KT 9999 VCSH FEW015 BKN020 FEW030TCU BKN090 27/22 Q1008=
2009122817 - SBKP 281705Z 29020G32KT 3000 SHRA BR FEW015 BKN020 FEW030TCU BKN090 23/21 Q1008=
2009122817 - SBKP 281730Z 26008KT 7000 2000E -TSRA BKN020 FEW030CB BKN090 22/21 Q1007 RERA=
2009122818 - SBKP 281800Z 19007KT 6000 -TSRA SCT015 BKN020 FEW030CB BKN090 22/21 Q1007 RERA=
2009122819 - SBKP 281900Z 19002KT 9999 TS SCT015 BKN027 FEW035CB BKN090 24/21 Q1007=
2009122820 - SBKP 282000Z 02005KT 9999 FEW015 SCT027 FEW035TCU BKN090 24/22 Q1007 RETS=
2009122821 - SBKP 282100Z 28005KT 9999 -RA FEW030 SCT045 BKN100 25/21 Q1007=
2009122822 - SBKP 282200Z 28002KT 9999 -RA BKN033 BKN100 25/21 Q1007=
2009122823 - SBKP 282300Z 02003KT 7000 3000E RA BKN025 OVC100 24/22 Q1008=
2009122823 - SBKP 282335Z 06008KT 9999 -RA SCT010 BKN020 OVC080 23/22 Q1008 RERA=
2009122900 - SBKP 290000Z 06007KT 9000 -RA BKN008 BKN020 OVC080 23/22 Q1008 RERA=
2009122900 - SBKP 290030Z 02007KT 3000 RA BR BKN008 BKN020 OVC080 22/22 Q1009=
2009122901 - SBKP 290100Z 01008KT 3000 TSRA BR BKN005 BKN015 FEW025CB OVC080 22/22 Q1009=
2009122902 - SBKP 290200Z 32008KT 5000 -RA BR BKN004 BKN015 OVC080 22/21 Q1009 RETSRA=
2009122903 - SBKP 290300Z 32007KT 8000 -RA BKN005 BKN009 BKN020 22/21 Q1009=
2009122904 - SBKP 290400Z 33005KT 9999 BKN004 BKN009 BKN020 22/21 Q1009=
2009122905 - SBKP 290500Z 36005KT 9999 BKN009 BKN014 OVC080 22/21 Q1008=
2009122906 - SBKP 290600Z 03006KT 9999 BKN006 BKN014 OVC080 22/21 Q1008=
2009122907 - SBKP 290700Z 35006KT 9999 BKN005 OVC014 22/21 Q1007=
2009122908 - SBKP 290800Z 02006KT 9999 BKN002 BKN006 OVC015 22/21 Q1007=
2009122909 - SBKP 290900Z 04004KT 2000 R15/1300 R33/P2000 -RA BR BKN002 BKN007 OVC020 21/21 Q1008=
2009122910 - SBKP 291000Z 01009KT 1600 R15/1100 R33/1900 -RA BR BKN004 OVC010 21/21 Q1008=
2009122910 - SBKP 291018Z 03006KT 1200 R15/1100 R33/1800 RA BR BKN004 OVC010 21/21 Q1008=
2009122910 - SBKP 291035Z 07006KT 1200 R15/1100 R33/1800 +RA BR BKN004 OVC010 21/21 Q1008=
2009122911 - SBKP 291100Z 04012KT 1900 R15/1300 R33/P2000 +RA BR BKN004 OVC010 21/21 Q1008=
2009122911 - SBKP 291120Z 01014KT 2500 R15/1600 R33/P2000 -RA BR BKN004 BKN010 OVC030 22/21 Q1008 RERA=
2009122912 - SBKP 291200Z 36015KT 3000 R15/1600 R33/P2000 -RA BR OVC002 22/21 Q1008 RERA=
2009122912 - SBKP 291245Z 02007KT 2000 R15/1200 R33/P2000 BR BKN001 OVC003 22/21 Q1009=
2009122913 - SBKP 291300Z 02005KT 2000 R15/1000 R33/1900 -RA BR BKN001 OVC003 22/21 Q1009=
2009122913 - SBKP 291310Z 36008KT 4000 1500N R15/1000 R33/P2000 -RA BR BKN002 BKN005 OVC015 22/21 Q1009=
2009122914 - SBKP 291400Z 02009KT 7000 SCT004 BKN010 OVC020 23/22 Q1009=
2009122915 - SBKP 291500Z 34011KT 3000 R15/1500 R33/P2000 -RA BR SCT005 BKN020 OVC070 22/22 Q1009=
2009122916 - SBKP 291600Z 35007KT 4000 -RA BR SCT005 BKN020 OVC070 23/22 Q1009=
2009122917 - SBKP 291700Z 33006KT 4000 -RA BR SCT005 BKN015 OVC070 23/22 Q1008=
2009122917 - SBKP 291730Z 34005KT 9999 FEW005 SCT015 BKN040 25/22 Q1007=
2009122918 - SBKP 291800Z 01006KT 9999 VCSH SCT015 BKN040 OVC070 25/22 Q1007=
2009122919 - SBKP 291900Z 05007KT 9999 VCSH SCT015 BKN040 BKN070 26/22 Q1006=
2009122920 - SBKP 292000Z 01007KT 9999 SCT015 SCT040 BKN070 26/22 Q1006=
2009122921 - SBKP 292100Z 01005KT 9999 SCT015 SCT045 BKN070 25/22 Q1006=
2009122922 - SBKP 292200Z 05005KT 8000 3000SE -RA SCT013 BKN045 OVC070 25/22 Q1007=
2009122922 - SBKP 292210Z 01006KT 8000 3000SE -TSRA SCT013 BKN045 FEW050CB OVC070 24/22 Q1007=
2009122923 - SBKP 292300Z 01005KT 9999 FEW013 SCT045 BKN070 24/22 Q1008 RETS=
2009123000 - SBKP 300000Z 07002KT 9999 FEW002 SCT010 OVC100 24/23 Q1008=
2009123001 - SBKP 300100Z 21004KT 9999 FEW002 SCT010 BKN045 22/22 Q1010=
2009123001 - SBKP 300135Z 27005KT 9999 OVC003 22/21 Q1010=
2009123002 - SBKP 300200Z 25006KT 4000 BR OVC003 22/21 Q1010=
2009123002 - SBKP 300230Z 20005KT 1300 R15/1500 R33/P2000 BR OVC002 22/21 Q1010=
2009123003 - SBKP 300300Z 21005KT 2200 BR OVC002 22/21 Q1019=
2009123004 - SBKP 300400Z 30001KT 2200 BR OVC002 21/21 Q1009=
2009123005 - SBKP 300500Z 30003KT 2400 BR OVC002 21/21 Q1008=
2009123006 - SBKP 300600Z 28003KT 8000 SCT002 OVC008 21/21 Q1008=
2009123007 - SBKP 300700Z 31004KT 8000 FEW002 OVC008 21/21 Q1008=
2009123008 - SBKP 300800Z 28004KT 9999 SCT004 OVC008 21/20 Q1009=
2009123009 - SBKP 300900Z 30002KT 0800 R15/1300 R33/P2000 FG OVC002 21/21 Q1010=
2009123009 - SBKP 300925Z 36002KT 2000 R15/1200 R33/P2000 BR SCT002 BKN008 OVC090 21/21 Q1010=
2009123010 - SBKP 301000Z 32002KT 2500 BR SCT003 BKN008 OVC090 22/21 Q1010=
2009123011 - SBKP 301100Z 28003KT 2500 BR BKN002 BKN010 OVC090 22/21 Q1011=
2009123012 - SBKP 301200Z 33003KT 3000 BR BKN003 OVC010 22/21 Q1011=
2009123013 - SBKP 301300Z 29005KT 4000 BR BKN004 OVC010 22/21 Q1012=
2009123014 - SBKP 301400Z 28004KT 9999 BKN013 BKN020 OVC090 24/21 Q1012=
2009123014 - SBKP 301420Z 26005KT 9999 SCT015 BKN020 BKN090 25/21 Q1012=
2009123015 - SBKP 301500Z 28006KT 9999 BKN020 FEW032TCU BKN090 26/21 Q1012=
2009123016 - SBKP 301600Z 31005KT 9999 BKN025 FEW035TCU 27/21 Q1011=
2009123017 - SBKP 301700Z 29008KT 9999 BKN025 28/20 Q1010=
2009123018 - SBKP 301800Z 28008KT 9999 SCT030 29/21 Q1009=
2009123019 - SBKP 301900Z 29010KT 9999 SCT030 SCT100 28/22 Q1009=
2009123020 - SBKP 302000Z 25010KT 9999 SCT030 SCT100 28/22 Q1009=
2009123021 - SBKP 302100Z 25008KT 9999 FEW030 FEW035TCU BKN100 26/22 Q1009=
2009123022 - SBKP 302200Z 21006KT 9999 FEW030 FEW035TCU SCT070 BKN100 25/22 Q1010=
2009123023 - SBKP 302300Z 22002KT 9999 FEW035 SCT070 25/21 Q1010=
2009123100 - SBKP 310000Z 10003KT 9999 FEW035 BKN070 24/21 Q1011=
2009123101 - SBKP 310100Z 09003KT 9999 FEW035 BKN070 24/20 Q1012=
2009123102 - SBKP 310200Z 09002KT CAVOK 23/20 Q1012=
2009123103 - SBKP 310300Z 11004KT CAVOK 22/20 Q1011=
2009123104 - SBKP 310400Z 11006KT CAVOK 21/20 Q1011=
2009123105 - SBKP 310500Z 14005KT 9999 FEW040 21/19 Q1010=
2009123106 - SBKP 310600Z 14006KT 9999 SCT040 21/19 Q1010=
2009123107 - SBKP 310700Z 13005KT 9999 BKN040 BKN080 21/19 Q1010=
2009123108 - SBKP 310800Z 14003KT 9999 BKN035 21/19 Q1010=
2009123109 - SBKP 310900Z 15005KT 9999 SCT035 SCT080 21/19 Q1011=
2009123110 - SBKP 311000Z 11002KT 8000 FEW035 SCT080 23/20 Q1012=
2009123111 - SBKP 311100Z 14004KT 8000 FEW025 BKN080 24/20 Q1013=
2009123112 - SBKP 311200Z 06001KT 9999 FEW025 BKN100 26/21 Q1013=
2009123113 - SBKP 311300Z 11004KT 9999 SCT035 BKN100 27/20 Q1013=
2009123114 - SBKP 311400Z 15003KT 9999 SCT035 BKN080 27/20 Q1013=
2009123115 - SBKP 311500Z 12004KT 9999 SCT040 SCT080 28/20 Q1013=
2009123116 - SBKP 311600Z 16004KT 9999 SCT040 29/19 Q1012=
2009123117 - SBKP 311700Z 17005KT 9999 SCT045 30/19 Q1011=
2009123118 - SBKP 311800Z 17009KT 9999 SCT045 31/19 Q1010=
2009123119 - SBKP 311900Z 13010KT 9999 SCT045 FEW045TCU 29/20 Q1010=
2009123120 - SBKP 312000Z 14015KT 9999 SCT045 FEW045TCU 29/19 Q1010=
2009123121 - SBKP 312100Z 16015KT 9999 SCT045 FEW045TCU SCT070 27/19 Q1010=
2009123122 - SBKP 312200Z 14011KT 9999 SCT045 FEW045TCU SCT070 26/19 Q1012=
2009123123 - SBKP 312300Z 14010KT 9999 FEW045 BKN100 25/18 Q1012=