2010010100 - SBKP 010000Z 14011KT 9999 FEW045 BKN100 24/19 Q1013=
2010010101 - SBKP 010100Z 13011KT 9999 FEW040 BKN100 23/19 Q1014=
2010010102 - SBKP 010200Z 14008KT 9999 FEW040 SCT100 23/19 Q1014=
2010010103 - SBKP 010300Z 11005KT 9999 FEW030 SCT100 21/19 Q1014=
2010010104 - SBKP 010400Z 15007KT 9999 FEW030 SCT100 22/19 Q1013=
2010010105 - SBKP 010500Z 14005KT CAVOK 22/19 Q1012=
2010010106 - SBKP 010600Z 15007KT CAVOK 22/19 Q1012=
2010010107 - SBKP 010700Z 10004KT CAVOK 21/19 Q1012=
2010010108 - SBKP 010800Z 11003KT 9999 SCT035 BKN100 21/19 Q1012=
2010010109 - SBKP 010900Z 19005KT 9999 BKN025 21/20 Q1013=
2010010110 - SBKP 011000Z 15004KT 9000 SCT020 SCT030 22/20 Q1013=
2010010111 - SBKP 011100Z 00000KT 9000 BKN018 SCT030 23/20 Q1014=
2010010112 - SBKP 011200Z 25003KT 9999 SCT018 SCT030 24/20 Q1014=
2010010113 - SBKP 011300Z 25004KT 230V320 9999 SCT025 SCT040 25/21 Q1015=
2010010114 - SBKP 011400Z 18010KT 9999 4000S -RA SCT025 BKN040TCU 25/20 Q1014=
2010010115 - SBKP 011500Z 18010KT 9999 4000S -RA FEW012 SCT025 BKN040TCU 25/20 Q1014=
2010010116 - SBKP 011600Z 16011KT 6000 -RA SCT010 SCT025 BKN040 24/21 Q1014=
2010010116 - SBKP 011610Z 16010KT 4000 -RA BR BKN007 SCT035 BKN040 23/21 Q1014=
2010010117 - SBKP 011700Z 15008KT 4000 -RA BR BKN007 SCT025 BKN040 23/22 Q1013=
2010010118 - SBKP 011800Z 17009KT 4000 -RA BR BKN007 SCT040 OVC100 22/21 Q1013=
2010010119 - SBKP 011900Z 16008KT 9999 -RA SCT007 OVC100 22/21 Q1012=
2010010120 - SBKP 012000Z 13008KT 9999 SCT007 SCT040 BKN100 23/21 Q1012=
2010010121 - SBKP 012100Z 15007KT 9999 FEW008 SCT040 BKN080 23/20 Q1012=
2010010122 - SBKP 012200Z 15008KT 9999 FEW010 SCT030 BKN080 22/20 Q1013=
2010010123 - SBKP 012300Z 11005KT 9999 -RA FEW010 SCT030 BKN080 21/20 Q1014=
2010010200 - SBKP 020000Z 12007KT 9999 -RA FEW010 SCT030 BKN090 21/20 Q1015=
2010010201 - SBKP 020100Z 13007KT 9999 -RA FEW010 SCT030 BKN090 21/20 Q1015=
2010010202 - SBKP 020200Z 13008KT 9999 FEW030 BKN100 21/20 Q1016=
2010010203 - SBKP 020300Z 15004KT CAVOK 21/19 Q1015=
2010010204 - SBKP 020400Z 14006KT 9999 FEW030 BKN100 21/19 Q1015=
2010010205 - SBKP 020500Z 14005KT 9999 FEW010 SCT040 BKN100 21/20 Q1014=
2010010206 - SBKP 020600Z 11006KT 2500 RA BR SCT020 BKN100 21/20 Q1014=
2010010206 - SBKP 020615Z 13006KT 7000 -RA SCT020 BKN100 21/20 Q1014 RERA=
2010010207 - SBKP 020700Z 12008KT 9999 SCT020 BKN070 21/20 Q1014 RERA=
2010010208 - SBKP 020800Z 13006KT 9999 SCT030 BKN070 OVC100 21/20 Q1014=
2010010208 - SBKP 020807Z 09006KT 2000 +RA BR SCT030 BKN070 OVC100 21/20 Q1015=
2010010208 - SBKP 020825Z 02003KT 2000 RA BR SCT005 SCT030 BKN070 21/20 Q1015 RERA=
2010010209 - SBKP 020900Z 12004KT 2500 -RA BR FEW005 SCT030 OVC080 21/20 Q1015 RERA=
2010010210 - SBKP 021000Z 12006KT 5000 BR FEW005 SCT030 OVC080 21/20 Q1016=
2010010211 - SBKP 021100Z 11007KT 8000 FEW015 SCT030 OVC080 21/21 Q1016=
2010010212 - SBKP 021200Z 12006KT 9999 FEW015 SCT040 BKN090 22/21 Q1017=
2010010213 - SBKP 021300Z 12004KT 9999 FEW015 SCT040 BKN090 24/22 Q1017=
2010010214 - SBKP 021400Z 02006KT 9999 SCT040 BKN090 27/21 Q1016=
2010010215 - SBKP 021500Z 35007KT 9999 BKN035 BKN090 28/21 Q1016=
2010010216 - SBKP 021600Z 34009KT 9999 SCT035 BKN090 29/21 Q1016=
2010010217 - SBKP 021700Z 35007KT 9999 SCT035 FEW045TCU BKN090 29/21 Q1015=
2010010218 - SBKP 021800Z 34008KT 9999 SCT035 FEW040TCU BKN090 29/20 Q1015=
2010010219 - SBKP 021900Z 02010KT 9999 SCT035 FEW040TCU BKN090 28/20 Q1014=
2010010220 - SBKP 022000Z 34009KT 9999 SCT035 FEW040TCU BKN090 23/20 Q1014=
2010010221 - SBKP 022100Z 18002KT 9999 SCT035 FEW045TCU BKN090 25/20 Q1014=
2010010222 - SBKP 022200Z 14006KT 9999 SCT035 BKN090 24/20 Q1015=
2010010223 - SBKP 022300Z 14009KT 9999 SCT035 BKN090 23/21 Q1015=
2010010300 - SBKP 030000Z 14008KT 9999 FEW035 BKN090 23/21 Q1016=
2010010301 - SBKP 030100Z 13008KT 9999 FEW035 SCT090 23/21 Q1016=
2010010302 - SBKP 030200Z 14010KT CAVOK 23/21 Q1017=
2010010303 - SBKP 030300Z 14009KT CAVOK 23/21 Q1016=
2010010304 - SBKP 030400Z 14010KT CAVOK 23/21 Q1016=
2010010305 - SBKP 030500Z 13009KT CAVOK 22/20 Q1015=
2010010306 - SBKP 030600Z 14009KT CAVOK 22/20 Q1015=
2010010307 - SBKP 030700Z 14008KT CAVOK 22/20 Q1016=
2010010308 - SBKP 030800Z 09005KT CAVOK 22/20 Q1016=
2010010309 - SBKP 030900Z 12005KT CAVOK 22/20 Q1017=
2010010310 - SBKP 031000Z 10006KT CAVOK 23/21 Q1017=
2010010311 - SBKP 031100Z 08005KT CAVOK 26/20 Q1018=
2010010312 - SBKP 031200Z 01006KT CAVOK 28/19 Q1018=
2010010313 - SBKP 031300Z 02006KT 9999 FEW030 29/19 Q1019=
2010010314 - SBKP 031400Z 34005KT 9999 SCT033 30/20 Q1019=
2010010315 - SBKP 031500Z 32005KT 9999 BKN035 SCT100 30/20 Q1018=
2010010316 - SBKP 031600Z 31005KT 9999 BKN035 SCT100 31/20 Q1018=
2010010317 - SBKP 031700Z 28006KT 9999 SCT035 SCT100 31/19 Q1017=
2010010318 - SBKP 031800Z VRB02KT 9999 SCT040 32/19 Q1016=
2010010319 - SBKP 031900Z 30004KT 260V060 9999 SCT040 33/18 Q1015=
2010010320 - SBKP 032000Z 20006KT 9999 SCT040 33/18 Q1015=
2010010321 - SBKP 032100Z 20004KT 9999 SCT040 31/18 Q1015=
2010010322 - SBKP 032200Z 12013KT 9999 FEW040 SCT070 28/21 Q1015=
2010010323 - SBKP 032300Z 14016KT CAVOK 25/21 Q1016=
2010010400 - SBKP 040000Z 11014KT CAVOK 25/21 Q1016=
2010010401 - SBKP 040100Z 11015KT CAVOK 24/21 Q1016=
2010010402 - SBKP 040200Z 14013KT CAVOK 24/21 Q1017=
2010010403 - SBKP 040300Z 13012KT CAVOK 23/21 Q1017=
2010010404 - SBKP 040400Z 11012KT CAVOK 23/21 Q1016=
2010010405 - SBKP 040500Z 11006KT CAVOK 23/20 Q1016=
2010010406 - SBKP 040600Z 12010KT 9999 FEW045 BKN080 22/20 Q1016=
2010010407 - SBKP 040700Z 14008KT 9999 FEW045 22/20 Q1016=
2010010408 - SBKP 040800Z 13008KT 9999 FEW045 BKN080 22/20 Q1016=
2010010409 - SBKP 040900Z 14007KT 7000 FEW045 BKN090 22/20 Q1017=
2010010410 - SBKP 041000Z 11008KT 8000 FEW045 SCT090 23/21 Q1017=
2010010411 - SBKP 041100Z 08006KT 8000 FEW045 SCT090 26/21 Q1018=
2010010412 - SBKP 041200Z 03005KT CAVOK 29/19 Q1018=
2010010413 - SBKP 041300Z 35006KT CAVOK 30/19 Q1018=
2010010414 - SBKP 041400Z 02005KT 9999 FEW035 SCT100 31/19 Q1018=
2010010415 - SBKP 041500Z 35006KT 9999 SCT035 SCT100 32/19 Q1018=
2010010416 - SBKP 041600Z 28005KT 9999 BKN035 SCT100 32/17 Q1017=
2010010417 - SBKP 041700Z 25006KT 9999 SCT035 SCT100 33/18 Q1016=
2010010418 - SBKP 041800Z 33006KT 9999 SCT040 BKN100 32/19 Q1015=
2010010419 - SBKP 041900Z 24004KT 9999 FEW040 SCT100 32/19 Q1015=
2010010420 - SBKP 042000Z 19008KT 9999 VCTS FEW040 FEW050CB 32/19 Q1014=
2010010421 - SBKP 042100Z 12012KT 9999 VCTS FEW050CB SCT070 27/20 Q1015=
2010010422 - SBKP 042200Z 08006KT 9999 FEW045 BKN070 26/19 Q1016=
2010010423 - SBKP 042300Z 10004KT 9999 FEW045 SCT070 25/20 Q1016=
2010010500 - SBKP 050000Z 14006KT CAVOK 24/20 Q1016=
2010010501 - SBKP 050100Z 10006KT CAVOK 23/19 Q1016=
2010010502 - SBKP 050200Z 12007KT CAVOK 22/19 Q1016=
2010010503 - SBKP 050300Z 12007KT CAVOK 22/19 Q1016=
2010010504 - SBKP 050400Z 10003KT CAVOK 22/19 Q1016=
2010010505 - SBKP 050500Z 16009KT CAVOK 23/19 Q1015=
2010010506 - SBKP 050600Z 15006KT CAVOK 22/19 Q1015=
2010010507 - SBKP 050700Z 10008KT CAVOK 22/20 Q1015=
2010010508 - SBKP 050800Z 10007KT 8000 NSC 22/20 Q1015=
2010010509 - SBKP 050900Z 08005KT 4500 BR NSC 22/20 Q1015=
2010010510 - SBKP 051000Z 11004KT 4500 BR NSC 24/20 Q1015=
2010010511 - SBKP 051100Z 08007KT 6000 NSC 25/20 Q1015=
2010010512 - SBKP 051200Z 05004KT CAVOK 28/20 Q1015=
2010010513 - SBKP 051300Z 35006KT CAVOK 30/20 Q1015=
2010010514 - SBKP 051400Z 34005KT 9999 FEW030 BKN070 31/19 Q1015=
2010010515 - SBKP 051500Z 33007KT 9999 FEW040 BKN070 31/20 Q1015=
2010010516 - SBKP 051600Z 32006KT 9999 SCT040 BKN070 32/20 Q1014=
2010010517 - SBKP 051700Z 26009KT 9999 FEW040 FEW045TCU BKN070 32/20 Q1013=
2010010518 - SBKP 051800Z 36005KT 9999 SCT040 FEW045TCU SCT070 31/19 Q1012=
2010010519 - SBKP 051900Z 07008KT 9999 FEW040 FEW045TCU SCT070 31/19 Q1011=
2010010520 - SBKP 052000Z 34002KT 9999 FEW040 BKN070 32/19 Q1010=
2010010521 - SBKP 052100Z 03011KT 9999 SCT045 SCT070 28/20 Q1011=
2010010522 - SBKP 052200Z 03009KT 9999 TS VCSH SCT045 FEW050CB BKN080 26/20 Q1012=
2010010523 - SBKP 052300Z 34010KT 9999 TS FEW045 FEW050CB BKN080 24/21 Q1012=
2010010523 - SBKP 052330Z 26016G26KT 4000 -TSRA SCT008 FEW050CB BKN080 22/21 Q1014 WS R33=
2010010600 - SBKP 060000Z 25017KT 4000 TSRA FEW008 FEW050CB OVC080 21/20 Q1015 WS R33=
2010010601 - SBKP 060100Z 21010KT 8000 -RA FEW030 OVC100 22/21 Q1015 RETSRA=
2010010601 - SBKP 060125Z 13005KT 8000 RA FEW005 BKN040 OVC080 21/21 Q1016=
2010010602 - SBKP 060200Z 10004KT 8000 RA FEW005 SCT040 OVC080 21/20 Q1016=
2010010602 - SBKP 060230Z 10005KT 8000 -RA FEW005 OVC100 21/20 Q1015 RERA=
2010010603 - SBKP 060300Z 10005KT 9999 -RA FEW040 OVC100 21/20 Q1015 RERA=
2010010604 - SBKP 060400Z 08004KT 9999 -RA FEW040 OVC100 21/20 Q1014=
2010010605 - SBKP 060500Z 01004KT 9999 -RA FEW040 OVC100 21/20 Q1012=
2010010606 - SBKP 060600Z 01008KT 9999 FEW005 BKN100 21/20 Q1011=
2010010607 - SBKP 060700Z 36006KT 9999 FEW005 SCT100 21/20 Q1011=
2010010608 - SBKP 060800Z 01007KT 9999 FEW005 BKN100 21/20 Q1011=
2010010609 - SBKP 060900Z 02004KT 9999 FEW005 BKN100 21/20 Q1012=
2010010610 - SBKP 061000Z 02003KT 9999 BKN040 BKN100 21/20 Q1013=
2010010611 - SBKP 061100Z 33002KT 9999 FEW007 BKN040 BKN100 22/20 Q1013=
2010010612 - SBKP 061200Z 33004KT 9999 FEW008 SCT040 BKN090 23/20 Q1013=
2010010613 - SBKP 061300Z 33007KT 9999 FEW010 SCT040 BKN080 25/20 Q1013=
2010010614 - SBKP 061400Z 36007KT 9999 FEW020 BKN080 27/21 Q1013=
2010010615 - SBKP 061500Z 35007KT 9999 FEW020 SCT040 BKN080 28/20 Q1013=
2010010616 - SBKP 061600Z 29005KT 9999 FEW020 SCT040 29/20 Q1013=
2010010617 - SBKP 061700Z 31008KT 9999 SCT040 BKN100 30/21 Q1012=
2010010618 - SBKP 061800Z 32006KT 9999 SCT040 FEW045TCU SCT100 30/22 Q1011=
2010010619 - SBKP 061900Z 27007KT 9999 SCT040 FEW045TCU 31/20 Q1010=
2010010620 - SBKP 062000Z 26007KT 9999 SCT040 FEW045TCU 30/21 Q1010=
2010010621 - SBKP 062100Z 24005KT 9999 SCT040 FEW050TCU SCT100 29/22 Q1011=
2010010621 - SBKP 062112Z 19018KT 9999 5000S -TSRA SCT033 FEW050CB SCT100 26/20 Q1011=
2010010621 - SBKP 062126Z 18018KT 2000 TSRA SCT033 FEW050CB SCT100 23/21 Q1011=
2010010621 - SBKP 062140Z 18011KT 5000 -TSRA BR SCT040 FEW050CB SCT100 23/21 Q1012 RERA=
2010010622 - SBKP 062200Z 17011KT 7000 -TSRA SCT040 FEW050CB SCT100 23/21 Q1012 RERA=
2010010623 - SBKP 062300Z 18004KT 9999 -TSRA SCT045 FEW050CB OVC100 21/20 Q1013=
2010010700 - SBKP 070000Z 01006KT 9999 -TSRA SCT045 FEW050CB 22/20 Q1013=
2010010701 - SBKP 070100Z 01005KT 9999 SCT030 22/20 Q1014 RETS=
2010010702 - SBKP 070200Z 04006KT 9999 VCTS SCT030 FEW050CB 22/21 Q1013=
2010010703 - SBKP 070300Z 12008KT 9999 SCT030 22/21 Q1013=
2010010704 - SBKP 070400Z 07006KT 9999 VCSH SCT030 22/20 Q1012=
2010010705 - SBKP 070500Z 01003KT CAVOK 22/20 Q1011=
2010010706 - SBKP 070600Z 33002KT CAVOK 21/20 Q1012=
2010010707 - SBKP 070700Z 35004KT CAVOK 21/20 Q1012=
2010010708 - SBKP 070800Z 36004KT 9999 FEW005 BKN100 21/20 Q1012=
2010010709 - SBKP 070900Z 01004KT 9999 FEW030 BKN100 21/20 Q1013=
2010010710 - SBKP 071000Z 04004KT 9999 SCT030 BKN100 22/20 Q1014=
2010010711 - SBKP 071100Z 02007KT 9999 FEW010 SCT035 BKN100 23/20 Q1014=
2010010712 - SBKP 071200Z 01009KT 9999 FEW010 SCT035 BKN100 24/19 Q1014=
2010010713 - SBKP 071300Z 35007KT 9999 SCT020 SCT035 BKN100 25/21 Q1015=
2010010714 - SBKP 071400Z 36007KT 9999 SCT020 SCT035 BKN090 25/20 Q1015=
2010010715 - SBKP 071500Z 36009KT 9999 FEW020 SCT035 BKN090 27/21 Q1015=
2010010716 - SBKP 071600Z 31008KT 9999 SCT020 BKN035 26/21 Q1014=
2010010717 - SBKP 071700Z 33005KT 9999 FEW025 SCT035 BKN100 28/21 Q1013=
2010010718 - SBKP 071800Z 32004KT 9999 SCT030 FEW040TCU SCT100 28/21 Q1012=
2010010719 - SBKP 071900Z 25004KT 9999 SCT030 FEW040TCU BKN100 29/21 Q1012=
2010010720 - SBKP 072000Z 24004KT 9999 TS VCSH SCT030 FEW040CB 28/21 Q1012=
2010010721 - SBKP 072100Z 20007KT 9999 TS VCSH SCT030 FEW040CB 27/22 Q1012=
2010010722 - SBKP 072200Z 15012KT 9999 TS VCSH SCT030 FEW040CB 24/20 Q1012=
2010010723 - SBKP 072300Z 11007KT 9999 SCT030 23/21 Q1013 RETS=
2010010800 - SBKP 080000Z 09007KT 9999 SCT040 SCT080 23/21 Q1014=
2010010801 - SBKP 080100Z 13007KT 9999 SCT040 SCT080 23/21 Q1015=
2010010802 - SBKP 080200Z 12004KT 9999 FEW040 SCT080 23/21 Q1015=
2010010803 - SBKP 080300Z 13004KT 9999 FEW040 BKN100 22/21 Q1015=
2010010804 - SBKP 080400Z 16005KT 9999 FEW040 BKN100 23/21 Q1014=
2010010805 - SBKP 080500Z 14003KT 9999 FEW030 BKN080 23/21 Q1014=
2010010806 - SBKP 080600Z 13006KT 9999 FEW030 BKN090 22/21 Q1013=
2010010807 - SBKP 080700Z 11005KT 9999 FEW030 BKN090 22/20 Q1013=
2010010808 - SBKP 080800Z 11005KT 9999 FEW030 BKN080 22/20 Q1014=
2010010809 - SBKP 080900Z 10005KT 9999 FEW030 BKN090 22/20 Q1015=
2010010810 - SBKP 081000Z 12004KT CAVOK 22/21 Q1015=
2010010811 - SBKP 081100Z 11004KT CAVOK 24/21 Q1016=
2010010812 - SBKP 081200Z 09005KT 9999 FEW025 BKN100 25/21 Q1016=
2010010813 - SBKP 081300Z 06006KT 9999 SCT030 BKN100 27/20 Q1016=
2010010814 - SBKP 081400Z 35007KT 9999 3000S -RA BKN030 FEW040TCU BKN100 28/21 Q1016=
2010010815 - SBKP 081500Z 05009KT 9999 VCSH SCT035 FEW040TCU SCT100 29/20 Q1015=
2010010816 - SBKP 081600Z 36008KT 9999 VCSH SCT035 SCT040TCU 28/21 Q1015=
2010010816 - SBKP 081620Z 01011KT 9999 TS VCSH SCT035 FEW040CB SCT070 28/21 Q1015=
2010010817 - SBKP 081700Z 09015KT 9999 4000SW -TSRA SCT030 FEW040CB BKN070 23/22 Q1015=
2010010818 - SBKP 081800Z 16007KT 9999 TS VCSH FEW030 SCT033 FEW040CB BKN070 23/21 Q1014=
2010010819 - SBKP 081900Z 17006KT 9999 TS VCSH BKN030 FEW040CB BKN070 23/22 Q1014=
2010010819 - SBKP 081943Z 32010KT 1500 R15/P2000 R33/P2000 +TSRA BR BKN030 FEW040CB BKN070 22/20 Q1015=
2010010820 - SBKP 082000Z 31002KT 2500 -TSRA BR BKN030 FEW040CB BKN070 21/20 Q1015 RERA=
2010010820 - SBKP 082020Z 20005KT 9999 -TSRA BKN030 FEW040CB BKN070 21/20 Q1014=
2010010821 - SBKP 082100Z 11005KT 9999 -TSRA SCT030 FEW040CB BKN070 21/20 Q1014=
2010010822 - SBKP 082200Z 12005KT 9999 FEW030 BKN070 22/21 Q1014 RETS=
2010010823 - SBKP 082300Z 10006KT 9999 FEW030 SCT070 22/21 Q1015=
2010010900 - SBKP 090000Z 11006KT 9999 FEW030 SCT070 22/21 Q1015=
2010010901 - SBKP 090100Z 12008KT 9999 FEW030 22/21 Q1016=
2010010902 - SBKP 090200Z 12011KT 9999 FEW030 22/21 Q1016=
2010010903 - SBKP 090300Z 12007KT 9999 FEW030 SCT070 22/21 Q1016=
2010010904 - SBKP 090400Z 12007KT 9999 FEW030 SCT070 22/21 Q1015=
2010010905 - SBKP 090500Z 11006KT CAVOK 22/21 Q1015=
2010010906 - SBKP 090600Z 10007KT CAVOK 22/20 Q1015=
2010010907 - SBKP 090700Z 11008KT CAVOK 21/20 Q1015=
2010010908 - SBKP 090800Z 09004KT 8000 NSC 21/20 Q1015=
2010010909 - SBKP 090900Z 10005KT 5000 BR FEW040 SCT100 21/20 Q1016=
2010010910 - SBKP 091000Z 09002KT 6000 FEW045 SCT100 23/21 Q1017=
2010010911 - SBKP 091100Z 04005KT 9000 NSC 25/21 Q1017=
2010010912 - SBKP 091200Z 02008KT CAVOK 27/21 Q1017=
2010010913 - SBKP 091300Z 03011KT 9999 SCT030 28/21 Q1018=
2010010914 - SBKP 091400Z 01010KT 9999 BKN035 29/21 Q1017=
2010010915 - SBKP 091500Z 01010KT 9999 SCT035 30/20 Q1017=
2010010916 - SBKP 091600Z 33009KT 9999 BKN040 30/21 Q1016=
2010010917 - SBKP 091700Z 34011KT 9999 SCT040 FEW045TCU 31/21 Q1015=
2010010918 - SBKP 091800Z 29007KT 9999 SCT035 30/20 Q1015=
2010010919 - SBKP 091900Z 25005KT 9999 VCSH SCT040 FEW050TCU 30/21 Q1014=
2010010919 - SBKP 091940Z 03019G33KT 9999 3500E -TSRA SCT035 FEW040CB 31/20 Q1015=
2010010920 - SBKP 092000Z 04026G43KT 4000 -TSRA SCT035 SCT040CB 22/18 Q1014=
2010010921 - SBKP 092100Z 12006KT 9999 SCT035 BKN080 21/17 Q1014 RETS=
2010010922 - SBKP 092200Z 13006KT 9999 SCT035 BKN080 22/18 Q1014=
2010010923 - SBKP 092300Z 11007KT 9999 FEW035 BKN080 22/18 Q1015=
2010011000 - SBKP 100000Z 12005KT 9999 FEW030 SCT080 22/19 Q1015=
2010011001 - SBKP 100100Z 12008KT 9999 FEW030 SCT090 22/19 Q1016=
2010011002 - SBKP 100200Z 11008KT 9999 FEW045 23/20 Q1015=
2010011003 - SBKP 100300Z 11009KT 9999 FEW020 23/20 Q1015=
2010011004 - SBKP 100400Z 11009KT 9999 FEW020 22/20 Q1014=
2010011005 - SBKP 100500Z 11007KT 9999 FEW040 22/20 Q1014=
2010011006 - SBKP 100600Z 10006KT 9999 FEW040 22/20 Q1014=
2010011007 - SBKP 100700Z 09006KT CAVOK 22/20 Q1013=
2010011008 - SBKP 100800Z 10005KT CAVOK 22/20 Q1013=
2010011009 - SBKP 100900Z 08002KT 9999 FEW040 22/20 Q1014=
2010011010 - SBKP 101000Z 09003KT 9999 FEW040 24/21 Q1015=
2010011011 - SBKP 101100Z 06003KT CAVOK 26/21 Q1015=
2010011012 - SBKP 101200Z 02005KT CAVOK 27/21 Q1016=
2010011013 - SBKP 101300Z 01008KT 9999 FEW040 29/21 Q1016=
2010011014 - SBKP 101400Z 01009KT 9999 SCT040 31/21 Q1016=
2010011015 - SBKP 101500Z 35009KT 9999 BKN040 31/18 Q1016=
2010011016 - SBKP 101600Z 36010KT 9999 BKN040 31/20 Q1015=
2010011017 - SBKP 101700Z 30011KT 9999 BKN040 31/22 Q1014=
2010011018 - SBKP 101800Z 31007KT 9999 SCT040 31/21 Q1014=
2010011019 - SBKP 101900Z 29010KT 9999 FEW045 31/21 Q1014=
2010011020 - SBKP 102000Z 26009KT 9999 VCTS SCT045 FEW050CB 29/22 Q1014=
2010011020 - SBKP 102015Z 32016G26KT 9999 2000N -TSRA BKN040 SCT050CB 25/18 Q1015=
2010011020 - SBKP 102025Z 32030G61KT 1400 R15/1800 R33/1500 +TSGRRA OVC040CB 21/18 Q1016=
2010011020 - SBKP 102040Z 23010KT 8000 4000SE TSRA FEW020 SCT040 FEW050CB 22/21 Q1014 RERA=
2010011021 - SBKP 102100Z 06002KT 9999 VCTS SCT030 FEW050CB 22/21 Q1015 RETSRA=
2010011022 - SBKP 102200Z 24002KT 9999 FEW030 24/19 Q1014=
2010011023 - SBKP 102300Z 24005KT CAVOK 24/20 Q1014=
2010011100 - SBKP 110000Z 17006KT CAVOK 24/20 Q1014=
2010011101 - SBKP 110100Z 12004KT CAVOK 23/20 Q1015=
2010011102 - SBKP 110200Z 10006KT CAVOK 23/20 Q1015=
2010011103 - SBKP 110300Z 10004KT CAVOK 22/20 Q1014=
2010011104 - SBKP 110400Z 07004KT CAVOK 22/20 Q1014=
2010011105 - SBKP 110500Z 07002KT CAVOK 22/20 Q1014=
2010011106 - SBKP 110600Z 05003KT CAVOK 22/21 Q1013=
2010011107 - SBKP 110700Z 28002KT CAVOK 22/20 Q1013=
2010011108 - SBKP 110800Z 04002KT CAVOK 22/21 Q1013=
2010011109 - SBKP 110900Z 25004KT CAVOK 22/20 Q1014=
2010011110 - SBKP 111000Z 22003KT CAVOK 22/20 Q1015=
2010011111 - SBKP 111100Z 26003KT 9999 BKN045 BKN080 23/21 Q1016=
2010011112 - SBKP 111200Z 01001KT 9999 FEW045 BKN080 25/20 Q1016=
2010011113 - SBKP 111300Z 31003KT 9999 FEW045 BKN080 26/21 Q1016=
2010011114 - SBKP 111400Z 02003KT 9999 FEW045 BKN080 28/21 Q1015=
2010011115 - SBKP 111500Z 30004KT 9999 FEW040 BKN080 29/20 Q1015=
2010011116 - SBKP 111600Z 24005KT 9999 FEW040 BKN080 29/20 Q1015=
2010011117 - SBKP 111700Z 24006KT 9999 FEW040 BKN080 29/20 Q1014=
2010011118 - SBKP 111800Z 24007KT 9999 FEW030 BKN070 29/21 Q1013=
2010011119 - SBKP 111900Z 24010KT 9999 VCTS SCT040 FEW045CB 30/21 Q1012=
2010011119 - SBKP 111930Z 28016G31KT 9999 4000NW -TSRA BKN040CB 29/21 Q1013=
2010011119 - SBKP 111940Z 34023G34KT 9999 2000NW -TSRA BKN040CB 21/16 Q1015=
2010011120 - SBKP 112000Z 31013KT 3000 TSRA BKN040CB OVC100 20/16 Q1015=
2010011120 - SBKP 112035Z 29009KT 9999 VCSH BKN040 BKN080 20/17 Q1014 RETSRA=
2010011121 - SBKP 112100Z 22011KT 8000 -RA BKN040 BKN080 20/17 Q1014 RETSRA=
2010011122 - SBKP 112200Z 11010KT 9999 -RA FEW030 OVC100 20/18 Q1014=
2010011123 - SBKP 112300Z 10005KT CAVOK 20/17 Q1015=
2010011200 - SBKP 120000Z 13008KT CAVOK 21/18 Q1014=
2010011201 - SBKP 120100Z 09005KT CAVOK 21/18 Q1015=
2010011202 - SBKP 120200Z 08001KT CAVOK 21/18 Q1015=
2010011203 - SBKP 120300Z 14003KT CAVOK 21/19 Q1015=
2010011204 - SBKP 120400Z 12004KT CAVOK 20/18 Q1014=
2010011205 - SBKP 120500Z 12004KT CAVOK 20/18 Q1014=
2010011206 - SBKP 120600Z 10006KT 9999 FEW040 BKN080 20/18 Q1013=
2010011207 - SBKP 120700Z 11005KT 9999 FEW040 BKN070 20/18 Q1013=
2010011208 - SBKP 120800Z 15003KT 9999 FEW040 BKN070 20/18 Q1013=
2010011209 - SBKP 120900Z 11002KT 9999 FEW040 SCT070 20/19 Q1014=
2010011210 - SBKP 121000Z 07003KT 9999 4800N FEW040 BKN070 21/19 Q1014=
2010011211 - SBKP 121100Z 04005KT 9999 FEW040 BKN070 23/19 Q1015=
2010011212 - SBKP 121200Z 03006KT 9999 FEW040 SCT080 26/20 Q1015=
2010011213 - SBKP 121300Z 01006KT 9999 FEW040 28/19 Q1015=
2010011214 - SBKP 121400Z 36006KT 9999 FEW040 SCT050 29/20 Q1015=
2010011215 - SBKP 121500Z 36006KT 9999 FEW040 SCT050 30/20 Q1015=
2010011216 - SBKP 121600Z 31008KT 9999 SCT040 SCT090 31/19 Q1014=
2010011217 - SBKP 121700Z 31005KT 9999 BKN040 31/19 Q1013=
2010011218 - SBKP 121800Z 33016G31KT 3000 TSRA BKN040 FEW050CB 25/20 Q1014=
2010011218 - SBKP 121824Z 04003KT 9999 TS SCT040 FEW050CB 23/19 Q1013 RERA=
2010011219 - SBKP 121900Z 01003KT 9999 SCT040 FEW050TCU 30/17 Q1012 RETSRA=
2010011220 - SBKP 122000Z 28003KT 9999 SCT040 FEW050TCU 31/20 Q1012=
2010011221 - SBKP 122100Z 27010KT 9999 SCT040 SCT070 26/17 Q1014=
2010011221 - SBKP 122140Z 01012KT 3000 TSRA SCT040 FEW050CB SCT070 23/20 Q1016=
2010011222 - SBKP 122200Z 04007KT 9999 TS SCT040 FEW050CB SCT070 22/20 Q1015 RERA=
2010011223 - SBKP 122300Z 17001KT 9999 SCT040 SCT090 23/20 Q1015 RETS=
2010011300 - SBKP 130000Z 19003KT 9999 SCT040 SCT090 23/19 Q1016=
2010011301 - SBKP 130100Z 08005KT 9999 FEW040 SCT090 22/20 Q1017=
2010011302 - SBKP 130200Z 18002KT CAVOK 24/20 Q1016=
2010011303 - SBKP 130300Z 06004KT CAVOK 22/20 Q1016=
2010011304 - SBKP 130400Z 01005KT CAVOK 22/20 Q1015=
2010011305 - SBKP 130500Z 33003KT CAVOK 21/19 Q1015=
2010011306 - SBKP 130600Z 36005KT CAVOK 21/19 Q1015=
2010011307 - SBKP 130700Z 06002KT CAVOK 21/19 Q1015=
2010011308 - SBKP 130800Z 35002KT CAVOK 21/19 Q1015=
2010011309 - SBKP 130900Z 31003KT CAVOK 21/18 Q1015=
2010011310 - SBKP 131000Z 02005KT CAVOK 21/19 Q1016=
2010011311 - SBKP 131100Z 34005KT CAVOK 23/20 Q1016=
2010011312 - SBKP 131200Z 35006KT CAVOK 25/20 Q1017=
2010011313 - SBKP 131300Z 33003KT 9999 FEW030 26/20 Q1017=
2010011314 - SBKP 131400Z 33006KT 9999 FEW030 28/20 Q1016=
2010011315 - SBKP 131500Z 32005KT 9999 SCT040 29/20 Q1016=
2010011316 - SBKP 131600Z 32007KT 9999 SCT040 30/20 Q1016=
2010011317 - SBKP 131700Z 30005KT 9999 BKN040 30/20 Q1015=
2010011318 - SBKP 131800Z 28002KT 9999 8000SE TS VCSH FEW035CB BKN040 30/20 Q1014=
2010011318 - SBKP 131821Z 03018G28KT 9999 3000E -TSRA SCT040 FEW045CB 24/21 Q1014=
2010011319 - SBKP 131900Z 08004KT 9999 SCT040 FEW045TCU 27/21 Q1013 RETS=
2010011320 - SBKP 132000Z 07005KT 9999 SCT040 29/21 Q1012=
2010011321 - SBKP 132100Z 07003KT 9999 FEW045 29/19 Q1013=
2010011322 - SBKP 132200Z 10002KT 9999 FEW045 28/21 Q1013=
2010011323 - SBKP 132300Z 09003KT 9999 FEW045 27/21 Q1014=
2010011400 - SBKP 140000Z 24003KT 9999 FEW045 26/20 Q1015=
2010011401 - SBKP 140100Z 36003KT 9999 SCT045 25/22 Q1015=
2010011402 - SBKP 140200Z 03004KT 9999 FEW045 25/21 Q1015=
2010011403 - SBKP 140300Z 04003KT CAVOK 24/21 Q1015=
2010011404 - SBKP 140400Z 35004KT CAVOK 23/21 Q1015=
2010011405 - SBKP 140500Z 00000KT 9999 SCT045 SCT070 24/21 Q1014=
2010011406 - SBKP 140600Z 28006KT 9999 FEW020 SCT040 BKN070 23/21 Q1015=
2010011407 - SBKP 140700Z 25006KT 9999 BKN040 OVC080 22/20 Q1015=
2010011408 - SBKP 140800Z 29006KT 9999 FEW013 SCT040 BKN080 21/20 Q1015=
2010011409 - SBKP 140900Z 28003KT 9999 BKN012 OVC040 21/20 Q1015=
2010011410 - SBKP 141000Z 30003KT 9999 SCT012 BKN040 21/20 Q1016=
2010011411 - SBKP 141100Z 02006KT 9999 SCT012 BKN040 23/20 Q1016=
2010011412 - SBKP 141200Z 03005KT 9999 -RA FEW012 23/20 Q1016=
2010011413 - SBKP 141300Z 01006KT 9999 -RA FEW014 24/21 Q1017=
2010011414 - SBKP 141400Z 34007KT 9999 FEW020 25/20 Q1017=
2010011415 - SBKP 141500Z 30007KT 9999 SCT025 SCT040 26/21 Q1017=
2010011416 - SBKP 141600Z 30008KT 9999 -RA BKN025 26/20 Q1017=
2010011417 - SBKP 141700Z 31007KT 9999 BKN027 27/20 Q1016=
2010011418 - SBKP 141800Z 23009KT 9999 SCT030 FEW050TCU BKN100 27/21 Q1015=
2010011419 - SBKP 141900Z 22008KT 9999 SCT030 BKN100 26/21 Q1014=
2010011420 - SBKP 142000Z 22007KT 9999 SCT030 26/21 Q1014=
2010011421 - SBKP 142100Z 20007KT 9999 6000S -RA FEW040 BKN100 25/22 Q1014=
2010011422 - SBKP 142200Z 15006KT 7000 -RA FEW040 BKN100 24/22 Q1016=
2010011423 - SBKP 142300Z 21006KT 9999 -RA FEW040 BKN100 24/20 Q1017=
2010011500 - SBKP 150000Z 21011KT 9999 FEW035 BKN090 20/19 Q1017=
2010011501 - SBKP 150100Z 20005KT 9999 SCT025 BKN090 20/19 Q1018=
2010011502 - SBKP 150200Z 09005KT 9999 -RA FEW015 OVC090 20/19 Q1018=
2010011503 - SBKP 150300Z 28004KT 6000 -RA SCT004 OVC090 20/19 Q1018=
2010011504 - SBKP 150400Z 01002KT 6000 -RA SCT002 OVC090 20/19 Q1017=
2010011504 - SBKP 150430Z 27003KT 5000 BR BKN005 OVC090 20/19 Q1017=
2010011505 - SBKP 150500Z 25006KT 9999 BKN008 OVC090 20/19 Q1017=
2010011506 - SBKP 150600Z 19004KT 9999 BKN007 OVC090 20/19 Q1017=
2010011507 - SBKP 150700Z 02005KT 9999 SCT007 BKN090 20/19 Q1017=
2010011508 - SBKP 150800Z 28003KT 5000 BR SCT005 SCT020 BKN090 20/19 Q1018=
2010011508 - SBKP 150835Z 34002KT 4000 -RA BR FEW020 BKN090 20/19 Q1018=
2010011509 - SBKP 150900Z 28002KT 4000 BR FEW020 BKN090 20/19 Q1018=
2010011509 - SBKP 150920Z 19004KT 2500 R15/1600 R33/P2000 BR FEW020 BKN090 20/19 Q1018=
2010011510 - SBKP 151000Z 18006KT 2500 R15/1500 R33/P2000 BR BKN006 SCT030 BKN090 21/20 Q1019=
2010011510 - SBKP 151020Z 12005KT 8000 SCT006 SCT030 BKN090 21/20 Q1019=
2010011511 - SBKP 151100Z 11005KT 9999 SCT008 BKN090 21/19 Q1019=
2010011512 - SBKP 151200Z 13007KT 9999 SCT016 BKN090 24/20 Q1019=
2010011513 - SBKP 151300Z 12012KT 9999 SCT020 BKN090 25/20 Q1020=
2010011514 - SBKP 151400Z 13011KT 9999 SCT024 SCT090 26/20 Q1020=
2010011515 - SBKP 151500Z 13015KT 9999 SCT023 SCT100 26/20 Q1020=
2010011516 - SBKP 151600Z 13016KT 9999 FEW030 SCT090 26/20 Q1019=
2010011517 - SBKP 151700Z 14015KT 9999 FEW030 27/20 Q1019=
2010011518 - SBKP 151800Z 13016KT 9999 FEW040 27/19 Q1018=
2010011519 - SBKP 151900Z 15017KT 9999 FEW040 27/19 Q1018=
2010011520 - SBKP 152000Z 13019KT 9999 FEW040 26/18 Q1017=
2010011521 - SBKP 152100Z 13017KT 9999 FEW040 SCT100 24/18 Q1017=
2010011522 - SBKP 152200Z 12016KT CAVOK 23/17 Q1018=
2010011523 - SBKP 152300Z 13012KT CAVOK 22/17 Q1019=
2010011600 - SBKP 160000Z 12012KT CAVOK 22/14 Q1019=
2010011601 - SBKP 160100Z 11016KT CAVOK 21/15 Q1020=
2010011602 - SBKP 160200Z 12012KT CAVOK 21/16 Q1021=
2010011603 - SBKP 160300Z 14012KT CAVOK 20/16 Q1021=
2010011604 - SBKP 160400Z 14011KT CAVOK 20/17 Q1020=
2010011605 - SBKP 160500Z 11007KT CAVOK 20/17 Q1019=
2010011606 - SBKP 160600Z 12007KT CAVOK 20/17 Q1019=
2010011607 - SBKP 160700Z 11007KT CAVOK 20/17 Q1019=
2010011608 - SBKP 160800Z 11009KT 9999 FEW040 BKN100 19/17 Q1019=
2010011609 - SBKP 160900Z 14011KT CAVOK 19/17 Q1019=
2010011610 - SBKP 161000Z 11007KT CAVOK 20/17 Q1019=
2010011611 - SBKP 161100Z 10008KT CAVOK 21/18 Q1020=
2010011612 - SBKP 161200Z 11007KT CAVOK 22/18 Q1020=
2010011613 - SBKP 161300Z 11006KT CAVOK 24/19 Q1020=
2010011614 - SBKP 161400Z 03003KT 9999 FEW040 SCT070 26/20 Q1020=
2010011615 - SBKP 161500Z 02008KT 9999 FEW040 29/20 Q1020=
2010011616 - SBKP 161600Z 36007KT 9999 SCT040 29/20 Q1020=
2010011617 - SBKP 161700Z 33008KT 9999 SCT040 29/20 Q1018=
2010011618 - SBKP 161800Z 28005KT 9999 SCT040 30/20 Q1018=
2010011619 - SBKP 161900Z 34006KT 9999 SCT040 FEW050TCU 30/20 Q1017=
2010011620 - SBKP 162000Z 02013KT 9999 4000E -RA SCT030 FEW050TCU SCT090 24/20 Q1018=
2010011621 - SBKP 162100Z 33004KT 9999 4000SE -RA SCT030 FEW050TCU BKN090 22/20 Q1019=
2010011622 - SBKP 162200Z 10005KT 9999 -RA SCT030 OVC090 22/21 Q1019=
2010011623 - SBKP 162300Z 15006KT 9999 -RA SCT030 OVC090 22/20 Q1020=
2010011700 - SBKP 170000Z 23002KT 9000 -RA SCT018 OVC100 22/21 Q1021=
2010011701 - SBKP 170100Z 08005KT 6000 RA SCT010 OVC100 22/21 Q1021=
2010011701 - SBKP 170137Z 09004KT 9999 -RA FEW010 OVC100 21/21 Q1021 RERA=
2010011702 - SBKP 170200Z 09005KT 9999 -RA FEW010 OVC100 21/21 Q1021 RERA=
2010011703 - SBKP 170300Z 06007KT 9999 -RA FEW013 OVC100 21/20 Q1021=
2010011704 - SBKP 170400Z 06007KT 9999 -RA SCT030 OVC090 21/20 Q1021=
2010011705 - SBKP 170500Z 03008KT 9999 FEW030 21/19 Q1020=
2010011706 - SBKP 170600Z 05004KT 9999 -RA FEW030 21/19 Q1020=
2010011707 - SBKP 170700Z 08006KT 9999 -RA FEW030 21/19 Q1020=
2010011708 - SBKP 170800Z 06005KT 9999 FEW030 OVC100 21/19 Q1020=
2010011709 - SBKP 170900Z 03007KT 9999 FEW030 SCT100 21/19 Q1020=
2010011710 - SBKP 171000Z 09003KT 9999 FEW045 SCT100 22/19 Q1020=
2010011711 - SBKP 171100Z 10003KT 9999 FEW045 SCT100 22/19 Q1020=
2010011712 - SBKP 171200Z 06002KT 9999 FEW045 BKN100 24/19 Q1021=
2010011713 - SBKP 171300Z 02002KT 9999 FEW040 BKN100 25/20 Q1021=
2010011714 - SBKP 171400Z 34006KT 9999 FEW040 BKN100 26/21 Q1021=
2010011715 - SBKP 171500Z 36007KT 9999 FEW040 BKN100 27/20 Q1021=
2010011716 - SBKP 171600Z 32008KT 9999 FEW040 BKN100 29/20 Q1020=
2010011717 - SBKP 171700Z 33009KT 9999 FEW040 BKN090 29/19 Q1019=
2010011718 - SBKP 171800Z 35008KT 9999 FEW040 BKN090 29/20 Q1018=
2010011719 - SBKP 171900Z 01007KT 9999 FEW035 FEW050TCU SCT090 28/20 Q1017=
2010011720 - SBKP 172000Z 36005KT 9999 FEW035 BKN090 28/20 Q1017=
2010011721 - SBKP 172100Z 01006KT 9999 FEW030 FEW040TCU BKN100 28/21 Q1017=
2010011722 - SBKP 172200Z 33012KT 9999 3000NE -SHRA FEW030 SCT040TCU BKN100 24/20 Q1018=
2010011722 - SBKP 172220Z 36002KT 9999 -TSSHRA FEW030 FEW040CB BKN100 22/20 Q1018=
2010011723 - SBKP 172300Z 22006KT 9999 TS FEW030 FEW040CB SCT070 OVC100 23/20 Q1019=
2010011800 - SBKP 180000Z 19003KT 9999 -TSRA FEW030 FEW040CB OVC100 23/21 Q1019=
2010011800 - SBKP 180032Z 13006KT 9999 -RA FEW030 OVC100 22/21 Q1018 RETS=
2010011801 - SBKP 180100Z 13010KT 9999 -RA NSC 22/20 Q1019 RETS=
2010011802 - SBKP 180200Z 13008KT CAVOK 21/20 Q1019=
2010011803 - SBKP 180300Z 11008KT 9999 FEW030 BKN100 21/20 Q1019=
2010011804 - SBKP 180400Z 13004KT 9999 -RA NSC 21/20 Q1019=
2010011805 - SBKP 180500Z 10005KT 9999 FEW040 BKN100 21/20 Q1018=
2010011806 - SBKP 180600Z 10006KT 9999 FEW040 BKN100 21/20 Q1017=
2010011807 - SBKP 180700Z 14004KT 9999 FEW040 BKN080 21/20 Q1017=
2010011808 - SBKP 180800Z 12005KT 9999 FEW040 BKN080 21/20 Q1017=
2010011809 - SBKP 180900Z 07003KT 9999 FEW040 SCT080 21/20 Q1018=
2010011810 - SBKP 181000Z 07003KT 7000 FEW040 BKN080 21/20 Q1018=
2010011811 - SBKP 181100Z 03003KT 8000 FEW040 BKN080 23/21 Q1019=
2010011812 - SBKP 181200Z 01005KT 8000 FEW045 SCT090 26/21 Q1019=
2010011813 - SBKP 181300Z 36008KT 9999 SCT030 BKN070 27/21 Q1020=
2010011814 - SBKP 181400Z 01011KT 9999 SCT035 SCT070 28/21 Q1019=
2010011815 - SBKP 181500Z 36010KT 9999 SCT035 SCT090 30/21 Q1019=
2010011816 - SBKP 181600Z 33009KT 9999 3000S -RA SCT040 FEW045TCU SCT080 29/21 Q1018=
2010011817 - SBKP 181700Z 33009KT 9999 SCT040 FEW045TCU SCT080 29/21 Q1017=
2010011818 - SBKP 181800Z 03007KT 9999 FEW040 FEW045TCU BKN090 30/20 Q1016=
2010011819 - SBKP 181900Z 02006KT 9999 SCT048 SCT100 30/20 Q1015=
2010011820 - SBKP 182000Z 32007KT 9999 SCT048 30/20 Q1014=
2010011821 - SBKP 182100Z 22007KT 9999 VCTS SCT048 FEW050CB 28/22 Q1014=
2010011821 - SBKP 182125Z 23006KT 7000 -TSRA FEW048 FEW050CB BKN070 28/23 Q1014=
2010011821 - SBKP 182140Z 06010KT 2500 +TSRA SCT050CB OVC070 25/21 Q1015=
2010011822 - SBKP 182200Z 07016G26KT 2500 TSRA SCT050CB OVC070 21/21 Q1016 RERA=
2010011822 - SBKP 182240Z 06022KT 2000 +TSRA FEW005 SCT050CB OVC070 20/18 Q1017=
2010011823 - SBKP 182300Z 10013KT 2000 +TSRA FEW005 SCT050CB OVC070 20/18 Q1017=
2010011823 - SBKP 182320Z 05006KT 4000 TSRA FEW040 FEW050CB OVC070 20/19 Q1016 RERA=
2010011900 - SBKP 190000Z 12005KT 9999 VCTS FEW050CB BKN100 20/19 Q1015 RERA=
2010011901 - SBKP 190100Z 36004KT 4000 TSRA SCT008 FEW050CB OVC100 21/21 Q1019=
2010011901 - SBKP 190113Z 07003KT 3000 +TSRA SCT008 FEW050CB OVC100 21/20 Q1020=
2010011901 - SBKP 190138Z 35004KT 5000 TSRA SCT008 FEW050CB OVC100 20/19 Q1020=
2010011902 - SBKP 190200Z 10002KT 9999 -TSRA FEW050CB OVC100 20/20 Q1019 RERA=
2010011903 - SBKP 190300Z 07003KT 9999 -RA FEW008 OVC100 21/20 Q1018 RETS=
2010011903 - SBKP 190320Z 08005KT 9999 RA FEW008 OVC100 21/20 Q1018=
2010011904 - SBKP 190400Z 09006KT 9999 RA NSC 20/20 Q1018=
2010011905 - SBKP 190500Z 08005KT 9999 -RA NSC 20/20 Q1017 RERA=
2010011906 - SBKP 190600Z 09005KT CAVOK 20/19 Q1015=
2010011907 - SBKP 190700Z 08004KT CAVOK 20/19 Q1015=
2010011908 - SBKP 190800Z 34002KT CAVOK 20/19 Q1015=
2010011909 - SBKP 190900Z 07003KT 9999 4000N FEW040 BKN100 20/20 Q1016=
2010011910 - SBKP 191000Z 10002KT 9999 FEW045 BKN100 21/20 Q1016=
2010011911 - SBKP 191100Z 06002KT 9000 FEW045 BKN100 22/20 Q1016=
2010011912 - SBKP 191200Z 36004KT 9000 FEW045 SCT100 25/20 Q1016=
2010011913 - SBKP 191300Z 36006KT 9999 FEW045 SCT100 26/20 Q1016=
2010011914 - SBKP 191400Z 36006KT 9999 FEW045 BKN100 26/20 Q1016=
2010011915 - SBKP 191500Z 35007KT 9999 FEW040 BKN100 28/21 Q1016=
2010011916 - SBKP 191600Z 34007KT 9999 FEW040 29/21 Q1016=
2010011917 - SBKP 191700Z 29008KT 9999 SCT040 30/22 Q1015=
2010011918 - SBKP 191800Z 31005KT 9999 SCT045 30/21 Q1014=
2010011919 - SBKP 191900Z 32007KT 9999 VCSH SCT045 FEW050TCU 31/20 Q1014=
2010011919 - SBKP 191925Z 03015KT 9999 4000N -TSRA BKN045 FEW050CB 26/21 Q1013=
2010011919 - SBKP 191945Z 35015KT 0500 R15/0700 R33/P2000 +TSRA BKN045 SCT050CB 23/21 Q1013=
2010011920 - SBKP 192000Z 36013KT 3000 TSRA FEW045 SCT050CB BKN070 22/21 Q1015 RERA=
2010011920 - SBKP 192035Z 02011KT 5000 -TSRA SCT020 FEW050CB BKN070 22/20 Q1015 RERA=
2010011921 - SBKP 192100Z 36016KT 6000 TS VCSH BKN008 FEW040CB OVC080 22/21 Q1016 RERA=
2010011922 - SBKP 192200Z 05006KT 8000 -RA SCT010 OVC100 21/20 Q1015 RETS=
2010011923 - SBKP 192300Z 02006KT 5000 TSRA SCT006 FEW040CB OVC100 21/20 Q1017=
2010012000 - SBKP 200000Z 06007KT 9999 -RA FEW010 OVC100 20/19 Q1018 RETSRA=
2010012001 - SBKP 200100Z 12006KT 9999 -RA NSC 20/19 Q1017=
2010012002 - SBKP 200200Z 10006KT 9999 -RA FEW006 OVC100 20/19 Q1017=
2010012003 - SBKP 200300Z 11004KT 9999 -RA NSC 20/20 Q1016=
2010012004 - SBKP 200400Z 27012KT 9999 -RA FEW002 SCT020 OVC075 20/20 Q1017=
2010012004 - SBKP 200415Z 27009KT 4000 -RA BR FEW002 SCT020 OVC075 20/20 Q1017=
2010012004 - SBKP 200430Z 30008KT 4000 RA BR FEW002 SCT020 OVC075 20/20 Q1017=
2010012005 - SBKP 200500Z 30009KT 2300 RA BR BKN003 SCT020 OVC070 20/19 Q1017=
2010012005 - SBKP 200515Z 34006KT 2300 +RA BR BKN003 SCT020 OVC070 20/19 Q1017=
2010012006 - SBKP 200600Z 08004KT 4000 RA BR BKN005 SCT020 OVC070 20/19 Q1016 RERA=
2010012006 - SBKP 200625Z 02003KT 360V100 7000 -RA SCT005 SCT020 OVC080 20/19 Q1016 RERA=
2010012007 - SBKP 200700Z 00000KT 9999 BKN003 SCT030 OVC090 20/20 Q1016 RERA=
2010012008 - SBKP 200800Z 08004KT 9999 BKN004 SCT030 BKN090 20/19 Q1015=
2010012008 - SBKP 200830Z 05003KT 8000 3600E BCFG FEW002 SCT040 20/19 Q1014=
2010012009 - SBKP 200900Z 04003KT 8000 FEW003 SCT070 20/20 Q1014=
2010012010 - SBKP 201000Z 01005KT 7000 FEW003 SCT100 21/20 Q1014=
2010012011 - SBKP 201100Z 02004KT 9999 FEW003 SCT100 22/20 Q1015=
2010012012 - SBKP 201200Z 02007KT CAVOK 24/20 Q1015=
2010012013 - SBKP 201300Z 36006KT CAVOK 26/20 Q1015=
2010012014 - SBKP 201400Z 34005KT CAVOK 27/20 Q1014=
2010012015 - SBKP 201500Z 34006KT CAVOK 29/21 Q1014=
2010012016 - SBKP 201600Z 32007KT 9999 FEW030 30/19 Q1013=
2010012017 - SBKP 201700Z 34007KT 9999 SCT040 31/20 Q1013=
2010012018 - SBKP 201800Z 33009KT 9999 SCT045 30/21 Q1012=
2010012019 - SBKP 201900Z 32006KT 9999 SCT045 FEW050TCU 31/21 Q1012=
2010012020 - SBKP 202000Z 35012G23KT 9999 4000NE -TSRA SCT045 FEW050CB 29/22 Q1012=
2010012021 - SBKP 202100Z 09005KT 9999 TS VCSH FEW045 FEW050CB BKN080 23/20 Q1012 WS R33=
2010012022 - SBKP 202200Z 12004KT 9999 FEW030 SCT090 23/21 Q1012 RETS=
2010012023 - SBKP 202300Z 08004KT 9999 VCTS FEW030 FEW050CB SCT100 23/20 Q1012=
2010012100 - SBKP 210000Z 06005KT 9999 VCTS FEW050CB BKN100 24/20 Q1013=
2010012101 - SBKP 210100Z 02006KT 9999 FEW020 BKN090 25/21 Q1014=
2010012102 - SBKP 210200Z 30007KT 9999 VCTS FEW030 SCT040 FEW050CB BKN090 23/21 Q1015=
2010012103 - SBKP 210300Z 26010KT 9000 RA BKN010 SCT040 OVC100 22/21 Q1016=
2010012103 - SBKP 210320Z 28008KT 2500 +RA BKN003 SCT040 OVC100 21/20 Q1016=
2010012103 - SBKP 210350Z 24005KT 6000 -RA BKN003 SCT040 OVC100 21/20 Q1016 RERA=
2010012104 - SBKP 210400Z 22004KT 8000 -RA BKN003 BKN040 OVC100 21/20 Q1015 RERA=
2010012105 - SBKP 210500Z 16004KT 9999 -RA FEW003 BKN009 BKN015 21/20Q1014=
2010012106 - SBKP 210600Z 08003KT 8000 -RA FEW002 BKN010 OVC070 21/20 Q1014=
2010012107 - SBKP 210700Z 06005KT 8000 -RA FEW002 SCT010 OVC070 21/20 Q1013=
2010012108 - SBKP 210800Z 05005KT 8000 FEW002 SCT020 OVC100 21/20 Q1014=
2010012109 - SBKP 210900Z 05007KT 9999 VCSH FEW002 SCT040 BKN100 21/20 Q1014=
2010012110 - SBKP 211000Z 06005KT 9999 FEW030 SCT090 22/20 Q1014=
2010012111 - SBKP 211100Z 34003KT 9999 FEW030 SCT070 23/20 Q1015=
2010012112 - SBKP 211200Z 36006KT CAVOK 23/20 Q1015=
2010012113 - SBKP 211300Z 32004KT CAVOK 24/20 Q1015=
2010012114 - SBKP 211400Z 33005KT CAVOK 25/20 Q1015=
2010012115 - SBKP 211500Z 36006KT CAVOK 26/21 Q1015=
2010012116 - SBKP 211600Z 31006KT 9999 SCT040 SCT090 27/20 Q1014=
2010012117 - SBKP 211700Z 28004KT 9999 BKN030 SCT090 28/21 Q1013=
2010012118 - SBKP 211800Z 19003KT 9999 4000NE -RA SCT035 FEW040TCU BKN090 29/20 Q1013=
2010012119 - SBKP 211900Z 08006KT 9999 FEW035 SCT100 28/21 Q1012=
2010012119 - SBKP 211940Z 02003KT 9999 TS VCSH FEW035 FEW050CB SCT100 28/21 Q1012=
2010012120 - SBKP 212000Z 02004KT 9999 4000NE -TSRA SCT035 FEW050CB BKN100 28/21 Q1012=
2010012120 - SBKP 212009Z 34014G24KT 1200 R33/0800 R15/1300 +TSRA SCT010 SCT035 SCT050CB 23/22 Q1013=
2010012120 - SBKP 212026Z 01012G24KT 4000 -TSRA BKN010 SCT030 OVC050CB 22/21 Q1014 RERA=
2010012121 - SBKP 212100Z 02014G24KT 1200 R15/P2000 R33/P2000 +TSRA BKN006 BKN025 SCT050CB OVC090 22/21 Q1015=
2010012121 - SBKP 212120Z 01015KT 4000 -TSRA BR BKN006 BKN025 FEW050CB OVC090 21/20 Q1015 RERA=
2010012122 - SBKP 212200Z 02016KT 4000 RA BR BKN006 BKN030 FEW050TCU OVC090 21/20 Q1015 RETSRA=
2010012122 - SBKP 212230Z 03010KT 9999 -RA SCT008 SCT030 OVC100 21/20 Q1016 RERA=
2010012123 - SBKP 212300Z 02009KT 9999 -RA BKN008 OVC100 21/20 Q1016 RERA=
2010012200 - SBKP 220000Z 03017KT 9999 -RA BKN008 OVC100 21/20 Q1016=
2010012201 - SBKP 220100Z 02009KT 9999 SCT009 OVC100 21/19 Q1016=
2010012202 - SBKP 220200Z 03007KT 9999 FEW009 OVC100 21/19 Q1016=
2010012203 - SBKP 220300Z 02006KT 9999 FEW040 OVC100 21/19 Q1015=
2010012204 - SBKP 220400Z 23007KT 9999 FEW040 OVC070 20/19 Q1015=
2010012205 - SBKP 220500Z 11003KT CAVOK 20/19 Q1015=
2010012206 - SBKP 220600Z 01003KT 9999 -RA SCT045 OVC090 20/20 Q1015=
2010012207 - SBKP 220700Z 03003KT 9999 SCT045 OVC100 20/19 Q1015=
2010012208 - SBKP 220800Z 04006KT 9999 FEW045 20/19 Q1015=
2010012209 - SBKP 220900Z 04005KT 9999 FEW045 21/19 Q1015=
2010012210 - SBKP 221000Z 04006KT 9999 FEW040 BKN070 21/19 Q1016=
2010012211 - SBKP 221100Z 01006KT 9999 FEW040 BKN070 22/19 Q1017=
2010012212 - SBKP 221200Z 35008KT 9999 FEW030 23/20 Q1018=
2010012213 - SBKP 221300Z 34010KT 9999 -RA SCT020 24/19 Q1018=
2010012214 - SBKP 221400Z 35010KT 9999 FEW020 SCT030 24/19 Q1018=
2010012215 - SBKP 221500Z 35013KT 9999 FEW025 SCT030 25/19 Q1017=
2010012216 - SBKP 221600Z 35012KT 9999 SCT025 FEW050TCU 23/19 Q1017=
2010012217 - SBKP 221700Z 01008KT 9999 FEW015 BKN080 22/19 Q1017=
2010012218 - SBKP 221800Z 01007KT 9999 FEW015 BKN080 22/19 Q1017=
2010012219 - SBKP 221900Z 02007KT 9999 FEW015 BKN080 23/19 Q1016=
2010012220 - SBKP 222000Z 01006KT 9999 SCT030 BKN080 23/19 Q1015=
2010012221 - SBKP 222100Z 35002KT 9999 FEW030 BKN080 23/20 Q1014=
2010012222 - SBKP 222200Z 30001KT 9999 FEW030 BKN090 23/19 Q1015=
2010012223 - SBKP 222300Z 22002KT 9999 FEW020 BKN090 23/20 Q1015=
2010012300 - SBKP 230000Z 11005KT 9999 SCT020 BKN090 22/20 Q1016=
2010012301 - SBKP 230100Z 08004KT 9999 FEW020 BKN090 22/20 Q1016=
2010012302 - SBKP 230200Z 06005KT 9999 -RA FEW020 BKN090 22/20 Q1016=
2010012303 - SBKP 230300Z 09005KT 9999 -RA FEW020 BKN090 21/20 Q1015=
2010012304 - SBKP 230400Z 08002KT 9999 FEW020 BKN090 21/20 Q1015=
2010012305 - SBKP 230500Z 16003KT 9999 FEW040 BKN080 21/20 Q1014=
2010012306 - SBKP 230600Z 10004KT 9999 FEW040 BKN070 21/20 Q1014=
2010012307 - SBKP 230700Z 11004KT 9999 FEW040 BKN070 21/20 Q1014=
2010012308 - SBKP 230800Z 16004KT 9999 -RA FEW040 OVC070 21/20 Q1014=
2010012309 - SBKP 230900Z 19004KT 8000 FEW040 BKN070 21/20 Q1015=
2010012310 - SBKP 231000Z 29002KT 8000 FEW010 BKN070 21/20 Q1016=
2010012311 - SBKP 231100Z 36002KT 9999 FEW010 BKN080 23/20 Q1017=
2010012312 - SBKP 231200Z 36006KT 9999 SCT015 SCT100 25/21 Q1017=
2010012313 - SBKP 231300Z 36011KT 9999 BKN025 26/21 Q1017=
2010012314 - SBKP 231400Z 02005KT 9999 SCT030 FEW035TCU BKN090 26/21 Q1017=
2010012315 - SBKP 231500Z 36012KT 9999 TS VCSH FEW030 FEW035CB BKN090 27/20 Q1016=
2010012316 - SBKP 231600Z 32010KT 9999 VCSH FEW030 FEW035TCU BKN070 25/20 Q1016 RETS=
2010012317 - SBKP 231700Z 25003KT 9999 FEW030 SCT070 24/20 Q1015=
2010012318 - SBKP 231800Z 35004KT 9999 FEW030 SCT070 27/20 Q1014=
2010012319 - SBKP 231900Z 01002KT 9999 SCT030 BKN090 26/20 Q1015=
2010012320 - SBKP 232000Z 31004KT 9999 FEW030 FEW040TCU BKN090 27/18 Q1014=
2010012321 - SBKP 232100Z 01002KT 9999 FEW030 FEW040TCU BKN070 27/19 Q1014=
2010012321 - SBKP 232121Z 26003KT 9999 TS VCSH FEW030 FEW040CB BKN070 26/19 Q1014=
2010012322 - SBKP 232200Z 06011KT 9999 3000SE -TSRA FEW030 FEW040CB BKN070 22/20 Q1015=
2010012323 - SBKP 232300Z 20006KT 9999 TS FEW033 FEW045CB BKN100 21/19 Q1016=
2010012323 - SBKP 232314Z 22010KT 4000 TSRA FEW006 FEW045CB BKN100 20/20 Q1017=
2010012323 - SBKP 232330Z 25009KT 4000 +TSRA FEW005 FEW045CB OVC100 20/20 Q1018=
2010012400 - SBKP 240000Z 24013KT 4000 TSRA FEW030 FEW045CB OVC100 20/19 Q1018 RERA=
2010012401 - SBKP 240100Z 08008KT 9999 TSRA FEW030 FEW045CB OVC100 20/19 Q1018=
2010012402 - SBKP 240200Z 10007KT 9999 -RA SCT040 SCT070 OVC100 19/19 Q1017 RETSRA=
2010012403 - SBKP 240300Z 07006KT 9999 SCT040 BKN080 19/18 Q1016=
2010012404 - SBKP 240400Z 06008KT 9999 SCT040 BKN080 20/18 Q1015=
2010012405 - SBKP 240500Z 08005KT 9999 FEW040 BKN080 20/18 Q1015=
2010012406 - SBKP 240600Z 13003KT 9999 FEW004 19/18 Q1014=
2010012407 - SBKP 240700Z 12004KT CAVOK 19/18 Q1014=
2010012408 - SBKP 240800Z 00000KT 9999 FEW004 19/18 Q1015=
2010012409 - SBKP 240900Z 11003KT CAVOK 19/19 Q1015=
2010012410 - SBKP 241000Z 11002KT CAVOK 20/19 Q1016=
2010012411 - SBKP 241100Z 12002KT CAVOK 23/20 Q1016=
2010012412 - SBKP 241200Z 10002KT 9999 FEW020 23/19 Q1016=
2010012413 - SBKP 241300Z 04002KT 9999 SCT020 26/20 Q1016=
2010012414 - SBKP 241400Z 31003KT 9999 SCT035 SCT100 27/19 Q1016=
2010012415 - SBKP 241500Z 29003KT 9999 BKN035 27/19 Q1015=
2010012416 - SBKP 241600Z 26003KT 9999 BKN037 28/20 Q1014=
2010012417 - SBKP 241700Z 25006KT 9999 BKN040 28/19 Q1015=
2010012417 - SBKP 241740Z 27009KT 9999 TS VCSH BKN040CB BKN090 28/19 Q1014=
2010012418 - SBKP 241800Z 26008KT 9999 3500N -TSRA BKN035 SCT040CB 27/20 Q1014=
2010012419 - SBKP 241900Z 26005KT 9999 VCSH SCT035 FEW045TCU 27/20 Q1014 RETS=
2010012420 - SBKP 242000Z 36004KT 9999 SCT035 26/21 Q1014=
2010012421 - SBKP 242100Z 11013KT 9999 SCT024 SCT035 FEW040TCU 23/19 Q1014=
2010012421 - SBKP 242130Z 13014G24KT 9999 3000NW -TSRA SCT021 FEW040CB 23/19 Q1015=
2010012421 - SBKP 242145Z 12008G19KT 1800 R15/P2000 R33/P2000 TSRA SCT021 BKN040CB 22/19 Q1015=
2010012422 - SBKP 242200Z VRB03KT 1600 R15/2000 R33/P2000 +TSRA BKN020 OVC040CB 21/20 Q1016=
2010012422 - SBKP 242240Z 06008KT 8000 TSRA BKN030 SCT040CB 20/20 Q1015 RERA=
2010012423 - SBKP 242300Z 09007KT 9999 VCTS FEW040CB SCT060 20/20 Q1015 RETSRA=
2010012500 - SBKP 250000Z 15008KT CAVOK 21/20 Q1016=
2010012501 - SBKP 250100Z 12008KT 9999 FEW030 20/19 Q1015=
2010012502 - SBKP 250200Z 05005KT CAVOK 20/19 Q1015=
2010012503 - SBKP 250300Z 16006KT CAVOK 20/19 Q1015=
2010012504 - SBKP 250400Z 12002KT CAVOK 20/19 Q1015=
2010012505 - SBKP 250500Z 18005KT CAVOK 20/19 Q1014=
2010012506 - SBKP 250600Z 12006KT CAVOK 19/19 Q1014=
2010012507 - SBKP 250700Z 11006KT CAVOK 19/19 Q1014=
2010012508 - SBKP 250800Z 09005KT CAVOK 19/18 Q1014=
2010012509 - SBKP 250900Z 10005KT CAVOK 19/18 Q1014=
2010012510 - SBKP 251000Z 13003KT CAVOK 21/19 Q1015=
2010012511 - SBKP 251100Z 09002KT CAVOK 23/20 Q1015=
2010012512 - SBKP 251200Z 01003KT 9999 FEW020 25/20 Q1016=
2010012513 - SBKP 251300Z 23002KT 9999 FEW020 26/20 Q1017=
2010012514 - SBKP 251400Z 31004KT 9999 SCT030 FEW033TCU 27/21 Q1017=
2010012515 - SBKP 251500Z 25006KT 9999 VCSH BKN030 FEW033TCU 27/20 Q1017=
2010012516 - SBKP 251600Z 28008KT 9999 BKN035 FEW040TCU 27/21 Q1016=
2010012517 - SBKP 251700Z 28006KT 9999 TS VCSH SCT035 FEW040CB SCT070 26/20 Q1015=
2010012518 - SBKP 251800Z 34003KT 9000 -TSRA SCT030 SCT040CB 23/20 Q1015=
2010012518 - SBKP 251830Z 04004KT 9999 SCT030 FEW040TCU 23/21 Q1014 RETS=
2010012519 - SBKP 251900Z 32002KT 9999 VCTS SCT030 FEW040TCU FEW045CB23/21 Q1015 RETS=
2010012519 - SBKP 251945Z 07004KT 8000 3000NW SHRA SCT030 SCT040TCU22/20 Q1015=
2010012520 - SBKP 252000Z 02003KT 8000 3000NW RA SCT030 SCT040TCU 21/20 Q1015 RESHRA=
2010012520 - SBKP 252045Z 15011KT 9000 -RA FEW020 BKN040 21/19 Q1014 RERA=
2010012521 - SBKP 252100Z 14010KT 8000 -RA FEW020 BKN040 OVC070 21/19 Q1014 RERA=
2010012522 - SBKP 252200Z /////KT 9999 FEW040 BKN080 ///// Q1014=
2010012523 - SBKP 252300Z 11005KT CAVOK 20/19 Q1015=
2010012500 - SBKP 250000Z 15008KT CAVOK 21/20 Q1016=
2010012501 - SBKP 250100Z 12008KT 9999 FEW030 20/19 Q1015=
2010012502 - SBKP 250200Z 05005KT CAVOK 20/19 Q1015=
2010012503 - SBKP 250300Z 16006KT CAVOK 20/19 Q1015=
2010012504 - SBKP 250400Z 12002KT CAVOK 20/19 Q1015=
2010012505 - SBKP 250500Z 18005KT CAVOK 20/19 Q1014=
2010012506 - SBKP 250600Z 12006KT CAVOK 19/19 Q1014=
2010012507 - SBKP 250700Z 11006KT CAVOK 19/19 Q1014=
2010012508 - SBKP 250800Z 09005KT CAVOK 19/18 Q1014=
2010012509 - SBKP 250900Z 10005KT CAVOK 19/18 Q1014=
2010012510 - SBKP 251000Z 13003KT CAVOK 21/19 Q1015=
2010012511 - SBKP 251100Z 09002KT CAVOK 23/20 Q1015=
2010012512 - SBKP 251200Z 01003KT 9999 FEW020 25/20 Q1016=
2010012513 - SBKP 251300Z 23002KT 9999 FEW020 26/20 Q1017=
2010012514 - SBKP 251400Z 31004KT 9999 SCT030 FEW033TCU 27/21 Q1017=
2010012515 - SBKP 251500Z 25006KT 9999 VCSH BKN030 FEW033TCU 27/20 Q1017=
2010012516 - SBKP 251600Z 28008KT 9999 BKN035 FEW040TCU 27/21 Q1016=
2010012517 - SBKP 251700Z 28006KT 9999 TS VCSH SCT035 FEW040CB SCT070 26/20 Q1015=
2010012518 - SBKP 251800Z 34003KT 9000 -TSRA SCT030 SCT040CB 23/20 Q1015=
2010012518 - SBKP 251830Z 04004KT 9999 SCT030 FEW040TCU 23/21 Q1014 RETS=
2010012519 - SBKP 251900Z 32002KT 9999 VCTS SCT030 FEW040TCU FEW045CB23/21 Q1015 RETS=
2010012519 - SBKP 251945Z 07004KT 8000 3000NW SHRA SCT030 SCT040TCU22/20 Q1015=
2010012520 - SBKP 252000Z 02003KT 8000 3000NW RA SCT030 SCT040TCU 21/20 Q1015 RESHRA=
2010012520 - SBKP 252045Z 15011KT 9000 -RA FEW020 BKN040 21/19 Q1014 RERA=
2010012521 - SBKP 252100Z 14010KT 8000 -RA FEW020 BKN040 OVC070 21/19 Q1014 RERA=
2010012522 - SBKP 252200Z /////KT 9999 FEW040 BKN080 ///// Q1014=
2010012523 - SBKP 252300Z 11005KT CAVOK 20/19 Q1015=
2010012600 - SBKP 260000Z 13008KT CAVOK 20/19 Q1015=
2010012701 - SBKP 270100Z 10010KT 9999 FEW020 SCT100 21/19 Q1015=
2010012702 - SBKP 270200Z 11010KT 9999 VCTS FEW020 FEW040CB SCT100 21/18 Q1015=
2010012703 - SBKP 270300Z 02012KT 9999 VCTS FEW025 FEW040CB SCT100 21/19 Q1015=
2010012704 - SBKP 270400Z 05007KT 9999 FEW025 21/18 Q1013=
2010012705 - SBKP 270500Z 09004KT CAVOK 19/17 Q1013=
2010012706 - SBKP 270600Z 09003KT CAVOK 19/17 Q1013=
2010012707 - SBKP 270700Z 11005KT CAVOK 19/18 Q1013=
2010012708 - SBKP 270800Z 07002KT CAVOK 19/18 Q1013=
2010012709 - SBKP 270900Z 36003KT CAVOK 19/18 Q1013=
2010012709 - SBKP 270924Z 02004KT 5000 BR BKN005 SCT020 20/18 Q1014=
2010012709 - SBKP 270946Z 03004KT 5000 BR FEW005 20/19 Q1014=
2010012710 - SBKP 271000Z 04004KT 5000 BR FEW005 20/19 Q1014=
2010012711 - SBKP 271100Z 01006KT 6000 FEW005 BKN100 21/20 Q1014=
2010012712 - SBKP 271200Z 36006KT 8000 SCT010 BKN100 24/20 Q1015=
2010012713 - SBKP 271300Z 36009KT 9999 SCT020 SCT100 25/20 Q1015=
2010012714 - SBKP 271400Z 01012KT 9999 SCT030 27/20 Q1015=
2010012715 - SBKP 271500Z 34012KT 9999 SCT030 28/19 Q1015=
2010012716 - SBKP 271600Z 35011KT 9999 SCT040 SCT100 29/19 Q1014=
2010012717 - SBKP 271700Z 35010KT 9999 SCT040 FEW045TCU SCT100 29/19 Q1014=
2010012718 - SBKP 271800Z 36009KT 9999 SCT040 FEW050TCU SCT090 29/19 Q1012=
2010012719 - SBKP 271900Z 33007KT 9999 SCT040 SCT050TCU BKN100 28/19 Q1012=
2010012720 - SBKP 272000Z 29009KT 9999 SCT040 SCT050TCU BKN100 25/20 Q1012=
2010012721 - SBKP 272100Z 33005KT 9999 SCT040 FEW050TCU BKN100 25/19 Q1013=
2010012722 - SBKP 272200Z 03006KT 9999 FEW045 BKN070 24/20 Q1014=
2010012723 - SBKP 272300Z 03007KT CAVOK 24/19 Q1014=
2010012800 - SBKP 280000Z 11005KT CAVOK 23/20 Q1015=
2010012801 - SBKP 280100Z 12005KT CAVOK 22/20 Q1015=
2010012802 - SBKP 280200Z 11005KT 9999 SCT025 SCT070 22/20 Q1015=
2010012803 - SBKP 280300Z 12006KT CAVOK 21/20 Q1015=
2010012804 - SBKP 280400Z 09005KT CAVOK 21/20 Q1014=
2010012805 - SBKP 280500Z 10006KT CAVOK 21/20 Q1014=
2010012806 - SBKP 280600Z 10005KT CAVOK 21/20 Q1014=
2010012807 - SBKP 280700Z 10004KT CAVOK 21/20 Q1013=
2010012808 - SBKP 280800Z 10005KT CAVOK 21/20 Q1013=
2010012809 - SBKP 280900Z 11005KT 9999 FEW040 BKN100 21/20 Q1014=
2010012810 - SBKP 281000Z 10003KT 9999 FEW040 BKN080 22/20 Q1014=
2010012811 - SBKP 281100Z 07006KT 8000 NSC 23/20 Q1014=
2010012812 - SBKP 281200Z 03005KT 9999 FEW040 25/20 Q1014=
2010012813 - SBKP 281300Z 01010KT CAVOK 26/20 Q1015=
2010012814 - SBKP 281400Z 36009KT 9999 SCT040 BKN100 27/20 Q1015=
2010012815 - SBKP 281500Z 34011KT 9999 SCT030 BKN070 28/20 Q1015=
2010012816 - SBKP 281600Z 33012KT 9999 SCT030 BKN070 27/20 Q1014=
2010012816 - SBKP 281642Z 34015G30KT 9999 2000E TS VCSH SCT030 FEW035CB BKN070 26/20 Q1014=
2010012817 - SBKP 281700Z 36015KT 2000 +TSRA SCT030 FEW040CB BKN070 21/20 Q1014=
2010012817 - SBKP 281725Z 36009KT 5000 -RA SCT030 FEW040TCU BKN070 23/21 Q1014 RETSRA=
2010012818 - SBKP 281800Z 01008KT 7000 SCT040 FEW050TCU BKN070 24/21 Q1013 RETSRA=
2010012819 - SBKP 281900Z 03005KT 9999 FEW040 BKN070 24/21 Q1012=
2010012820 - SBKP 282000Z 08006KT 9999 FEW040 BKN070 26/21 Q1012=
2010012821 - SBKP 282100Z 09006KT 9999 FEW040 BKN080 25/21 Q1012=
2010012822 - SBKP 282200Z 12005KT 9999 FEW040 FEW050TCU BKN100 24/22 Q1012=
2010012823 - SBKP 282300Z 01016G26KT 9999 SCT040 FEW050TCU BKN100 23/20 Q1014=
2010012900 - SBKP 290000Z 01008KT 9999 VCTS SCT040 FEW050CB BKN080 22/20 Q1015 WS RWY33=
2010012901 - SBKP 290100Z 03004KT 9999 -RA SCT040 FEW050TCU BKN080 21/20 Q1016=
2010012902 - SBKP 290200Z 10003KT 9999 FEW040 BKN090 21/19 Q1015=
2010012903 - SBKP 290300Z 13003KT CAVOK 21/20 Q1014=
2010012904 - SBKP 290400Z 15003KT CAVOK 21/20 Q1013=
2010012905 - SBKP 290500Z 00000KT CAVOK 21/20 Q1013=
2010012906 - SBKP 290600Z 11003KT 9999 -RA NSC 21/20 Q1014=
2010012906 - SBKP 290630Z 33004KT 6000 RA BKN003 OVC090 21/20 Q1015=
2010012907 - SBKP 290700Z 32006KT 6000 RA SCT004 OVC090 20/19 Q1015=
2010012908 - SBKP 290800Z 02003KT 8000 -RA SCT007 OVC090 20/19 Q1015 RERA=
2010012909 - SBKP 290900Z 05005KT 4000 -RA BR FEW010 OVC090 20/19 Q1015=
2010012910 - SBKP 291000Z 06005KT 4000 -RA BR FEW007 OVC090 20/20 Q1016=
2010012911 - SBKP 291100Z 05004KT 3500 R15/1900 R33/P2000 -RA BR FEW004 OVC090 21/20 Q1016=
2010012912 - SBKP 291200Z 04006KT 4000 -RA BR FEW002 SCT007 OVC100 21/20 Q1016=
2010012913 - SBKP 291300Z 01003KT 5000 -RA BR FEW002 SCT010 OVC100 22/20 Q1017=
2010012914 - SBKP 291400Z 01007KT 9999 FEW003 SCT010 BKN100 23/20 Q1017=
2010012914 - SBKP 291440Z 01006KT 4000 -RA BR FEW003 SCT010 BKN100 23/21 Q1017=
2010012915 - SBKP 291500Z 36005KT 3500 RA BR SCT010 OVC100 22/21 Q1017=
2010012915 - SBKP 291536Z 04005KT 5000 -RA BR FEW006 SCT010 OVC100 23/22 Q1016 RERA=
2010012916 - SBKP 291600Z 03005KT 8000 -RA SCT010 SCT070 23/21 Q1016 RERA=
2010012917 - SBKP 291700Z 01009KT 9999 -RA SCT020 OVC100 24/21 Q1016=
2010012918 - SBKP 291800Z 01009KT 9999 -RA SCT020 OVC100 24/20 Q1016=
2010012919 - SBKP 291900Z 01006KT 9999 -RA SCT020 OVC100 24/21 Q1016=
2010012920 - SBKP 292000Z 04008KT 9999 -RA FEW010 SCT030 23/21 Q1016=
2010012921 - SBKP 292100Z 04008KT 9999 -RA SCT030 22/20 Q1015=
2010012922 - SBKP 292200Z 06007KT 9999 -RA SCT030 22/20 Q1015=
2010012923 - SBKP 292300Z 06005KT 9999 FEW030 22/20 Q1015=
2010013000 - SBKP 300000Z 07004KT CAVOK 22/20 Q1016=
2010013001 - SBKP 300100Z 07003KT CAVOK 22/20 Q1016=
2010013002 - SBKP 300200Z 09005KT CAVOK 21/20 Q1016=
2010013003 - SBKP 300300Z 11006KT CAVOK 21/20 Q1016=
2010013004 - SBKP 300400Z 11006KT CAVOK 21/20 Q1016=
2010013005 - SBKP 300500Z 13005KT CAVOK 21/20 Q1016=
2010013006 - SBKP 300600Z 12006KT CAVOK 21/19 Q1015=
2010013007 - SBKP 300700Z 11006KT CAVOK 21/19 Q1015=
2010013008 - SBKP 300800Z 21007KT 9999 SCT045 BKN100 21/20 Q1016=
2010013009 - SBKP 300900Z 15008KT 9000 VCSH SCT045 SCT100 21/19 Q1016=
2010013009 - SBKP 300950Z 31012KT 8000 VCSH FEW002 BKN006 21/20 Q1018=
2010013010 - SBKP 301000Z 29011KT 8000 -RA FEW006 SCT010 BKN040 21/20 Q1019=
2010013011 - SBKP 301100Z 22007KT 9999 -RA BKN040 20/19 Q1019=
2010013012 - SBKP 301200Z 17006KT 9999 -RA SCT040 OVC100 21/19 Q1019=
2010013013 - SBKP 301300Z 15005KT 9999 SCT040 OVC100 22/20 Q1020=
2010013014 - SBKP 301400Z 17003KT 9999 -RA SCT045 OVC100 22/19 Q1020=
2010013014 - SBKP 301440Z 26007KT 9000 -RA BKN010 OVC100 21/20 Q1021=
2010013015 - SBKP 301500Z 26006KT 9999 -RA SCT003 BKN012 OVC100 21/20 Q1020=
2010013015 - SBKP 301525Z 17004KT 9999 SCT010 OVC100 21/20 Q1020=
2010013016 - SBKP 301600Z 19006KT 9999 SCT010 22/20 Q1020=
2010013017 - SBKP 301700Z 18008KT 9999 BKN010 BKN100 22/20 Q1019=
2010013018 - SBKP 301800Z 22008KT 9999 BKN010 22/20 Q1019=
2010013018 - SBKP 301820Z 19007KT 9999 FEW010 SCT015 22/20 Q1019=
2010013019 - SBKP 301900Z 21008KT 9999 FEW012 SCT016 23/20 Q1019=
2010013020 - SBKP 302000Z 21009KT 9999 SCT013 SCT070 22/19 Q1019=
2010013021 - SBKP 302100Z 17005KT 9999 FEW013 SCT060 22/19 Q1018=
2010013022 - SBKP 302200Z 13006KT CAVOK 22/19 Q1018=
2010013023 - SBKP 302300Z 09004KT CAVOK 22/19 Q1018=
2010013100 - SBKP 310000Z 35002KT CAVOK 21/19 Q1018=
2010013101 - SBKP 310100Z 11005KT CAVOK 21/19 Q1017=
2010013102 - SBKP 310200Z 13010KT CAVOK 22/19 Q1017=
2010013103 - SBKP 310300Z 13008KT CAVOK 21/19 Q1017=
2010013104 - SBKP 310400Z 19005KT CAVOK 21/19 Q1018=
2010013105 - SBKP 310500Z 18005KT CAVOK 20/19 Q1018=
2010013106 - SBKP 310600Z 12004KT CAVOK 20/19 Q1018=
2010013107 - SBKP 310700Z 12006KT CAVOK 21/20 Q1018=
2010013108 - SBKP 310800Z 10005KT 9999 FEW040 21/20 Q1018=
2010013109 - SBKP 310900Z 12007KT 8000 FEW040 21/20 Q1018=
2010013110 - SBKP 311000Z 11006KT 9999 FEW040 SCT100 22/20 Q1018=
2010013111 - SBKP 311100Z 11006KT 9000 NSC 23/20 Q1019=
2010013112 - SBKP 311200Z 10004KT 9000 FEW015 26/21 Q1019=
2010013113 - SBKP 311300Z 03005KT 9999 FEW020 28/20 Q1019=
2010013114 - SBKP 311400Z 36009KT 9999 FEW020 29/20 Q1020=
2010013115 - SBKP 311500Z 32007KT 9999 SCT035 30/20 Q1019=
2010013116 - SBKP 311600Z 32009KT 9999 VCSH SCT040 FEW045TCU 31/20 Q1018=
2010013117 - SBKP 311700Z 29006KT 9999 TS VCSH SCT040 FEW050CB 32/19 Q1017=
2010013117 - SBKP 311749Z 06017G30KT 9999 2000E -TSRA SCTO30 SCT040CB 23/20 Q1017=
2010013118 - SBKP 311800Z 05015G27KT 6000 2000S -TSRA SCT030 SCT040CB 24/20 Q1017=
2010013119 - SBKP 311900Z 06005KT 9999 -RA FEW030 FEW040TCU 22/21 Q1017 RETS=
2010013120 - SBKP 312000Z 32009KT 9999 -RA FEW030 FEW040TCU 22/20 Q1019=
2010013121 - SBKP 312100Z 16006KT 9999 -TSRA SCT030 FEW040CB 21/19 Q1018=
2010013122 - SBKP 312200Z 17007KT 9999 -RA FEW030 21/19 Q1018 RETS=
2010013123 - SBKP 312300Z 18008KT 9999 FEW030 21/19 Q1019=
2010020100 - SBKP 010000Z 15006KT CAVOK 21/19 Q1019=
2010020101 - SBKP 010100Z 34005KT 9999 FEW040 SCT090 20/19 Q1020=
2010020102 - SBKP 010200Z 08002KT CAVOK 20/19 Q1019=
2010020103 - SBKP 010300Z 15003KT CAVOK 20/19 Q1019=
2010020104 - SBKP 010400Z 16004KT CAVOK 20/19 Q1018=
2010020105 - SBKP 010500Z 12010KT CAVOK 20/19 Q1017=
2010020106 - SBKP 010600Z 12010KT CAVOK 20/18 Q1017=
2010020107 - SBKP 010700Z 23002KT CAVOK 19/18 Q1018=
2010020108 - SBKP 010800Z 09002KT CAVOK 19/18 Q1018=
2010020109 - SBKP 010900Z 09002KT 6000 NSC 19/18 Q1018=
2010020110 - SBKP 011000Z 11002KT 9000 4000E NSC 21/18 Q1019=
2010020111 - SBKP 011100Z 07003KT CAVOK 23/19 Q1019=
2010020112 - SBKP 011200Z 02003KT CAVOK 25/20 Q1019=
2010020113 - SBKP 011300Z 02008KT CAVOK 28/20 Q1019=
2010020114 - SBKP 011400Z 01008KT 9999 FEW030 29/20 Q1019=
2010020115 - SBKP 011500Z 01005KT 9999 FEW030 30/22 Q1018=
2010020116 - SBKP 011600Z 32005KT 9999 SCT035 30/21 Q1018=
2010020117 - SBKP 011700Z 25005KT 9999 SCT040 32/20 Q1017=
2010020118 - SBKP 011800Z 27006KT 9999 SCT040 32/20 Q1016=
2010020119 - SBKP 011900Z 25006KT 9999 SCT045 FEW050TCU 32/19 Q1016=
2010020120 - SBKP 012000Z 24007KT 9999 SCT045 FEW050TCU 33/19 Q1016=
2010020120 - SBKP 012027Z 24006KT 9999 TS VCSH SCT045 FEW050CB 32/19 Q1016=
2010020121 - SBKP 012100Z 25004KT 9999 TS VCSH SCT045 FEW050CB SCT100 31/19 Q1016=
2010020122 - SBKP 012200Z 06010KT 5000 TSRA BKN045 FEW050CB BKN070 26/19 Q1017=
2010020122 - SBKP 012240Z 13013KT 9999 TS BKN045 FEW050CB BKN070 23/19 Q1017RERA=
2010020123 - SBKP 012300Z 12013KT 9999 TS BKN045 FEW050CB BKN080 23/20 Q1017 RERA=
2010020200 - SBKP 020000Z 07005KT 9999 SCT045 BKN070 24/19 Q1018 RETS WS R15=
2010020201 - SBKP 020100Z 03005KT 9999 FEW045 BKN100 23/19 Q1019=
2010020202 - SBKP 020200Z 12006KT CAVOK 22/19 Q1018=
2010020203 - SBKP 020300Z 11008KT CAVOK 22/19 Q1018=
2010020204 - SBKP 020400Z 11007KT CAVOK 21/19 Q1017=
2010020205 - SBKP 020500Z 10005KT CAVOK 21/19 Q1017=
2010020206 - SBKP 020600Z 10007KT CAVOK 21/19 Q1017=
2010020207 - SBKP 020700Z 11005KT CAVOK 20/19 Q1017=
2010020208 - SBKP 020800Z 10007KT CAVOK 20/19 Q1017=
2010020209 - SBKP 020900Z 11006KT 6000 NSC 20/19 Q1017=
2010020210 - SBKP 021000Z 10007KT 9000 4000E NSC 21/19 Q1018=
2010020211 - SBKP 021100Z 08003KT CAVOK 24/20 Q1018=
2010020212 - SBKP 021200Z 01004KT CAVOK 27/19 Q1019=
2010020213 - SBKP 021300Z 36003KT CAVOK 29/20 Q1019=
2010020214 - SBKP 021400Z 36006KT 9999 FEW040 31/20 Q1018=
2010020215 - SBKP 021500Z 30007KT 9999 SCT045 31/19 Q1018=
2010020216 - SBKP 021600Z 35005KT 9999 SCT045 32/19 Q1017=
2010020217 - SBKP 021700Z 33003KT 9999 SCT045 ///// Q1016=
2010020218 - SBKP 021800Z 25007KT 9999 SCT045 33/18 Q1015=
2010020219 - SBKP 021900Z 25004KT 9999 SCT045 FEW050TCU 33/17 Q1015=
2010020220 - SBKP 022000Z 27005KT 9999 VCSH SCT045 FEW050TCU 33/19 Q1015=
2010020221 - SBKP 022100Z 11006KT 9999 VCSH SCT045 FEW050TCU 30/20 Q1015=
2010020222 - SBKP 022200Z 10007KT 9999 SCT045 FEW050TCU SCT100 27/19 Q1016=
2010020223 - SBKP 022300Z 11010KT CAVOK 26/19 Q1016=
2010020300 - SBKP 030000Z 11011KT CAVOK 24/19 Q1017=
2010020301 - SBKP 030100Z 11008KT CAVOK 23/18 Q1017=
2010020302 - SBKP 030200Z 09006KT CAVOK 23/18 Q1017=
2010020303 - SBKP 030300Z 11008KT CAVOK 22/18 Q1016=
2010020304 - SBKP 030400Z 11007KT CAVOK 22/18 Q1016=
2010020305 - SBKP 030500Z 09005KT CAVOK 22/18 Q1015=
2010020306 - SBKP 030600Z 11009KT CAVOK 21/18 Q1015=
2010020307 - SBKP 030700Z 11007KT CAVOK 21/18 Q1016=
2010020308 - SBKP 030800Z 11006KT CAVOK 20/18 Q1016=
2010020309 - SBKP 030900Z 13005KT CAVOK 21/18 Q1017=
2010020310 - SBKP 031000Z 10005KT CAVOK 22/19 Q1017=
2010020311 - SBKP 031100Z 09003KT CAVOK 25/19 Q1018=
2010020312 - SBKP 031200Z 36005KT CAVOK 27/20 Q1018=
2010020313 - SBKP 031300Z 35006KT CAVOK 30/19 Q1018=
2010020314 - SBKP 031400Z 36007KT 9999 FEW045 31/19 Q1018=
2010020315 - SBKP 031500Z 32008KT 9999 FEW045 32/19 Q1017=
2010020316 - SBKP 031600Z 31006KT 9999 SCT045 32/19 Q1016=
2010020317 - SBKP 031700Z 27006KT 9999 SCT045 33/19 Q1015=
2010020318 - SBKP 031800Z 30006KT 9999 SCT045 FEW048TCU 33/18 Q1014=
2010020319 - SBKP 031900Z 26005KT 9999 FEW045 SCT048TCU 34/18 Q1014=
2010020319 - SBKP 031940Z 04011G23KT 9999 TS VCSH FEW045 SCT048CB 30/20 Q1014=
2010020320 - SBKP 032000Z 03013KT 9999 TS VCSH SCT045 FEW048CB 29/20 Q1014=
2010020320 - SBKP 032020Z 04013KT 9999 VCSH SCT045 FEW048TCU 28/21 Q1014 RETS=
2010020321 - SBKP 032100Z 36007KT 9999 FEW045 FEW048TCU SCT100 28/21 Q1015 RETS=
2010020322 - SBKP 032200Z 08004KT 9999 FEW040 FEW045TCU BKN100 28/21 Q1015=
2010020323 - SBKP 032300Z 09006KT 9999 FEW040 SCT100 26/21 Q1015=
2010020400 - SBKP 040000Z 09003KT 9999 FEW035 SCT100 25/21 Q1016=
2010020401 - SBKP 040100Z 07004KT 9999 FEW030 SCT100 25/20 Q1016=
2010020402 - SBKP 040200Z 09005KT 9999 FEW030 24/21 Q1016=
2010020403 - SBKP 040300Z 10005KT CAVOK 23/20 Q1016=
2010020404 - SBKP 040400Z 11007KT CAVOK 22/20 Q1015=
2010020405 - SBKP 040500Z 09005KT CAVOK 22/20 Q1015=
2010020406 - SBKP 040600Z 10006KT CAVOK 22/20 Q1014=
2010020407 - SBKP 040700Z 11006KT 9999 FEW040 22/20 Q1014=
2010020408 - SBKP 040800Z 09007KT CAVOK 22/20 Q1015=
2010020409 - SBKP 040900Z 10006KT CAVOK 21/20 Q1016=
2010020410 - SBKP 041000Z 11006KT CAVOK 22/20 Q1016=
2010020411 - SBKP 041100Z 12002KT CAVOK 26/19 Q1017=
2010020412 - SBKP 041200Z 36003KT CAVOK 28/20 Q1017=
2010020413 - SBKP 041300Z 35007KT CAVOK 30/20 Q1017=
2010020414 - SBKP 041400Z 33007KT 9999 FEW045 31/20 Q1018=
2010020415 - SBKP 041500Z 32009KT 9999 FEW045 32/20 Q1017=
2010020416 - SBKP 041600Z 31008KT 9999 SCT045 33/19 Q1016=
2010020417 - SBKP 041700Z 28007KT 9999 SCT045 33/19 Q1015=
2010020418 - SBKP 041800Z 30006KT 9999 SCT045 34/20 Q1015=
2010020419 - SBKP 041900Z 26006KT 9999 FEW040 FEW045TCU 34/19 Q1014=
2010020420 - SBKP 042000Z 22005KT 9999 FEW040 32/20 Q1014=
2010020421 - SBKP 042100Z 09005KT 9999 VCSH FEW040 31/21 Q1014=
2010020422 - SBKP 042200Z 12013KT 9999 VCTS -RA FEW035 FEW040CB BKN100 27/21 Q1015=
2010020423 - SBKP 042300Z 35010KT 9999 VCTS FEW035 FEW040CB BKN100 26/20 Q1016=
2010020500 - SBKP 050000Z 31006KT 9999 VCTS FEW035 FEW040CB BKN090 25/20 Q1017=
2010020501 - SBKP 050100Z 34007KT 9999 VCTS FEW035 FEW040CB SCT080 24/20 Q1018=
2010020502 - SBKP 050200Z 36004KT 9999 VCTS FEW035 FEW040CB SCT080 24/21 Q1018=
2010020503 - SBKP 050300Z 01002KT 9999 VCTS FEW035 FEW040CB BKN070 24/21 Q1017=
2010020504 - SBKP 050400Z 06008KT 9999 FEW040 BKN100 23/21 Q1017=
2010020505 - SBKP 050500Z 00000KT 9999 FEW040 23/21 Q1016=
2010020506 - SBKP 050600Z 09003KT CAVOK 22/21 Q1016=
2010020507 - SBKP 050700Z 14003KT CAVOK 22/20 Q1015=
2010020508 - SBKP 050800Z 11005KT CAVOK 21/20 Q1015=
2010020509 - SBKP 050900Z 12005KT CAVOK 21/20 Q1016=
2010020510 - SBKP 051000Z 11004KT 9000 4000E NSC 22/20 Q1016=
2010020511 - SBKP 051100Z 07003KT CAVOK 25/20 Q1017=
2010020512 - SBKP 051200Z 35007KT CAVOK 27/19 Q1017=
2010020513 - SBKP 051300Z 01006KT CAVOK 28/19 Q1017=
2010020514 - SBKP 051400Z 32005KT CAVOK 30/18 Q1017=
2010020515 - SBKP 051500Z 36004KT 9999 FEW045 30/19 Q1016=
2010020516 - SBKP 051600Z 31003KT 9999 FEW045 32/19 Q1015=
2010020517 - SBKP 051700Z 30004KT 9999 SCT048 33/19 Q1014=
2010020518 - SBKP 051800Z 26006KT 9999 SCT045 33/18 Q1014=
2010020519 - SBKP 051900Z 28006KT 9999 SCT045 FEW050TCU 33/18 Q1013=
2010020520 - SBKP 052000Z 18003KT 9999 SCT045 FEW050TCU 33/18 Q1012=
2010020521 - SBKP 052100Z 19006KT 9999 FEW045 FEW050TCU SCT080 32/18 Q1012=
2010020522 - SBKP 052200Z 12005KT 9999 FEW045 FEW050TCU SCT080 30/20 Q1013=
2010020523 - SBKP 052300Z 11004KT 9999 VCTS FEW045 FEW050CB SCT080 29/19 Q1013=
2010020600 - SBKP 060000Z 11009KT 9999 FEW045 SCT080 26/19 Q1014=
2010020601 - SBKP 060100Z 11008KT 9999 FEW045 SCT080 25/20 Q1015=
2010020602 - SBKP 060200Z 05006KT 9999 VCTS FEW035 FEW040CB SCT070 25/19 Q1016=
2010020603 - SBKP 060300Z 12003KT 9999 FEW035 SCT070 25/20 Q1015=
2010020604 - SBKP 060400Z 12007KT 9999 FEW035 23/19 Q1015=
2010020605 - SBKP 060500Z 12006KT 9999 FEW035 23/19 Q1015=
2010020606 - SBKP 060600Z 11004KT 9999 FEW035 SCT070 22/20 Q1015=
2010020607 - SBKP 060700Z 11005KT 9999 FEW030 22/20 Q1015=
2010020608 - SBKP 060800Z 04004KT 9999 FEW030 22/20 Q1015=
2010020609 - SBKP 060900Z 04003KT 9999 FEW030 22/20 Q1015=
2010020610 - SBKP 061000Z 01004KT 9999 FEW030 24/19 Q1016=
2010020611 - SBKP 061100Z 04006KT 9999 FEW030 26/18 Q1016=
2010020612 - SBKP 061200Z 04010KT CAVOK 28/17 Q1016=
2010020613 - SBKP 061300Z 01012KT CAVOK 29/18 Q1016=
2010020614 - SBKP 061400Z 36010KT CAVOK 30/18 Q1016=
2010020615 - SBKP 061500Z 35008KT 9999 FEW030 31/19 Q1015=
2010020616 - SBKP 061600Z 31009KT 9999 SCT035 32/18 Q1015=
2010020617 - SBKP 061700Z 30006KT 9999 BKN040 32/18 Q1014=
2010020618 - SBKP 061800Z 04003KT 9999 SCT045 FEW050TCU 33/17 Q1013=
2010020619 - SBKP 061900Z 26005KT 9999 SCT045 FEW050TCU 33/18 Q1012=
2010020620 - SBKP 062000Z 23004KT 9999 TS SCT045 FEW050CB 32/18 Q1012=
2010020621 - SBKP 062100Z 01004KT 9999 FEW045 FEW050TCU SCT080 30/19 Q1012 RETS=
2010020622 - SBKP 062200Z 14001KT 9999 FEW045 SCT080 31/19 Q1012=
2010020623 - SBKP 062300Z 11010KT 9999 FEW045 SCT080 27/18 Q1013=
2010020700 - SBKP 070000Z 11009KT 9999 VCTS FEW045 FEW050CB SCT080 26/19 Q1014=
2010020701 - SBKP 070100Z 11010KT 9999 VCTS FEW045 FEW050CB 24/18 Q1015=
2010020702 - SBKP 070200Z 09003KT 9999 VCTS FEW040 FEW050CB SCT060 24/18 Q1016=
2010020703 - SBKP 070300Z 36003KT 9999 VCTS FEW040 FEW050CB 24/18 Q1015=
2010020704 - SBKP 070400Z 08004KT 9999 VCTS FEW040 FEW050CB 24/18 Q1015=
2010020705 - SBKP 070500Z 27005KT 9999 FEW040 SCT060 23/19 Q1015=
2010020706 - SBKP 070600Z 17004KT CAVOK 22/19 Q1015=
2010020707 - SBKP 070700Z 15004KT CAVOK 22/19 Q1014=
2010020708 - SBKP 070800Z 10004KT CAVOK 21/18 Q1015=
2010020709 - SBKP 070900Z 09005KT 9999 FEW035 20/18 Q1015=
2010020710 - SBKP 071000Z 11003KT 9999 FEW035 22/19 Q1015=
2010020711 - SBKP 071100Z 03005KT 9999 FEW035 25/19 Q1016=
2010020712 - SBKP 071200Z 01012KT CAVOK 27/19 Q1017=
2010020713 - SBKP 071300Z 02009KT 9999 FEW030 28/19 Q1017=
2010020714 - SBKP 071400Z 01010KT 9999 FEW030 29/19 Q1017=
2010020715 - SBKP 071500Z 33008KT 9999 SCT035 31/19 Q1016=
2010020716 - SBKP 071600Z 32008KT 9999 BKN040 31/19 Q1015=
2010020717 - SBKP 071700Z 28006KT 9999 SCT045 FEW050TCU 31/18 Q1014=
2010020718 - SBKP 071800Z 26006KT 9999 SCT045 FEW050TCU 32/17 Q1013=
2010020719 - SBKP 071900Z 06010KT 9999 SCT045 FEW050TCU 31/19 Q1013=
2010020720 - SBKP 072000Z 04007KT 9999 VCTS FEW045 SCT050CB 29/20 Q1012=
2010020721 - SBKP 072100Z 31009KT 9999 VCTS FEW045 SCT050CB 24/20 Q1014=
2010020722 - SBKP 072200Z 22006KT 9999 SCT045 24/19 Q1014=
2010020723 - SBKP 072300Z 12004KT 9999 VCTS FEW045 FEW050CB 24/20 Q1014=
2010020800 - SBKP 080000Z 12006KT 9999 VCTS FEW045 FEW050CB 23/20 Q1015=
2010020801 - SBKP 080100Z 10007KT 9999 FEW045 23/19 Q1015=
2010020802 - SBKP 080200Z 10006KT 9999 FEW045 23/19 Q1015=
2010020803 - SBKP 080300Z 09004KT CAVOK 22/20 Q1016=
2010020804 - SBKP 080400Z 10003KT CAVOK 22/19 Q1015=
2010020805 - SBKP 080500Z 06005KT CAVOK 22/20 Q1014=
2010020806 - SBKP 080600Z 08004KT CAVOK 22/20 Q1014=
2010020807 - SBKP 080700Z 08004KT CAVOK 21/20 Q1014=
2010020808 - SBKP 080800Z 19003KT CAVOK 22/20 Q1014=
2010020809 - SBKP 080900Z 06004KT CAVOK 21/19 Q1015=
2010020810 - SBKP 081000Z 08004KT CAVOK 23/20 Q1015=
2010020811 - SBKP 081100Z 01004KT CAVOK 26/20 Q1016=
2010020812 - SBKP 081200Z 36008KT CAVOK 27/19 Q1016=
2010020813 - SBKP 081300Z 36011KT 9999 FEW020 28/18 Q1016=
2010020814 - SBKP 081400Z 36010KT 9999 FEW023 29/19 Q1015=
2010020815 - SBKP 081500Z 35010KT 9999 SCT040 30/18 Q1015=
2010020816 - SBKP 081600Z 35010KT 9999 SCT045 31/18 Q1014=
2010020817 - SBKP 081700Z 36012KT 9999 BKN048 31/18 Q1013=
2010020818 - SBKP 081800Z 34008KT 9999 BKN045 31/17 Q1013=
2010020819 - SBKP 081900Z 34010KT 9999 SCT045 31/17 Q1012=
2010020820 - SBKP 082000Z 36007KT 9999 SCT042 32/18 Q1011=
2010020821 - SBKP 082100Z 35005KT 9999 SCT042 31/18 Q1011=
2010020822 - SBKP 082200Z 34004KT 9999 FEW040 29/17 Q1011=
2010020823 - SBKP 082300Z 01003KT 9999 VCTS FEW040 FEW042CB SCT100 29/18 Q1012=
2010020900 - SBKP 090000Z 04002KT 9999 VCTS FEW040 FEW042CB BKN100 28/19 Q1012=
2010020901 - SBKP 090100Z 34001KT 9999 VCTS FEW040 FEW042CB 27/19 Q1013=
2010020902 - SBKP 090200Z 35007KT 9999 VCTS FEW040 FEW050CB 25/19 Q1013=
2010020903 - SBKP 090300Z 01005KT CAVOK 25/18 Q1013=
2010020904 - SBKP 090400Z 01008KT CAVOK 24/18 Q1013=
2010020905 - SBKP 090500Z 06005KT CAVOK 24/18 Q1012=
2010020906 - SBKP 090600Z 03003KT CAVOK 23/18 Q1011=
2010020907 - SBKP 090700Z 03004KT CAVOK 22/18 Q1011=
2010020908 - SBKP 090800Z 02005KT CAVOK 23/18 Q1011=
2010020909 - SBKP 090900Z 02005KT CAVOK 23/17 Q1012=
2010020910 - SBKP 091000Z 02006KT 9999 FEW040 23/17 Q1013=
2010020911 - SBKP 091100Z 01008KT 9999 FEW040 26/17 Q1013=
2010020912 - SBKP 091200Z 02008KT CAVOK 26/18 Q1013=
2010020913 - SBKP 091300Z 36007KT 9999 FEW030 28/19 Q1013=
2010020914 - SBKP 091400Z 36012KT 9999 FEW035 29/18 Q1013=
2010020915 - SBKP 091500Z 33011KT 9999 SCT035 30/17 Q1013=
2010020916 - SBKP 091600Z 33008KT 9999 SCT040 FEW045TCU 32/17 Q1012=
2010020917 - SBKP 091700Z 34012KT 9999 SCT040 FEW045TCU 32/17 Q1011=
2010020918 - SBKP 091800Z 34010KT 9999 SCT040 FEW045TCU SCT100 31/17 Q1010=
2010020919 - SBKP 091900Z 08010KT 9999 VCSH SCT040 FEW045TCU 29/19 Q1010=
2010020920 - SBKP 092000Z 07009KT 9999 VCSH SCT040 FEW045TCU SCT100 28/19 Q1010=
2010020921 - SBKP 092100Z 09006KT 9999 FEW040 SCT100 27/18 Q1010=
2010020922 - SBKP 092200Z 10006KT 9999 FEW040 SCT090 25/17 Q1010=
2010020923 - SBKP 092300Z 10006KT 9999 VCTS FEW035 FEW040CB BKN090 24/18 Q1011=
2010021000 - SBKP 100000Z 10006KT 9999 VCTS FEW035 FEW040CB SCT090 23/19 Q1012=
2010021001 - SBKP 100100Z 10007KT 9999 VCTS FEW035 FEW040CB BKN090 23/19 Q1013=
2010021002 - SBKP 100200Z 32007KT 9999 VCTS SCT035 FEW040CB BKN090 24/19 Q1015=
2010021003 - SBKP 100300Z 01005KT 9999 SCT035 BKN090 24/19 Q1014=
2010021004 - SBKP 100400Z 01004KT 9999 SCT040 BKN090 23/19 Q1014=
2010021005 - SBKP 100500Z 36005KT 9999 FEW040 SCT070 BKN100 23/19 Q1013=
2010021006 - SBKP 100600Z 08005KT 9999 FEW040 SCT100 23/19 Q1012=
2010021007 - SBKP 100700Z 08001KT 9999 FEW040 SCT100 22/19 Q1012=
2010021008 - SBKP 100800Z 09002KT 9999 FEW040 SCT100 22/19 Q1012=
2010021009 - SBKP 100900Z 03004KT 9999 SCT040 SCT100 22/18 Q1013=
2010021010 - SBKP 101000Z 35004KT 9999 SCT040 SCT100 23/18 Q1014=
2010021011 - SBKP 101100Z 36007KT 9999 SCT040 SCT100 24/18 Q1014=
2010021012 - SBKP 101200Z 35010KT 9999 SCT040 SCT100 26/19 Q1015=
2010021013 - SBKP 101300Z 33010KT 9999 BKN035 SCT100 26/19 Q1016=
2010021014 - SBKP 101400Z 31009KT 9999 SCT033 FEW035TCU 28/19 Q1015=
2010021015 - SBKP 101500Z 28006KT 9999 -RA SCT033 FEW035TCU 27/20 Q1015=
2010021016 - SBKP 101600Z 35005KT 5000 -TSRA BKN030 FEW040CB 24/21 Q1015=
2010021017 - SBKP 101700Z 08006KT 8000 SCT030 FEW040TCU SCT080 25/22 Q1014 RETS=
2010021017 - SBKP 101730Z 15004KT 9999 VCSH TS SCT015 SCT030 FEW040CB BKN080 25/21 Q1013=
2010021018 - SBKP 101800Z 22009KT 9999 VCSH TS FEW015 SCT030 FEW040CB BKN080 23/20 Q1013=
2010021018 - SBKP 101835Z 16007KT 9999 FEW015 SCT080 22/20 Q1013 RETS=
2010021019 - SBKP 101900Z 15006KT 9999 FEW015 SCT080 22/20 Q1013 RETS=
2010021020 - SBKP 102000Z 10005KT 9999 FEW030 BKN080 24/20 Q1013=
2010021021 - SBKP 102100Z 11005KT 9999 FEW030 BKN080 24/21 Q1013=
2010021022 - SBKP 102200Z 10004KT 9999 FEW030 BKN080 24/21 Q1013=
2010021023 - SBKP 102300Z 11005KT 9999 VCTS FEW030 FEW035CB BKN080 23/21 Q1014=
2010021100 - SBKP 110000Z 09004KT 9999 FEW030 BKN080 23/21 Q1014=
2010021101 - SBKP 110100Z 12006KT 9999 FEW030 BKN080 23/21 Q1015=
2010021102 - SBKP 110200Z 12006KT 9999 FEW030 BKN080 22/21 Q1015=
2010021103 - SBKP 110300Z 12008KT 9999 FEW030 BKN080 22/20 Q1015=
2010021104 - SBKP 110400Z 09006KT 9999 FEW030 SCT070 BKN090 23/20 Q1015=
2010021105 - SBKP 110500Z 04009KT 9999 FEW030 SCT070 BKN090 23/19 Q1014=
2010021106 - SBKP 110600Z 04011KT 9999 FEW030 BKN090 23/18 Q1013=
2010021107 - SBKP 110700Z 01005KT 9999 SCT025 BKN090 23/17 Q1013=
2010021108 - SBKP 110800Z 35004KT 9999 FEW025 BKN090 21/18 Q1014=
2010021109 - SBKP 110900Z 36004KT 9999 FEW025 BKN090 21/18 Q1014=
2010021110 - SBKP 111000Z 36004KT CAVOK 22/18 Q1015=
2010021111 - SBKP 111100Z 34002KT CAVOK 23/19 Q1016=
2010021112 - SBKP 111200Z 15003KT CAVOK 24/19 Q1016=
2010021113 - SBKP 111300Z 01004KT 9999 SCT040 27/19 Q1017=
2010021114 - SBKP 111400Z 03006KT 9999 SCT040 28/20 Q1017=
2010021115 - SBKP 111500Z 36008KT 9999 BKN038 29/20 Q1017=
2010021116 - SBKP 111600Z 34006KT 9999 VCSH SCT040 FEW045TCU SCT080 30/19 Q1016=
2010021116 - SBKP 111640Z 33009KT 2000 +TSRA BKN030 BKN040CB BKN080 24/20Q1018=
2010021117 - SBKP 111700Z 10005KT 4000 -TSRA SCT030 SCT040CB 21/18 Q1015 RERA=
2010021117 - SBKP 111725Z 19006KT 9999 -TSRA FEW030 FEW040CB SCT080 22/19 Q1015=
2010021118 - SBKP 111800Z 19007KT 9999 -RA FEW030 FEW040TCU SCT080 22/19 Q1014 RETS=
2010021119 - SBKP 111900Z 12007KT 9999 -RA FEW030 FEW040TCU SCT080 22/19 Q1014=
2010021120 - SBKP 112000Z 11005KT 9999 -RA FEW030 FEW040TCU SCT080 24/21 Q1014=
2010021121 - SBKP 112100Z 15005KT 9999 FEW025 SCT075 24/20 Q1015=
2010021122 - SBKP 112200Z 17005KT 9999 FEW025 FEW030TCU SCT075 24/21 Q1015=
2010021123 - SBKP 112300Z 12003KT 9999 VCTS FEW025 FEW030CB 23/21 Q1016=
2010021200 - SBKP 120000Z 11008KT 9999 VCTS FEW030CB SCT070 23/20 Q1016=
2010021201 - SBKP 120100Z 11007KT 9999 VCTS FEW030CB 22/20 Q1017=
2010021202 - SBKP 120200Z 12007KT 9999 FEW030CB 22/20 Q1017=
2010021203 - SBKP 120300Z 11009KT 9999 VCTS FEW030 FEW040CB 22/20 Q1016=
2010021204 - SBKP 120400Z 10006KT 9999 FEW030 SCT070 22/19 Q1016=
2010021205 - SBKP 120500Z 12007KT 9999 FEW030 SCT080 22/18 Q1015=
2010021206 - SBKP 120600Z 09006KT 9999 FEW030 SCT080 21/18 Q1015=
2010021207 - SBKP 120700Z 12008KT 9999 FEW030 SCT080 21/19 Q1015=
2010021208 - SBKP 120800Z 12007KT 9999 FEW030 BKN100 22/19 Q1015=
2010021209 - SBKP 120900Z 12007KT CAVOK 21/19 Q1016=
2010021210 - SBKP 121000Z 10005KT 9999 FEW040 BKN100 22/19 Q1018=
2010021211 - SBKP 121100Z 10006KT 9999 FEW040 BKN100 24/20 Q1018=
2010021212 - SBKP 121200Z 05010KT 9999 FEW040 SCT100 27/19 Q1019=
2010021213 - SBKP 121300Z 04011KT 9999 FEW030 SCT100 28/19 Q1019=
2010021214 - SBKP 121400Z 36012KT 9999 FEW035 SCT100 29/19 Q1019=
2010021215 - SBKP 121500Z 02010KT 9999 SCT040 SCT100 30/19 Q1019=
2010021216 - SBKP 121600Z 04006KT 9999 FEW040 SCT100 31/20 Q1018=
2010021217 - SBKP 121700Z 36007KT 9999 VCSH FEW040 FEW045TCU 31/19 Q1017=
2010021217 - SBKP 121740Z 09015G29KT 9999 VCSH SCT040 SCT045TCU 27/17 Q1017=
2010021218 - SBKP 121800Z 12020G33KT 9999 VCSH FEW040 FEW045TCU 26/17 Q1017 WS R15=
2010021219 - SBKP 121900Z 12006KT 9999 FEW040 FEW045TCU 28/17 Q1016=
2010021220 - SBKP 122000Z 12006KT 9999 VCTS FEW040 FEW045CB 26/20 Q1015=
2010021221 - SBKP 122100Z 11005KT 9999 FEW040 25/20 Q1016=
2010021222 - SBKP 122200Z 12007KT 9999 FEW035 24/21 Q1016=
2010021223 - SBKP 122300Z 12009KT 9999 FEW030 24/21 Q1017=
2010021300 - SBKP 130000Z 13012KT 9999 FEW030 24/21 Q1017=
2010021301 - SBKP 130100Z 11010KT 9999 FEW030 24/21 Q1017=
2010021302 - SBKP 130200Z 12012KT 9000 FEW030 24/21 Q1018=
2010021303 - SBKP 130300Z 12011KT 9000 FEW030 24/21 Q1017=
2010021304 - SBKP 130400Z 11011KT 9000 FEW030 23/21 Q1016=
2010021305 - SBKP 130500Z 11008KT 9000 FEW030 23/21 Q1016=
2010021306 - SBKP 130600Z 12009KT 9000 NSC 22/21 Q1016=
2010021307 - SBKP 130700Z 12010KT 9000 NSC 22/20 Q1016=
2010021308 - SBKP 130800Z 11008KT CAVOK 22/20 Q1017=
2010021309 - SBKP 130900Z 10006KT 8000 NSC 22/19 Q1017=
2010021310 - SBKP 131000Z 10006KT CAVOK 23/19 Q1018=
2010021311 - SBKP 131100Z 07007KT CAVOK 26/19 Q1018=
2010021312 - SBKP 131200Z 05010KT CAVOK 27/19 Q1019=
2010021313 - SBKP 131300Z 02011KT 9999 FEW030 30/17 Q1019=
2010021314 - SBKP 131400Z 02010KT 9999 FEW035 30/17 Q1019=
2010021315 - SBKP 131500Z 05011KT 9999 FEW035 30/17 Q1019=
2010021316 - SBKP 131600Z 04008KT 9999 SCT035 31/16 Q1018=
2010021317 - SBKP 131700Z 02006KT 9999 SCT040 32/15 Q1017=
2010021318 - SBKP 131800Z 05007KT 9999 SCT040 32/16 Q1016=
2010021319 - SBKP 131900Z 09006KT 9999 SCT040 32/15 Q1016=
2010021320 - SBKP 132000Z 06005KT 9999 FEW040 SCT070 31/15 Q1015=
2010021321 - SBKP 132100Z 04006KT 9999 FEW040 32/14 Q1015=
2010021322 - SBKP 132200Z 10005KT 9999 FEW040 29/15 Q1015=
2010021323 - SBKP 132300Z 08003KT 9999 FEW040 28/16 Q1015=
2010021400 - SBKP 140000Z 10005KT CAVOK 26/17 Q1016=
2010021401 - SBKP 140100Z 11007KT CAVOK 25/18 Q1017=
2010021402 - SBKP 140200Z 12009KT CAVOK 24/20 Q1017=
2010021403 - SBKP 140300Z 11007KT CAVOK 24/21 Q1017=
2010021404 - SBKP 140400Z 11007KT CAVOK 23/21 Q1017=
2010021405 - SBKP 140500Z 12006KT CAVOK 23/20 Q1016=
2010021406 - SBKP 140600Z 10005KT CAVOK 22/20 Q1016=
2010021407 - SBKP 140700Z 08006KT CAVOK 23/18 Q1016=
2010021408 - SBKP 140800Z 09005KT CAVOK 22/18 Q1016=
2010021409 - SBKP 140900Z 10005KT CAVOK 21/18 Q1016=
2010021410 - SBKP 141000Z 10006KT CAVOK 22/18 Q1017=
2010021411 - SBKP 141100Z 09004KT CAVOK 25/18 Q1017=
2010021412 - SBKP 141200Z 05007KT CAVOK 28/17 Q1018=
2010021413 - SBKP 141300Z 01007KT CAVOK 29/17 Q1018=
2010021414 - SBKP 141400Z 36006KT CAVOK 31/17 Q1018=
2010021415 - SBKP 141500Z 30006KT 9999 FEW045 32/17 Q1018=
2010021416 - SBKP 141600Z 32005KT 9999 SCT045 32/16 Q1017=
2010021417 - SBKP 141700Z 32006KT 9999 SCT045 33/16 Q1016=
2010021418 - SBKP 141800Z 30007KT 9999 BKN045 33/17 Q1015=
2010021419 - SBKP 141900Z 19003KT 9999 BKN045 SCT070 33/17 Q1014=
2010021420 - SBKP 142000Z 25004KT 9999 SCT045 SCT070 32/17 Q1014=
2010021421 - SBKP 142100Z 25005KT 9999 SCT045 SCT080 31/18 Q1014=
2010021422 - SBKP 142200Z 21006KT 9999 FEW045 29/18 Q1013=
2010021423 - SBKP 142300Z 18005KT CAVOK 29/19 Q1014=
2010021500 - SBKP 150000Z 15006KT CAVOK 28/19 Q1014=
2010021501 - SBKP 150100Z 19004KT CAVOK 26/19 Q1015=
2010021502 - SBKP 150200Z 22007KT CAVOK 25/21 Q1016=
2010021503 - SBKP 150300Z 20007KT CAVOK 25/20 Q1016=
2010021504 - SBKP 150400Z 17005KT CAVOK 25/20 Q1015=
2010021505 - SBKP 150500Z 16002KT CAVOK 24/20 Q1015=
2010021506 - SBKP 150600Z 10003KT CAVOK 23/19 Q1015=
2010021507 - SBKP 150700Z 09001KT CAVOK 23/19 Q1015=
2010021508 - SBKP 150800Z 06003KT CAVOK 22/19 Q1015=
2010021509 - SBKP 150900Z 10003KT 9000 NSC 21/20 Q1015=
2010021510 - SBKP 151000Z 07006KT CAVOK 23/19 Q1015=
2010021511 - SBKP 151100Z 08005KT CAVOK 25/20 Q1016=
2010021512 - SBKP 151200Z 07004KT CAVOK 26/20 Q1016=
2010021513 - SBKP 151300Z 01008KT CAVOK 29/19 Q1016=
2010021514 - SBKP 151400Z 35009KT 9999 FEW030 31/20 Q1016=
2010021515 - SBKP 151500Z 34009KT 9999 FEW035 32/18 Q1016=
2010021516 - SBKP 151600Z 33007KT 9999 SCT040 32/19 Q1015=
2010021517 - SBKP 151700Z 31011KT 9999 SCT040 SCT100 32/18 Q1015=
2010021518 - SBKP 151800Z 32010KT 9999 FEW045 33/18 Q1014=
2010021519 - SBKP 151900Z 34007KT 9999 FEW045 34/18 Q1013=
2010021520 - SBKP 152000Z 30007KT 9999 FEW045 33/17 Q1012=
2010021521 - SBKP 152100Z 33005KT 9999 FEW045 33/17 Q1012=
2010021522 - SBKP 152200Z 27003KT 9999 FEW045TCU 31/19 Q1012=
2010021523 - SBKP 152300Z 23002KT 9999 VCTS FEW045CB SCT100 30/19 Q1012=
2010021600 - SBKP 160000Z 09004KT 9999 FEW048 SCT070 29/20 Q1014=
2010021601 - SBKP 160100Z 16002KT 9999 VCTS FEW048CB SCT070 27/20 Q1014=
2010021602 - SBKP 160200Z 18003KT CAVOK 27/20 Q1015=
2010021603 - SBKP 160300Z 18002KT CAVOK 25/20 Q1014=
2010021604 - SBKP 160400Z 06001KT CAVOK 25/21 Q1014=
2010021605 - SBKP 160500Z 20005KT 9999 SCT045 24/19 Q1014=
2010021606 - SBKP 160600Z 31011KT 9999 SCT045 22/18 Q1015=
2010021606 - SBKP 160630Z 28012KT 9999 -TSRA FEW006 SCT045 FEW050CB 22/19 Q1015=
2010021607 - SBKP 160700Z 22006KT 9999 -TSRA FEW010 BKN045 FEW050CB 22/20 Q1014=
2010021608 - SBKP 160800Z 06003KT 9999 SCT045 22/19 Q1014 RETS=
2010021609 - SBKP 160900Z 08005KT 9999 FEW045 22/19 Q1014=
2010021610 - SBKP 161000Z 09004KT 9999 FEW045 23/20 Q1014=
2010021611 - SBKP 161100Z 35003KT 9999 FEW045 26/19 Q1015=
2010021612 - SBKP 161200Z 27010KT 9999 FEW020 SCT100 25/20 Q1017=
2010021613 - SBKP 161300Z 29007KT 9999 FEW020 26/21 Q1017=
2010021614 - SBKP 161400Z 34003KT 9999 FEW020 28/20 Q1016=
2010021615 - SBKP 161500Z 31007KT 9999 FEW030 30/20 Q1016=
2010021616 - SBKP 161600Z 30008KT 9999 FEW030 30/20 Q1016=
2010021617 - SBKP 161700Z 31012KT 9999 SCT040 32/20 Q1015=
2010021618 - SBKP 161800Z 27010KT 9999 SCT040 32/20 Q1014=
2010021619 - SBKP 161900Z 27012KT 9999 SCT040 31/21 Q1013=
2010021620 - SBKP 162000Z 24006KT 9999 FEW040 FEW045TCU 30/21 Q1013=
2010021621 - SBKP 162100Z 22007KT 9999 VCSH FEW040 FEW045TCU 30/21 Q1013=
2010021622 - SBKP 162200Z 20002KT 9999 FEW040TCU SCT100 29/21 Q1014=
2010021622 - SBKP 162240Z 36014G24KT 9999 TS BKN035 FEW040CB BKN100 25/18 Q1015=
2010021623 - SBKP 162300Z 01016KT 9999 -TSRA BKN035 FEW040CB BKN100 24/18 Q1016=
2010021623 - SBKP 162320Z 03014KT 9999 +TSRA BKN008 BKN035 FEW040CB BKN100 22/20 Q1016=
2010021623 - SBKP 162345Z 05009KT 9999 8000E -RA FEW010 BKN040 BKN100 22/19 Q1016 RETSRA=
2010021700 - SBKP 170000Z 06008KT 9999 FEW010 BKN040 BKN080 22/19 Q1016 RETSRA=
2010021701 - SBKP 170100Z 10005KT 9999 BKN040 BKN080 21/20 Q1016=
2010021702 - SBKP 170200Z 06006KT 9999 FEW040 22/20 Q1016=
2010021703 - SBKP 170300Z 08004KT 9999 FEW040 22/20 Q1016=
2010021704 - SBKP 170400Z 36001KT CAVOK 22/20 Q1015=
2010021705 - SBKP 170500Z 11004KT CAVOK 21/20 Q1015=
2010021706 - SBKP 170600Z 12004KT CAVOK 22/20 Q1015=
2010021707 - SBKP 170700Z 06002KT CAVOK 22/20 Q1015=
2010021708 - SBKP 170800Z 10004KT CAVOK 21/19 Q1015=
2010021709 - SBKP 170900Z 11004KT CAVOK 21/19 Q1015=
2010021710 - SBKP 171000Z 10004KT 9999 4000E FEW030 22/20 Q1015=
2010021711 - SBKP 171100Z 29003KT 9999 FEW035 25/20 Q1016=
2010021712 - SBKP 171200Z 30005KT 9999 SCT025 25/20 Q1017=
2010021713 - SBKP 171300Z 36004KT 9999 FEW020 SCT030 26/20 Q1017=
2010021714 - SBKP 171400Z 02003KT 9999 FEW025 28/20 Q1017=
2010021715 - SBKP 171500Z 32002KT 9999 FEW030 BKN100 29/21 Q1016=
2010021716 - SBKP 171600Z 27006KT 9999 BKN035 30/20 Q1016=
2010021717 - SBKP 171700Z 25007KT 9999 VCTSSH SCT040 FEW045CB BKN100 31/20 Q1014=
2010021718 - SBKP 171800Z 28011G27KT 9999 -TSRA SCT040 FEW045CB SCT100 31/20 Q1014=
2010021719 - SBKP 171900Z 34004KT 9999 4500SE -TSRA FEW012 SCT040 FEW045CB BKN100 24/22 Q1015=
2010021720 - SBKP 172000Z 12005KT 9999 -TSRA FEW040 FEW050CB 24/22 Q1014=
2010021720 - SBKP 172025Z 17010KT 9999 FEW040 23/20 Q1015 RETS=
2010021721 - SBKP 172100Z 14006KT 9999 FEW040 23/20 Q1015 RETS=
2010021722 - SBKP 172200Z 11010KT 9999 FEW040 FEW050TCU 21/20 Q1016=
2010021723 - SBKP 172300Z 11008KT 9999 FEW045 21/19 Q1016=
2010021800 - SBKP 180000Z 07004KT 9999 -RA FEW045 OVC080 21/19 Q1018=
2010021801 - SBKP 180100Z 08004KT 9999 -RA FEW045 OVC070 21/20 Q1019=
2010021802 - SBKP 180200Z 06007KT 9999 -RA FEW040 OVC090 22/20 Q1019=
2010021803 - SBKP 180300Z 11003KT 9999 -RA SCT045 21/20 Q1018=
2010021804 - SBKP 180400Z 13006KT 9999 -RA SCT045 OVC100 21/20 Q1017=
2010021805 - SBKP 180500Z 12008KT 9999 -RA SCT045 OVC100 21/20 Q1017=
2010021806 - SBKP 180600Z 11007KT 9999 -RA FEW045 OVC085 21/20 Q1017=
2010021807 - SBKP 180700Z 13007KT 9999 -RA FEW045 OVC100 21/20 Q1017=
2010021808 - SBKP 180800Z 12011KT 9999 -RA FEW045 OVC100 21/20 Q1017=
2010021809 - SBKP 180900Z 12010KT 9999 -RA FEW040 OVC100 21/20 Q1017=
2010021810 - SBKP 181000Z 10006KT 9999 FEW015 SCT060 OVC100 21/20 Q1017=
2010021811 - SBKP 181100Z 09006KT 9999 -RA FEW015 SCT060 OVC100 22/20 Q1018=
2010021812 - SBKP 181200Z 07005KT 9999 -RA FEW015 OVC100 23/20 Q1019=
2010021813 - SBKP 181300Z 02005KT 8000 -RA FEW015 OVC100 23/20 Q1019=
2010021814 - SBKP 181400Z 03005KT 9999 -RA FEW015 OVC100 23/21 Q1019=
2010021815 - SBKP 181500Z 04005KT 8000 -RA FEW015 OVC100 23/21 Q1019=
2010021816 - SBKP 181600Z 02005KT 9000 -RA SCT020 OVC100 24/20 Q1019=
2010021817 - SBKP 181700Z 35005KT 9999 -RA SCT020 SCT075 BKN100 24/19 Q1018=
2010021818 - SBKP 181800Z 02005KT 9999 VCSH SCT020 SCT040 BKN100 25/20 Q1018=
2010021819 - SBKP 181900Z 36006KT 9999 VCSH FEW020 SCT040 BKN080 25/20 Q1018=
2010021820 - SBKP 182000Z 36005KT 9999 SCT025 BKN080 24/20 Q1018=
2010021821 - SBKP 182100Z 01005KT 9999 FEW025 BKN070 24/20 Q1018=
2010021822 - SBKP 182200Z 08004KT 9999 FEW025 BKN100 23/19 Q1017=
2010021823 - SBKP 182300Z 08004KT 9999 FEW020 SCT100 23/20 Q1018=
2010021900 - SBKP 190000Z 10004KT CAVOK 22/19 Q1019=
2010021901 - SBKP 190100Z 14006KT CAVOK 22/20 Q1019=
2010021902 - SBKP 190200Z 15009KT 9999 FEW045 BKN080 22/19 Q1020=
2010021903 - SBKP 190300Z 12010KT 9999 FEW045 BKN070 21/19 Q1019=
2010021904 - SBKP 190400Z 12008KT 9999 FEW045 BKN070 21/19 Q1019=
2010021905 - SBKP 190500Z 09005KT CAVOK 21/19 Q1019=
2010021906 - SBKP 190600Z 11003KT CAVOK 20/19 Q1018=
2010021907 - SBKP 190700Z 11007KT CAVOK 20/19 Q1018=
2010021908 - SBKP 190800Z 12006KT CAVOK 20/19 Q1018=
2010021909 - SBKP 190900Z 11006KT 9999 FEW045 BKN080 20/19 Q1019=
2010021910 - SBKP 191000Z 12005KT CAVOK 21/19 Q1019=
2010021911 - SBKP 191100Z 08005KT CAVOK 23/19 Q1020=
2010021912 - SBKP 191200Z 02006KT CAVOK 25/18 Q1020=
2010021913 - SBKP 191300Z 01010KT 9999 FEW020 BKN090 26/18 Q1021=
2010021914 - SBKP 191400Z 01009KT 9999 FEW020 BKN070 26/19 Q1021=
2010021915 - SBKP 191500Z 01009KT 9999 BKN030 OVC070 25/19 Q1021=
2010021916 - SBKP 191600Z 01010KT 9999 FEW030 SCT055 OVC070 25/19 Q1021=
2010021917 - SBKP 191700Z 35006KT 9999 SCT025 BKN050 OVC070 26/19 Q1021=
2010021918 - SBKP 191800Z 35003KT 9999 SCT030 BKN070 27/19 Q1019=
2010021919 - SBKP 191900Z 34004KT 9999 -RA SCT035 BKN070 26/19 Q1019=
2010021920 - SBKP 192000Z 34006KT 9999 VCSH SCT035 BKN060 26/19 Q1019=
2010021921 - SBKP 192100Z 01006KT 9999 SCT035 BKN090 26/19 Q1019=
2010021922 - SBKP 192200Z 04007KT 9999 FEW035 BKN080 25/19 Q1019=
2010021923 - SBKP 192300Z 07005KT 9999 FEW045 BKN070 24/19 Q1019=
2010021900 - SBKP 190000Z 10004KT CAVOK 22/19 Q1019=
2010021901 - SBKP 190100Z 14006KT CAVOK 22/20 Q1019=
2010021902 - SBKP 190200Z 15009KT 9999 FEW045 BKN080 22/19 Q1020=
2010021903 - SBKP 190300Z 12010KT 9999 FEW045 BKN070 21/19 Q1019=
2010021904 - SBKP 190400Z 12008KT 9999 FEW045 BKN070 21/19 Q1019=
2010021905 - SBKP 190500Z 09005KT CAVOK 21/19 Q1019=
2010021906 - SBKP 190600Z 11003KT CAVOK 20/19 Q1018=
2010021907 - SBKP 190700Z 11007KT CAVOK 20/19 Q1018=
2010021908 - SBKP 190800Z 12006KT CAVOK 20/19 Q1018=
2010021909 - SBKP 190900Z 11006KT 9999 FEW045 BKN080 20/19 Q1019=
2010021910 - SBKP 191000Z 12005KT CAVOK 21/19 Q1019=
2010021911 - SBKP 191100Z 08005KT CAVOK 23/19 Q1020=
2010021912 - SBKP 191200Z 02006KT CAVOK 25/18 Q1020=
2010021913 - SBKP 191300Z 01010KT 9999 FEW020 BKN090 26/18 Q1021=
2010021914 - SBKP 191400Z 01009KT 9999 FEW020 BKN070 26/19 Q1021=
2010021915 - SBKP 191500Z 01009KT 9999 BKN030 OVC070 25/19 Q1021=
2010021916 - SBKP 191600Z 01010KT 9999 FEW030 SCT055 OVC070 25/19 Q1021=
2010021917 - SBKP 191700Z 35006KT 9999 SCT025 BKN050 OVC070 26/19 Q1021=
2010021918 - SBKP 191800Z 35003KT 9999 SCT030 BKN070 27/19 Q1019=
2010021919 - SBKP 191900Z 34004KT 9999 -RA SCT035 BKN070 26/19 Q1019=
2010021920 - SBKP 192000Z 34006KT 9999 VCSH SCT035 BKN060 26/19 Q1019=
2010021921 - SBKP 192100Z 01006KT 9999 SCT035 BKN090 26/19 Q1019=
2010021922 - SBKP 192200Z 04007KT 9999 FEW035 BKN080 25/19 Q1019=
2010021923 - SBKP 192300Z 07005KT 9999 FEW045 BKN070 24/19 Q1019=
2010022000 - SBKP 200000Z 08005KT 9999 FEW045 BKN080 23/20 Q1020=
2010022101 - SBKP 210100Z 04005KT 9999 -RA FEW045 SCT090 22/20 Q1019=
2010022102 - SBKP 210200Z 07004KT CAVOK 22/20 Q1019=
2010022103 - SBKP 210300Z 13003KT CAVOK 21/20 Q1019=
2010022104 - SBKP 210400Z 11004KT CAVOK 20/19 Q1018=
2010022105 - SBKP 210500Z 11007KT CAVOK 20/19 Q1017=
2010022106 - SBKP 210600Z 10004KT CAVOK 20/19 Q1017=
2010022107 - SBKP 210700Z 11004KT CAVOK 20/19 Q1017=
2010022108 - SBKP 210800Z 09003KT CAVOK 20/19 Q1017=
2010022109 - SBKP 210900Z 00000KT 9000 4000SE NSC 19/19 Q1017=
2010022110 - SBKP 211000Z 03003KT 8000 NSC 20/19 Q1018=
2010022111 - SBKP 211100Z 05003KT 8000 NSC 22/19 Q1018=
2010022112 - SBKP 211200Z 04004KT CAVOK 24/19 Q1018=
2010022113 - SBKP 211300Z 36004KT CAVOK 26/20 Q1018=
2010022114 - SBKP 211400Z 35004KT CAVOK 28/19 Q1018=
2010022115 - SBKP 211500Z 34005KT 9999 FEW030 29/20 Q1017=
2010022116 - SBKP 211600Z 34004KT 9999 FEW040 30/19 Q1017=
2010022117 - SBKP 211700Z 31004KT 9999 SCT045 31/18 Q1016=
2010022118 - SBKP 211800Z 30006KT 9999 BKN045 32/20 Q1016=
2010022119 - SBKP 211900Z 24005KT 9999 SCT045 32/19 Q1015=
2010022120 - SBKP 212000Z 26007KT 9999 SCT045 32/19 Q1015=
2010022121 - SBKP 212100Z 26005KT 9999 FEW045 31/18 Q1015=
2010022122 - SBKP 212200Z 22004KT 9999 FEW045 29/20 Q1014=
2010022123 - SBKP 212300Z 19004KT CAVOK 29/19 Q1014=
2010022200 - SBKP 220000Z 14004KT CAVOK 27/20 Q1015=
2010022201 - SBKP 220100Z 12008KT CAVOK 25/20 Q1015=
2010022202 - SBKP 220200Z 11008KT CAVOK 24/20 Q1016=
2010022203 - SBKP 220300Z 11009KT CAVOK 24/20 Q1016=
2010022204 - SBKP 220400Z 12008KT CAVOK 24/21 Q1015=
2010022205 - SBKP 220500Z 12008KT CAVOK 23/20 Q1014=
2010022206 - SBKP 220600Z 11007KT CAVOK 23/20 Q1014=
2010022207 - SBKP 220700Z 09005KT CAVOK 22/20 Q1014=
2010022208 - SBKP 220800Z 09005KT CAVOK 22/20 Q1014=
2010022209 - SBKP 220900Z 09003KT CAVOK 21/20 Q1015=
2010022210 - SBKP 221000Z 09003KT CAVOK 23/20 Q1015=
2010022211 - SBKP 221100Z 10004KT CAVOK 25/20 Q1016=
2010022212 - SBKP 221200Z 02006KT CAVOK 28/20 Q1016=
2010022213 - SBKP 221300Z 02008KT CAVOK 29/20 Q1017=
2010022214 - SBKP 221400Z 35005KT 9999 FEW040 30/21 Q1016=
2010022215 - SBKP 221500Z 02006KT 9999 BKN045 FEW050TCU 31/20 1016=
2010022216 - SBKP 221600Z 34006KT 9999 BKN045 31/19 Q1015=
2010022217 - SBKP 221700Z 27005KT 9999 SCT045 32/19 Q1014=
2010022218 - SBKP 221800Z 27008KT 9999 SCT045 SCT070 33/18 Q1013=
2010022219 - SBKP 221900Z 30014KT 9999 VCSH SCT045 FEW050TCU 31/21 Q1012=
2010022220 - SBKP 222000Z 29010KT 9999 VCSH SCT045 FEW050TCU 32/19 Q1013=
2010022221 - SBKP 222100Z 29006KT 9999 VCSH SCT045 FEW050TCU SCT100 31/17 Q1013=
2010022222 - SBKP 222200Z 27004KT 9999 FEW045 FEW050TCU 29/17 Q1012=
2010022223 - SBKP 222300Z 11007KT 9999 FEW045 24/20 Q1013=
2010022300 - SBKP 230000Z 10008KT CAVOK 24/20 Q1014=
2010022301 - SBKP 230100Z 11010KT CAVOK 24/19 Q1015=
2010022302 - SBKP 230200Z 11007KT CAVOK 23/19 Q1015=
2010022303 - SBKP 230300Z 10007KT CAVOK 23/19 Q1014=
2010022304 - SBKP 230400Z 09006KT CAVOK 22/19 Q1014=
2010022305 - SBKP 230500Z 16004KT CAVOK 23/19 Q1013=
2010022306 - SBKP 230600Z 12005KT CAVOK 22/19 Q1013=
2010022307 - SBKP 230700Z 10006KT CAVOK 21/19 Q1013=
2010022308 - SBKP 230800Z 10006KT CAVOK 21/20 Q1013=
2010022309 - SBKP 230900Z 10006KT CAVOK 21/20 Q1013=
2010022310 - SBKP 231000Z 10004KT CAVOK 22/20 Q1014=
2010022311 - SBKP 231100Z 02004KT 7000 NSC 25/20 Q1014=
2010022312 - SBKP 231200Z 36008KT CAVOK 28/20 Q1015=
2010022313 - SBKP 231300Z 35007KT CAVOK 29/20 Q1015=
2010022314 - SBKP 231400Z 33006KT 9999 FEW025 31/20 Q1015=
2010022315 - SBKP 231500Z 30007KT 9999 SCT030 32/20 Q1014=
2010022316 - SBKP 231600Z 33005KT 9999 SCT035 33/20 Q1014=
2010022317 - SBKP 231700Z 30008KT 9999 SCT035 33/19 Q1013=
2010022318 - SBKP 231800Z 33012KT 9999 SCT040 33/21 Q1012=
2010022319 - SBKP 231900Z 32005KT 9999 SCT040 34/20 Q1010=
2010022320 - SBKP 232000Z 33007KT 9999 FEW040 33/20 Q1012=
2010022321 - SBKP 232100Z 32005KT 9999 FEW040 31/20 Q1012=
2010022322 - SBKP 232200Z 30004KT 9999 VCTS FEW040 FEW050CB 30/20 Q1013=
2010022322 - SBKP 232249Z 22015G25KT 9999 TS VCSH SCT040 SCT050CB 27/20 Q1013=
2010022323 - SBKP 232300Z 19014G25KT 9999 TS VCSH SCT040 SCT050CB 24/19 Q1014=
2010022323 - SBKP 232348Z 15010KT 9999 FEW040 FEW050TCU 25/18 Q1014 RETS=
2010022400 - SBKP 240000Z 16008KT 9999 FEW040 FEW050TCU 25/18 Q1014 RETS=
2010022401 - SBKP 240100Z 36003KT 9999 VCTS FEW040 FEW050CB 25/19 Q1014=
2010022401 - SBKP 240120Z 24014KT 9999 TS FEW040 FEW050CB SCT080 24/20 Q1016=
2010022402 - SBKP 240200Z 29002KT 9999 TS SCT040 FEW050CB SCT080 24/20 Q1014=
2010022403 - SBKP 240300Z 10002KT 9999 FEW040 SCT090 24/21 Q1015 RETS=
2010022404 - SBKP 240400Z 09004KT CAVOK 23/21 Q1015=
2010022405 - SBKP 240500Z 11005KT CAVOK 23/21 Q1014=
2010022406 - SBKP 240600Z 11005KT CAVOK 22/21 Q1013=
2010022407 - SBKP 240700Z 12004KT CAVOK 22/21 Q1013=
2010022408 - SBKP 240800Z 33004KT CAVOK 23/22 Q1014=
2010022409 - SBKP 240900Z 01004KT CAVOK 22/21 Q1014=
2010022410 - SBKP 241000Z 03003KT CAVOK 23/21 Q1014=
2010022411 - SBKP 241100Z 06002KT 8000 NSC 26/21 Q1015=
2010022412 - SBKP 241200Z 01005KT CAVOK 27/21 Q1015=
2010022413 - SBKP 241300Z 34006KT CAVOK 29/21 Q1015=
2010022414 - SBKP 241400Z 36005KT 9999 FEW025 SCT100 30/20 Q1016=
2010022415 - SBKP 241500Z 26005KT 9999 FEW035 BKN100 31/20 Q1015=
2010022416 - SBKP 241600Z 27008KT 9999 SCT035 BKN100 30/21 Q1015=
2010022417 - SBKP 241700Z 27005KT 9999 SCT040 SCT100 32/19 Q1013=
2010022418 - SBKP 241800Z 25006KT 9999 SCT040 FEW045TCU 33/19 Q1011=
2010022419 - SBKP 241900Z 18005KT 9999 FEW040 32/19 Q1011=
2010022420 - SBKP 242000Z 23007KT 9999 FEW040 FEW045TCU 32/20 Q1012=
2010022420 - SBKP 242020Z 21018G28KT 9999 SCT040 SCT050TCU 30/21 Q1012=
2010022421 - SBKP 242100Z 18016KT 9999 SCT040 FEW050TCU SCT080 28/21 Q1012=
2010022422 - SBKP 242200Z 12008KT 9999 VCTS SCT040 FEW050CB SCT080 27/20 Q1013=
2010022423 - SBKP 242300Z 10006KT 9999 SCT040 FEW050TCU 25/21 Q1014=
2010022500 - SBKP 250000Z 33002KT 9999 -RA SCT040 FEW050TCU SCT080 26/21 Q1016=
2010022500 - SBKP 250005Z 00000KT 6000 RA SCT040 FEW050TCU BKN080 25/22 Q1016=
2010022501 - SBKP 250130Z 06009KT 9999 FEW040 FEW050TCU BKN090 23/22 Q1016 RERA=
2010022502 - SBKP 250200Z 04005KT 9999 FEW040 BKN090 23/21 1016 RERA=
2010022503 - SBKP 250300Z 27005KT 7000 SCT010 BKN090 23/22 Q1016=
2010022504 - SBKP 250400Z 30004KT 8000 -RA SCT025 BKN090 22/22 Q1016=
2010022505 - SBKP 250500Z 31006KT 6000 -RA FEW003 SCT035 BKN090 22/21 Q1015=
2010022506 - SBKP 250600Z 19002KT 8000 -RA FEW003 SCT035 BKN100 22/22 Q1014=
2010022507 - SBKP 250700Z 19005KT 4000 BR SCT006 SCT035 BKN100 22/21 Q1015=
2010022508 - SBKP 250800Z 17005KT 4000 BR SCT006 SCT120 BKN100 22/21 Q1015=
2010022509 - SBKP 250900Z 16007KT 5000 BR SCT020 SCT050 22/20 Q1015=
2010022510 - SBKP 251000Z 10009KT 9999 SCT025 SCT050 21/20 Q1015=
2010022511 - SBKP 251100Z 15008KT 9999 FEW007 SCT037 BKN075 22/20 Q1016=
2010022512 - SBKP 251200Z 14008KT 9999 FEW010 BKN015 BKN040 24/21 Q1016=
2010022513 - SBKP 251300Z 14007KT 9999 FEW010 SCT015 BKN055 24/20 Q1016=
2010022514 - SBKP 251400Z 13008KT 9999 SCT017 BKN020 BKN075 25/21 Q1016=
2010022514 - SBKP 251440Z 13018KT 4000 -RA BR BKN015 OVC080 23/21 Q1016=
2010022515 - SBKP 251500Z 12013KT 2000 RA BR BKN015 OVC080 22/21 Q1016=
2010022515 - SBKP 251530Z 17009KT 7000 3000N -RA BKN020 BKN080 22/21 Q1016 RERA=
2010022516 - SBKP 251600Z 16011KT 7000 -RA SCT025 BKN080 22/20 Q1017 RERA=
2010022517 - SBKP 251700Z 19011KT 9999 SCT015 SCT033 BKN080 23/20 Q1016=
2010022518 - SBKP 251800Z 16013KT 9999 SCT015 SCT033 BKN080 24/19 Q1015=
2010022519 - SBKP 251900Z 15012KT 9999 BKN030 OVC100 24/19 Q1014=
2010022520 - SBKP 252000Z 16011KT 9999 BKN025 OVC100 23/18 Q1015=
2010022521 - SBKP 252100Z 14013KT 9999 BKN025 OVC100 22/18 Q1015=
2010022522 - SBKP 252200Z 14020KT 9999 BKN025 21/18 Q1016=
2010022523 - SBKP 252300Z 14018KT 9999 SCT015 21/18 Q1016=
2010022600 - SBKP 260000Z 13017KT 9999 BKN015 21/17 Q1017=
2010022601 - SBKP 260100Z 13012KT 9999 SCT020 SCT080 21/17 Q1018=
2010022602 - SBKP 260200Z 13014KT 9999 SCT020 SCT080 20/17 Q1017=
2010022603 - SBKP 260300Z 14011KT 9999 BKN018 BKN080 20/17 Q1017=
2010022604 - SBKP 260400Z 14013KT 9999 SCT018 BKN080 19/14 Q1017=
2010022605 - SBKP 260500Z 13011KT 9999 FEW020 SCT080 19/14 Q1016=
2010022606 - SBKP 260600Z 13010KT 9999 FEW020 SCT080 18/14 Q1016=
2010022607 - SBKP 260700Z 13012KT 9999 FEW020 SCT080 19/15 Q1015=
2010022608 - SBKP 260800Z 13011KT 9999 FEW020 SCT080 19/15 Q1016=
2010022609 - SBKP 260900Z 12010KT 9999 FEW020 SCT070 BKN100 19/16 Q1016=
2010022610 - SBKP 261000Z 13010KT 9999 FEW020 BKN070 BKN100 19/16 Q1016=
2010022611 - SBKP 261100Z 13016KT 9999 BKN020 BKN080 20/16 Q1017=
2010022612 - SBKP 261200Z 12018KT 9999 SCT020 BKN080 21/17 Q1018=
2010022613 - SBKP 261300Z 11018KT 9999 SCT020 BKN070 22/17 Q1017=
2010022614 - SBKP 261400Z 09016KT 9999 SCT020 BKN070 23/17 Q1017=
2010022615 - SBKP 261500Z 13019KT 9999 FEW022 BKN070 25/17 Q1017=
2010022616 - SBKP 261600Z 13014KT 9999 FEW024 BKN070 25/18 Q1016=
2010022617 - SBKP 261700Z 12013KT 9999 FEW024 BKN070 26/18 Q1016=
2010022618 - SBKP 261800Z 12012KT 9999 FEW024 BKN070 26/18 Q1015=
2010022619 - SBKP 261900Z 12015KT 9999 FEW025 SCT045 BKN070 25/17 Q1015=
2010022620 - SBKP 262000Z 12014KT 9999 FEW025 BKN045 BKN070 24/17 Q1015=
2010022621 - SBKP 262100Z 13018KT 9999 FEW025 SCT060 BKN070 23/17 Q1015=
2010022622 - SBKP 262200Z 12019KT 9999 FEW025 SCT060 22/16 Q1015=
2010022623 - SBKP 262300Z 12017KT 9999 FEW020 SCT060 21/16 Q1016=
2010022700 - SBKP 270000Z 12016KT 9999 FEW020 SCT050 20/16 Q1016=
2010022701 - SBKP 270100Z 11014KT 9999 FEW020 BKN045 BKN070 20/16 Q1017=
2010022702 - SBKP 270200Z 12014KT 9999 FEW020 BKN045 OVC070 20/16 Q1018=
2010022703 - SBKP 270300Z 11011KT 9999 FEW020 BKN045 BKN080 20/16 Q1017=
2010022704 - SBKP 270400Z 12013KT 9999 FEW020 SCT045 BKN080 20/16 Q1017=
2010022705 - SBKP 270500Z 12011KT 9999 FEW045 SCT080 19/16 Q1016=
2010022706 - SBKP 270600Z 12011KT CAVOK 19/16 Q1016=
2010022707 - SBKP 270700Z 12013KT CAVOK 19/16 Q1016=
2010022708 - SBKP 270800Z 11013KT CAVOK 19/16 Q1016=
2010022709 - SBKP 270900Z 11013KT 9999 FEW020 BKN090 19/16 Q1016=
2010022710 - SBKP 271000Z 12014KT 9999 FEW020 BKN090 19/16 Q1016=
2010022711 - SBKP 271100Z 12016KT 9999 FEW020 21/17 Q1017=
2010022712 - SBKP 271200Z 10013KT 9999 FEW023 22/17 Q1017=
2010022713 - SBKP 271300Z 12011KT 9999 FEW025 SCT100 24/18 Q1017=
2010022714 - SBKP 271400Z 11009KT 9999 BKN030 25/18 Q1017=
2010022715 - SBKP 271500Z 08007KT 9999 BKN033 27/18 Q1016=
2010022716 - SBKP 271600Z 13008KT 9999 BKN040 28/19 Q1016=
2010022717 - SBKP 271700Z 12007KT 9999 SCT040 SCT080 28/19 Q1015=
2010022718 - SBKP 271800Z 13009KT 9999 SCT037 BKN075 27/19 Q1014=
2010022719 - SBKP 271900Z 12009KT 9999 FEW037 SCT045 BKN075 27/19 Q1014=
2010022720 - SBKP 272000Z 12012KT 9999 FEW035 SCT045 BKN070 27/19 Q1014=
2010022721 - SBKP 272100Z 12015KT 9999 FEW045 SCT070 25/19 Q1014=
2010022722 - SBKP 272200Z 13015KT 9999 FEW045 23/18 Q1015=
2010022723 - SBKP 272300Z 12016G27KT CAVOK 22/18 Q1015=
2010022800 - SBKP 280000Z 12016KT 9999 FEW040 BKN084 22/18 Q1017=
2010022801 - SBKP 280100Z 12017KT 9999 FEW040 BKN090 22/18 Q1017=
2010022802 - SBKP 280200Z 11015KT 9999 FEW040 BKN090 21/18 Q1016=
2010022803 - SBKP 280300Z 11011KT 9999 SCT045 BKN090 21/18 Q1016=
2010022804 - SBKP 280400Z 11012KT 9999 FEW045 BKN090 20/18 Q1015=
2010022805 - SBKP 280500Z 11011KT 9999 FEW045 BKN090 20/17 Q1015=
2010022806 - SBKP 280600Z 11010KT CAVOK 20/17 Q1014=
2010022807 - SBKP 280700Z 12009KT CAVOK 20/17 Q1014=
2010022808 - SBKP 280800Z 12010KT CAVOK 20/17 Q1015=
2010022809 - SBKP 280900Z 12010KT 7000 FEW045 BKN100 20/18 Q1016=
2010022810 - SBKP 281000Z 10008KT 3000 -RA BR SCT045 BKN070 20/18 Q1016=
2010022810 - SBKP 281045Z 11009KT 6000 -RA BKN035 OVC080 20/18 Q1017=
2010022811 - SBKP 281100Z 11010KT 6000 -RA BKN035 OVC080 20/18 Q1017=
2010022812 - SBKP 281200Z 11008KT 9000 BKN033 OVC090 21/19 Q1017=
2010022813 - SBKP 281300Z 11008KT 9000 BKN033 OVC100 22/19 Q1017=
2010022814 - SBKP 281400Z 11006KT 9000 FEW010 BKN033 OVC100 23/20 Q1017=
2010022815 - SBKP 281500Z 10005KT 9000 FEW010 BKN045 OVC100 24/20 Q1017=
2010022816 - SBKP 281600Z 09003KT 9999 SCT022 BKN033 OVC100 25/20 Q1016=
2010022817 - SBKP 281700Z 14005KT 9999 SCT022 BKN030 OVC100 25/20 Q1015=
2010022818 - SBKP 281800Z 13008KT 9999 SCT030 26/20 Q1014=
2010022819 - SBKP 281900Z 16010KT 9999 SCT020 BKN040 FEW050TCU OVC075 26/20 Q1014=
2010022820 - SBKP 282000Z 15012KT 8000 -RA BKN020 BKN040 FEW050TCU OVC075 24/20 Q1014=
2010022820 - SBKP 282015Z 10008KT 4000 -RA BR BKN015 BKN040 FEW050TCU OVC075 22/20 Q1014=
2010022820 - SBKP 282030Z 09013KT 2500 RA BR FEW010 BKN015 OVC025 21/20 Q1014=
2010022821 - SBKP 282100Z 11010KT 2500 RA BR SCT005 BKN015 OVC030 21/20 Q1015=
2010022821 - SBKP 282120Z 12010KT 1800 R15/P2000 R33/P2000 +RA BR SCT005 BKN015 OVC030 21/20 Q1015=
2010022822 - SBKP 282200Z 11010KT 2000 +RA BR SCT008 BKN015 OVC030 20/20 Q1016=
2010022822 - SBKP 282230Z 13015KT 4000 RA BR SCT008 BKN020 OVC100 20/18 Q1016 RERA=
2010022823 - SBKP 282300Z 13016KT 5000 RA BR SCT008 SCT020 OVC100 19/18 Q1016 RERA=
2010030100 - SBKP 010000Z 15015KT 9999 -RA FEW008 SCT035 OVC075 19/18 Q1016 RERA=
2010030101 - SBKP 010100Z 12011KT 9999 FEW008 BKN040 OVC075 19/18 Q1016=
2010030102 - SBKP 010200Z 13013KT 9999 FEW010 BKN050 OVC080 20/18 Q1016=
2010030103 - SBKP 010300Z 15012KT 9999 BKN040 OVC090 20/18 Q1016=
2010030104 - SBKP 010400Z 14007KT 9999 -RA FEW010 BKN040 OVC090 20/18 Q1016=
2010030105 - SBKP 010500Z 12007KT 9999 -RA FEW010 BKN040 OVC090 20/19 Q1015=
2010030106 - SBKP 010600Z 13008KT 9999 RA FEW010 BKN040 OVC090 19/19 Q1015=
2010030107 - SBKP 010700Z 14012KT 9999 -RA FEW010 BKN040 OVC090 19/18 Q1015 RERA=
2010030107 - SBKP 010740Z 14014KT 9999 RA FEW010 BKN040 OVC090 19/18 Q1015=
2010030108 - SBKP 010800Z 15016KT 9999 RA FEW010 BKN040 OVC090 19/18 Q1015=
2010030109 - SBKP 010900Z 14020KT 9000 -RA BKN035 OVC090 18/17 Q1015 RERA=
2010030110 - SBKP 011000Z 14019KT 8000 FEW010 BKN035 OVC090 17/16 Q1015=
2010030111 - SBKP 011100Z 12016KT 9000 FEW009 BKN035 OVC090 18/16 Q1016=
2010030112 - SBKP 011200Z 12013G26KT 9999 VCSH FEW012 SCT036 OVC090 18/16 Q1017=
2010030113 - SBKP 011300Z 11022KT 9999 FEW012 BKN037 OVC090 19/16 Q1017=
2010030114 - SBKP 011400Z 11016KT 9999 VCSH FEW012 BKN040 OVC090 19/17 Q1017 WS R15=
2010030115 - SBKP 011500Z 11016G26KT 9999 VCSH SCT017 SCT040 OVC100 21/17 Q1017=
2010030116 - SBKP 011600Z 12017KT 9999 VCSH SCT020 SCT040 OVC100 22/18 Q1016=
2010030117 - SBKP 011700Z 12018KT 9999 FEW020 SCT040 OVC100 21/17 Q1016=
2010030118 - SBKP 011800Z 11017KT 9999 FEW020 SCT045 BKN100 21/17 Q1015=
2010030119 - SBKP 011900Z 12017KT 9999 FEW020 BKN100 21/17 Q1015=
2010030120 - SBKP 012000Z 12011KT 9999 FEW020 BKN100 21/17 Q1015=
2010030121 - SBKP 012100Z 12010KT 9999 SCT020 BKN100 21/17 Q1015=
2010030122 - SBKP 012200Z 12012KT 9999 SCT020 BKN100 20/16 Q1016=
2010030123 - SBKP 012300Z 13012KT 9999 FEW020 20/16 Q1016=
2010030200 - SBKP 020000Z 13015KT 9999 FEW020 20/16 Q1017=
2010030201 - SBKP 020100Z 12012KT 9999 FEW020 19/16 Q1017=
2010030202 - SBKP 020200Z 12009KT 9999 FEW020 19/16 Q1017=
2010030203 - SBKP 020300Z 12009KT 9999 FEW025 SCT100 19/16 Q1017=
2010030204 - SBKP 020400Z 12009KT CAVOK 19/16 Q1016=
2010030205 - SBKP 020500Z 11009KT CAVOK 19/16 Q1016=
2010030206 - SBKP 020600Z 12010KT 9999 BKN045 19/16 Q1015=
2010030207 - SBKP 020700Z 12015KT 9999 BKN045 19/16 Q1015=
2010030208 - SBKP 020800Z 11012KT 9999 BKN040 18/15 Q1015=
2010030209 - SBKP 020900Z 11012KT 8000 BKN035 18/15 Q1015=
2010030210 - SBKP 021000Z 11012KT 9999 BKN035 OVC080 18/16 Q1016=
2010030211 - SBKP 021100Z 11012KT 9000 BKN035 OVC080 19/16 Q1016=
2010030212 - SBKP 021200Z 11013KT 9999 BKN034 OVC080 20/16 Q1017=
2010030213 - SBKP 021300Z 11013KT 9999 FEW020 SCT034 OVC080 21/17 Q1017=
2010030214 - SBKP 021400Z 12012KT 9999 FEW020 SCT040 OVC090 22/17 Q1017=
2010030215 - SBKP 021500Z 12014KT 9999 -RA FEW020 SCT035 OVC090 22/18 Q1017=
2010030216 - SBKP 021600Z 12014KT 9999 FEW017 BKN035 OVC090 22/18 Q1016=
2010030217 - SBKP 021700Z 12014KT 9999 FEW017 SCT034 OVC090 22/18 Q1015=
2010030218 - SBKP 021800Z 11012KT 9999 FEW017 SCT034 OVC090 22/18 Q1015=
2010030219 - SBKP 021900Z 12014KT 9999 FEW020 BKN040 22/18 Q1014=
2010030220 - SBKP 022000Z 12012KT 9999 FEW020 SCT035 22/17 Q1014=
2010030221 - SBKP 022100Z 12014KT 9999 FEW020 SCT080 22/17 Q1014=
2010030222 - SBKP 022200Z 13012KT 9999 SCT020 SCT080 21/17 Q1014=
2010030223 - SBKP 022300Z 12014KT 9999 SCT020 SCT080 21/17 Q1015=
2010030300 - SBKP 030000Z 13012KT 9999 FEW020 20/17 Q1015=
2010030301 - SBKP 030100Z 12011KT 9999 FEW020 SCT080 20/17 Q1016=
2010030302 - SBKP 030200Z 13015KT 9999 FEW020 SCT070 20/16 Q1016=
2010030303 - SBKP 030300Z 14013KT CAVOK 19/16 Q1015=
2010030304 - SBKP 030400Z 13006KT CAVOK 19/16 Q1015=
2010030305 - SBKP 030500Z 13009KT CAVOK 19/16 Q1015=
2010030306 - SBKP 030600Z 12011KT 9999 FEW020 19/16 Q1014=
2010030307 - SBKP 030700Z 12013KT CAVOK 19/16 Q1014=
2010030308 - SBKP 030800Z 12013KT CAVOK 19/16 Q1014=
2010030309 - SBKP 030900Z 12011KT 9999 FEW020 BKN100 19/16 Q1014=
2010030310 - SBKP 031000Z 13010KT 9000 FEW020 BKN100 19/17 Q1015=
2010030311 - SBKP 031100Z 11010KT 9999 FEW020 BKN100 21/17 Q1016=
2010030312 - SBKP 031200Z 10009KT 9999 SCT045 BKN100 23/18 Q1016=
2010030313 - SBKP 031300Z 12006KT 9999 BKN043 BKN100 24/19 Q1016=
2010030314 - SBKP 031400Z 12005KT 9999 BKN036 OVC100 24/19 Q1016=
2010030315 - SBKP 031500Z 11007KT 8000 3500N -RA SCT010 SCT015 BKN025 24/19 Q1016=
2010030316 - SBKP 031600Z 10007KT 5000 -RA BR FEW010 SCT015 BKN025 23/20 Q1016=
2010030317 - SBKP 031700Z 14010KT 6000 SCT010 BKN030 OVC100 23/20 Q1015=
2010030318 - SBKP 031800Z 13013KT 9000 FEW010 BKN030 OVC100 24/19 Q1014=
2010030319 - SBKP 031900Z 15014KT 9999 SCT025 24/19 Q1014=
2010030320 - SBKP 032000Z 13014KT 9999 SCT035 24/19 Q1014=
2010030321 - SBKP 032100Z 13011KT 9999 FEW020 SCT040 24/19 Q1014=
2010030322 - SBKP 032200Z 14012KT 9999 FEW020 SCT100 22/19 Q1014=
2010030323 - SBKP 032300Z 14011KT 9999 SCT020 SCT100 22/19 Q1015=
2010030400 - SBKP 040000Z 12012KT 9999 SCT015 BKN080 21/19 Q1015=
2010030401 - SBKP 040100Z 13013KT 9999 FEW015 BKN090 21/19 Q1015=
2010030402 - SBKP 040200Z 12010KT 9999 SCT015 BKN100 21/18 Q1015=
2010030403 - SBKP 040300Z 14009KT 9999 FEW040 BKN090 21/19 Q1015=
2010030404 - SBKP 040400Z 14011KT CAVOK 21/18 Q1015=
2010030405 - SBKP 040500Z 13012KT CAVOK 20/18 Q1015=
2010030406 - SBKP 040600Z 12007KT CAVOK 20/18 Q1015=
2010030407 - SBKP 040700Z 12010KT CAVOK 20/18 Q1015=
2010030408 - SBKP 040800Z 14010KT 9999 FEW043 20/18 Q1015=
2010030409 - SBKP 040900Z 14009KT CAVOK 20/18 Q1015=
2010030410 - SBKP 041000Z 13009KT CAVOK 21/19 Q1015=
2010030411 - SBKP 041100Z 11012KT 9999 FEW035 22/19 Q1015=
2010030412 - SBKP 041200Z 10009KT 9999 FEW035 24/19 Q1016=
2010030413 - SBKP 041300Z 12012KT 9999 FEW035 25/20 Q1016=
2010030414 - SBKP 041400Z 14012KT 9999 SCT030 SCT080 26/20 Q1016=
2010030415 - SBKP 041500Z 15013KT 9999 BKN030 SCT100 27/20 Q1016=
2010030416 - SBKP 041600Z 15012KT 9999 BKN030 BKN100 27/20 Q1015=
2010030417 - SBKP 041700Z 13010KT 9999 SCT038 SCT100 29/20 Q1014=
2010030418 - SBKP 041800Z 14010KT 9999 SCT040 SCT100 28/19 Q1014=
2010030419 - SBKP 041900Z 15010KT 9999 SCT040 SCT100 29/20 Q1014=
2010030420 - SBKP 042000Z 14010KT 9999 SCT040 SCT100 29/19 Q1013=
2010030421 - SBKP 042100Z 13015KT 9999 FEW040 27/20 Q1013=
2010030422 - SBKP 042200Z 14013KT CAVOK 25/20 Q1014=
2010030423 - SBKP 042300Z 12012KT CAVOK 23/20 Q1014=
2010030500 - SBKP 050000Z 12013KT CAVOK 23/19 Q1014=
2010030501 - SBKP 050100Z 12012KT CAVOK 22/19 Q1015=
2010030502 - SBKP 050200Z 11012KT CAVOK 22/19 Q1014=
2010030503 - SBKP 050300Z 13013KT CAVOK 22/18 Q1015=
2010030504 - SBKP 050400Z 13013KT CAVOK 21/18 Q1014=
2010030505 - SBKP 050500Z 12010KT CAVOK 21/18 Q1014=
2010030506 - SBKP 050600Z 15005KT CAVOK 21/18 Q1014=
2010030507 - SBKP 050700Z 14007KT CAVOK 20/17 Q1014=
2010030508 - SBKP 050800Z 14011KT CAVOK 20/18 Q1014=
2010030509 - SBKP 050900Z 13010KT CAVOK 20/18 Q1014=
2010030510 - SBKP 051000Z 13010KT CAVOK 21/18 Q1014=
2010030511 - SBKP 051100Z 12012KT CAVOK 22/19 Q1015=
2010030512 - SBKP 051200Z 12012KT 9999 FEW045 24/19 Q1015=
2010030513 - SBKP 051300Z 13009KT 9999 FEW030 26/20 Q1015=
2010030514 - SBKP 051400Z 12008KT 9999 BKN035 SCT100 27/20 Q1015=
2010030515 - SBKP 051500Z 11005KT 9999 BKN045 SCT100 28/20 Q1015=
2010030516 - SBKP 051600Z 11007KT 9999 BKN040 FEW050TCU 28/20 Q1014=
2010030517 - SBKP 051700Z 14008KT 9999 BKN040 FEW050TCU 29/20 Q1013=
2010030518 - SBKP 051800Z 16009KT 9999 SCT040 FEW050TCU SCT100 29/20 Q1012=
2010030519 - SBKP 051900Z 14010KT 9000 SCT040 FEW050TCU SCT100 29/20 Q1012=
2010030520 - SBKP 052000Z 12013KT 9999 SCT040 SCT100 27/20 Q1011=
2010030521 - SBKP 052100Z 14014KT 9999 FEW040 FEW050TCU 26/20 Q1011=
2010030522 - SBKP 052200Z 12012KT 8000 FEW040 24/17 Q1012=
2010030523 - SBKP 052300Z 12015KT 9999 FEW040 23/19 Q1012=
2010030600 - SBKP 060000Z 12011KT 9999 FEW040 23/19 Q1013=
2010030601 - SBKP 060100Z 11011KT 9999 FEW040 22/19 Q1012=
2010030602 - SBKP 060200Z 10011KT 9999 FEW040 21/18 Q1012=
2010030603 - SBKP 060300Z 12012KT CAVOK 21/18 Q1012=
2010030604 - SBKP 060400Z 12008KT CAVOK 21/18 Q1012=
2010030605 - SBKP 060500Z 11007KT CAVOK 20/18 Q1011=
2010030606 - SBKP 060600Z 09007KT CAVOK 20/18 Q1011=
2010030607 - SBKP 060700Z 14006KT 9999 FEW035 BKN070 20/18 Q1011=
2010030608 - SBKP 060800Z 13004KT 9999 VCTS FEW040 FEW045CB BKN070 20/18 Q1011=
2010030609 - SBKP 060900Z 10004KT 9999 VCTS FEW035 SCT040 FEW045CB 20/18 Q1011=
2010030610 - SBKP 061000Z 22005KT 5000 BR FEW032 SCT040 FEW045TCU BKN080 19/19 Q1012=
2010030610 - SBKP 061025Z 20007KT 2000 R15/1700 R33/P2000 BR BKN005 BKN032 20/19 Q1012=
2010030611 - SBKP 061100Z 18008KT 2000 R15/1800 R33/P2000 BR BKN005 BKN020 20/19 Q1012=
2010030612 - SBKP 061200Z 15008KT 8000 FEW005 BKN020 21/19 Q1013=
2010030613 - SBKP 061300Z 17009KT 6000 FEW005 BKN020 BKN080 19/17 Q1013=
2010030614 - SBKP 061400Z 15010KT 5000 BR FEW005 BKN020 BKN080 19/17 Q1013=
2010030615 - SBKP 061500Z 12007KT 8000 FEW010 SCT020 OVC090 19/17 Q1013=
2010030616 - SBKP 061600Z 14006KT 9999 TS FEW010 FEW040CB OVC090 20/18 Q1012=
2010030617 - SBKP 061700Z 11005KT 9999 -RA FEW010 SCT020 FEW030TCU BKN090 20/18 Q1012 RETS=
2010030618 - SBKP 061800Z 21006KT 9999 FEW010 SCT020 FEW030TCU 22/18 Q1011=
2010030619 - SBKP 061900Z 21005KT 9999 FEW020 FEW030TCU 24/18 Q1011=
2010030620 - SBKP 062000Z 18009KT 9999 FEW020 FEW030TCU 24/18 Q1011=
2010030621 - SBKP 062100Z 11009KT 9999 FEW020 22/18 Q1011=
2010030622 - SBKP 062200Z 11007KT 9999 FEW020 20/18 Q1011=
2010030623 - SBKP 062300Z 12009KT CAVOK 20/17 Q1011=
2010030700 - SBKP 070000Z 13010KT CAVOK 19/17 Q1012=
2010030701 - SBKP 070100Z 12009KT CAVOK 19/17 Q1012=
2010030702 - SBKP 070200Z 10009KT CAVOK 18/17 Q1012=
2010030703 - SBKP 070300Z 11011KT CAVOK 18/16 Q1012=
2010030704 - SBKP 070400Z 12007KT CAVOK 17/16 Q1011=
2010030705 - SBKP 070500Z 12006KT CAVOK 17/16 Q1011=
2010030706 - SBKP 070600Z 14007KT CAVOK 17/16 Q1011=
2010030707 - SBKP 070700Z 15005KT CAVOK 17/16 Q1010=
2010030708 - SBKP 070800Z 16004KT CAVOK 16/15 Q1010=
2010030709 - SBKP 070900Z 12007KT 5000 BR NSC 16/15 Q1010=
2010030709 - SBKP 070920Z 12007KT 2000 R15/1200 R33/P2000 BR NSC 16/15 Q1010=
2010030710 - SBKP 071000Z 11005KT 2000 R15/1300 R33/P2000 BR NSC 16/15 Q1010=
2010030711 - SBKP 071100Z 08006KT 5000 2000SE BR FEW010 18/16 Q1011=
2010030712 - SBKP 071200Z 08002KT 8000 FEW010 21/17 Q1012=
2010030713 - SBKP 071300Z 35003KT 9999 SCT015 23/17 Q1012=
2010030714 - SBKP 071400Z 02003KT 9999 SCT015 24/17 Q1012=
2010030715 - SBKP 071500Z 28004KT 9999 FEW020 26/16 Q1011=
2010030716 - SBKP 071600Z 28005KT 9999 FEW020 27/16 Q1011=
2010030717 - SBKP 071700Z 28007KT 9999 SCT030 28/15 Q1010=
2010030718 - SBKP 071800Z 29008KT 9999 SCT030 29/11 Q1010=
2010030719 - SBKP 071900Z 31004KT 9999 SCT030 28/12 Q1010=
2010030720 - SBKP 072000Z 28009KT 9999 FEW030 28/12 Q1010=
2010030721 - SBKP 072100Z 27005KT 9999 FEW040 27/13 Q1010=
2010030722 - SBKP 072200Z 25003KT CAVOK 26/13 Q1009=
2010030723 - SBKP 072300Z 23002KT CAVOK 26/13 Q1009=
2010030800 - SBKP 080000Z 19009KT CAVOK 22/15 Q1010=
2010030801 - SBKP 080100Z 17009KT CAVOK 21/16 Q1011=
2010030802 - SBKP 080200Z 14007KT CAVOK 20/16 Q1011=
2010030803 - SBKP 080300Z 11010KT CAVOK 20/17 Q1011=
2010030804 - SBKP 080400Z 11010KT CAVOK 19/17 Q1010=
2010030805 - SBKP 080500Z 11008KT 9000 NSC 19/17 Q1010=
2010030806 - SBKP 080600Z 09007KT 7000 NSC 18/17 Q1010=
2010030807 - SBKP 080700Z 10007KT 7000 NSC 18/16 Q1009=
2010030808 - SBKP 080800Z 10006KT 8000 NSC 17/16 Q1010=
2010030809 - SBKP 080900Z 11005KT 2500 BR NSC 17/16 Q1010=
2010030810 - SBKP 081000Z 10005KT 3000 BR NSC 17/16 Q1011=
2010030811 - SBKP 081100Z 12002KT 3000 HZ NSC 21/16 Q1011=
2010030811 - SBKP 081130Z 03004KT 6000 NSC 22/16 Q1012=
2010030812 - SBKP 081200Z 04004KT 8000 NSC 23/16 Q1012=
2010030813 - SBKP 081300Z 36005KT CAVOK 26/16 Q1012=
2010030814 - SBKP 081400Z 32008KT 9999 FEW020 27/16 Q1012=
2010030815 - SBKP 081500Z 29010KT 9999 SCT040 28/15 Q1012=
2010030816 - SBKP 081600Z 30008KT 9999 SCT040 FEW050TCU 29/15 Q1012=
2010030817 - SBKP 081700Z 28009KT 9999 SCT040 FEW050TCU 29/15 Q1011=
2010030818 - SBKP 081800Z 29009KT 9999 SCT040 30/15 Q1011=
2010030819 - SBKP 081900Z 30011KT 9999 SCT040 30/15 Q1011=
2010030820 - SBKP 082000Z 31012KT 9999 SCT040 30/14 Q1011=
2010030821 - SBKP 082100Z 32008KT 9999 FEW040 29/14 Q1011=
2010030822 - SBKP 082200Z 32004KT 9999 FEW040 26/15 Q1012=
2010030823 - SBKP 082300Z 36004KT 9999 FEW040 26/15 Q1012=
2010030900 - SBKP 090000Z 01003KT 9999 FEW045 25/15 Q1012=
2010030901 - SBKP 090100Z 35002KT CAVOK 25/15 Q1013=
2010030902 - SBKP 090200Z 09005KT CAVOK 22/16 Q1013=
2010030903 - SBKP 090300Z 10006KT CAVOK 21/17 Q1013=
2010030904 - SBKP 090400Z 12007KT CAVOK 20/18 Q1013=
2010030905 - SBKP 090500Z 11006KT CAVOK 20/17 Q1012=
2010030906 - SBKP 090600Z 10006KT CAVOK 19/18 Q1012=
2010030907 - SBKP 090700Z 08005KT CAVOK 19/17 Q1012=
2010030908 - SBKP 090800Z 07005KT CAVOK 19/17 Q1013=
2010030909 - SBKP 090900Z 07004KT 6000 NSC 19/16 Q1013=
2010030910 - SBKP 091000Z 07004KT 6000 NSC 20/16 Q1014=
2010030911 - SBKP 091100Z 02005KT 7000 NSC 23/16 Q1014=
2010030912 - SBKP 091200Z 35006KT 7000 NSC 25/16 Q1015=
2010030913 - SBKP 091300Z 36008KT 8000 NSC 27/16 Q1014=
2010030914 - SBKP 091400Z 34009KT 8000 NSC 29/15 Q1015=
2010030915 - SBKP 091500Z 31011KT 8000 SCT025 30/13 Q1014=
2010030916 - SBKP 091600Z 30010KT 9999 SCT030 31/13 Q1014=
2010030917 - SBKP 091700Z 28008KT 9999 SCT030 31/14 Q1013=
2010030918 - SBKP 091800Z 29009KT 9999 SCT030 FEW045TCU 30/15 Q1012=
2010030919 - SBKP 091900Z 27008KT 9999 SCT030 31/15 Q1012=
2010030920 - SBKP 092000Z 30006KT 9999 SCT030 31/15 Q1012=
2010030921 - SBKP 092100Z 26005KT 9999 FEW030 29/16 Q1012=
2010030922 - SBKP 092200Z 25004KT CAVOK 28/15 Q1012=
2010030923 - SBKP 092300Z 23003KT CAVOK 28/15 Q1012=
2010031000 - SBKP 100000Z 13004KT CAVOK 25/16 Q1013=
2010031001 - SBKP 100100Z 10006KT CAVOK 23/17 Q1013=
2010031002 - SBKP 100200Z 10006KT CAVOK 22/17 Q1013=
2010031003 - SBKP 100300Z 10008KT CAVOK 21/17 Q1013=
2010031004 - SBKP 100400Z 10007KT CAVOK 21/17 Q1012=
2010031005 - SBKP 100500Z 07003KT CAVOK 21/17 Q1012=
2010031006 - SBKP 100600Z 11007KT CAVOK 20/17 Q1012=
2010031007 - SBKP 100700Z 10006KT CAVOK 20/17 Q1011=
2010031008 - SBKP 100800Z 02002KT CAVOK 19/17 Q1012=
2010031009 - SBKP 100900Z 11006KT 6000 NSC 20/17 Q1012=
2010031010 - SBKP 101000Z 07004KT 6000 NSC 21/17 Q1013=
2010031011 - SBKP 101100Z 03007KT 6000 FEW030 24/17 Q1013=
2010031012 - SBKP 101200Z 02004KT 6000 FEW030 SCT090 25/18 Q1013=
2010031013 - SBKP 101300Z 35005KT 6000 FEW030 SCT090 27/19 Q1013=
2010031014 - SBKP 101400Z 35005KT 6000 NSC 29/15 Q1013=
2010031015 - SBKP 101500Z 35005KT 6000 NSC 29/18 Q1013=
2010031016 - SBKP 101600Z 29013KT 9999 SCT030 32/14 Q1012=
2010031017 - SBKP 101700Z 29011KT 9999 SCT030 32/15 Q1011=
2010031018 - SBKP 101800Z 30011KT 9999 SCT030 32/14 Q1011=
2010031019 - SBKP 101900Z 29012KT 9999 SCT035 32/14 Q1010=
2010031020 - SBKP 102000Z 29010KT 9999 FEW035 31/14 Q1010=
2010031021 - SBKP 102100Z 28007KT 9999 FEW035 30/16 Q1010=
2010031022 - SBKP 102200Z 30004KT 9999 FEW035 28/15 Q1011=
2010031023 - SBKP 102300Z 33002KT CAVOK 27/15 Q1011=
2010031100 - SBKP 110000Z 03003KT CAVOK 27/16 Q1011=
2010031101 - SBKP 110100Z 03001KT CAVOK 25/17 Q1012=
2010031102 - SBKP 110200Z 09004KT CAVOK 23/18 Q1012=
2010031103 - SBKP 110300Z 09005KT CAVOK 22/18 Q1011=
2010031104 - SBKP 110400Z 08005KT CAVOK 22/18 Q1011=
2010031105 - SBKP 110500Z 07005KT CAVOK 22/17 Q1011=
2010031106 - SBKP 110600Z 03003KT CAVOK 22/17 Q1010=
2010031107 - SBKP 110700Z 04004KT CAVOK 22/16 Q1010=
2010031108 - SBKP 110800Z 07005KT CAVOK 21/16 Q1010=
2010031109 - SBKP 110900Z 04003KT CAVOK 21/16 Q1011=
2010031110 - SBKP 111000Z 02004KT 8000 NSC 22/16 Q1012=
2010031111 - SBKP 111100Z 01006KT 8000 NSC 25/16 Q1012=
2010031112 - SBKP 111200Z 01007KT 8000 NSC 26/16 Q1013=
2010031113 - SBKP 111300Z 35006KT 8000 NSC 28/17 Q1013=
2010031114 - SBKP 111400Z 33005KT CAVOK 29/17 Q1013=
2010031115 - SBKP 111500Z 29010KT 9999 SCT030 30/16 Q1012=
2010031116 - SBKP 111600Z 29009KT 9999 SCT030 31/16 Q1011=
2010031117 - SBKP 111700Z 31010KT 9999 SCT030 32/16 Q1011=
2010031118 - SBKP 111800Z 28009KT 9999 SCT030 32/16 Q1010=
2010031119 - SBKP 111900Z 32012KT 9999 SCT030 32/15 Q1010=
2010031120 - SBKP 112000Z 31011KT 9999 SCT030 32/15 Q1010=
2010031121 - SBKP 112100Z 31007KT 9999 FEW030 30/16 Q1010=
2010031122 - SBKP 112200Z 31004KT 9999 FEW030 28/16 Q1010=
2010031123 - SBKP 112300Z 32004KT 9999 FEW030 27/16 Q1010=
2010031200 - SBKP 120000Z 01004KT 9999 FEW030 27/17 Q1011=
2010031201 - SBKP 120100Z 01004KT CAVOK 26/18 Q1011=
2010031202 - SBKP 120200Z 36005KT CAVOK 25/17 Q1011=
2010031203 - SBKP 120300Z 04004KT CAVOK 24/17 Q1011=
2010031204 - SBKP 120400Z 04004KT CAVOK 24/17 Q1011=
2010031205 - SBKP 120500Z 05003KT CAVOK 23/17 Q1011=
2010031206 - SBKP 120600Z 08004KT CAVOK 22/17 Q1010=
2010031207 - SBKP 120700Z 07005KT CAVOK 22/17 Q1010=
2010031208 - SBKP 120800Z 04005KT CAVOK 22/17 Q1010=
2010031209 - SBKP 120900Z 02006KT 9999 FEW020 23/17 Q1011=
2010031210 - SBKP 121000Z 02006KT 9999 FEW040 24/17 Q1011=
2010031211 - SBKP 121100Z 03008KT 7000 NSC 25/17 Q1012=
2010031212 - SBKP 121200Z 02007KT 6000 NSC 27/18 Q1013=
2010031213 - SBKP 121300Z 01006KT 7000 NSC 29/18 Q1013=
2010031214 - SBKP 121400Z 35006KT 7000 NSC 30/18 Q1013=
2010031215 - SBKP 121500Z 31006KT 8000 FEW040 31/18 Q1012=
2010031216 - SBKP 121600Z 30011KT 8000 SCT040 33/17 Q1012=
2010031217 - SBKP 121700Z 32012KT 9999 SCT040 FEW045TCU 33/16 Q1011=
2010031218 - SBKP 121800Z 31012KT 9999 SCT040 FEW045TCU 32/17 Q1011=
2010031219 - SBKP 121900Z 30012KT 9999 SCT043 FEW048TCU 33/16 Q1010=
2010031220 - SBKP 122000Z 29008KT 9999 SCT040 FEW045TCU 32/17 Q1010=
2010031221 - SBKP 122100Z 29007KT 9999 FEW040 FEW045TCU 31/18 Q1010=
2010031222 - SBKP 122200Z 29004KT 9999 FEW035 29/18 Q1011=
2010031223 - SBKP 122300Z 31003KT CAVOK 30/17 Q1011=
2010031300 - SBKP 130000Z 32002KT CAVOK 28/18 Q1012=
2010031301 - SBKP 130100Z 10007KT CAVOK 25/19 Q1012=
2010031302 - SBKP 130200Z 08004KT 9999 FEW030 25/19 Q1013=
2010031303 - SBKP 130300Z 11004KT 9999 FEW030 BKN070 24/19 Q1013=
2010031304 - SBKP 130400Z 08005KT 9999 FEW030 SCT070 24/19 Q1012=
2010031305 - SBKP 130500Z 02006KT 9999 FEW030 25/18 Q1012=
2010031306 - SBKP 130600Z 02007KT CAVOK 24/18 Q1012=
2010031307 - SBKP 130700Z 03003KT CAVOK 24/18 Q1012=
2010031308 - SBKP 130800Z 04006KT CAVOK 23/18 Q1013=
2010031309 - SBKP 130900Z 04006KT CAVOK 23/18 Q1013=
2010031310 - SBKP 131000Z 01007KT CAVOK 23/18 Q1014=
2010031311 - SBKP 131100Z 03008KT 8000 NSC 25/18 Q1014=
2010031312 - SBKP 131200Z 02008KT 8000 NSC 26/19 Q1015=
2010031313 - SBKP 131300Z 03008KT 8000 NSC 28/20 Q1015=
2010031314 - SBKP 131400Z 35008KT 9000 NSC 29/20 Q1015=
2010031315 - SBKP 131500Z 35007KT 9999 FEW040 31/19 Q1014=
2010031316 - SBKP 131600Z 02007KT 9999 FEW040 32/18 Q1013=
2010031317 - SBKP 131700Z 02008KT FEW040 33/17 Q1013=
2010031318 - SBKP 131800Z 36010KT 9999 FEW040 33/18 Q1012=
2010031319 - SBKP 131900Z 01006KT 9999 FEW040 32/17 Q1012=
2010031320 - SBKP 132000Z 31008KT 9999 SCT045 33/16 Q1011=
2010031321 - SBKP 132100Z 30005KT 9999 FEW045 31/17 Q1012=
2010031322 - SBKP 132200Z 34003KT CAVOK 30/17 Q1012=
2010031323 - SBKP 132300Z 01003KT CAVOK 29/18 Q1013=
2010031400 - SBKP 140000Z 02003KT CAVOK 28/18 Q1013=
2010031401 - SBKP 140100Z 08004KT CAVOK 26/19 Q1014=
2010031402 - SBKP 140200Z 08004KT CAVOK 25/19 Q1014=
2010031403 - SBKP 140300Z 08004KT CAVOK 24/19 Q1014=
2010031404 - SBKP 140400Z 09002KT CAVOK 23/19 Q1014=
2010031405 - SBKP 140500Z 06004KT CAVOK 23/19 Q1013=
2010031406 - SBKP 140600Z 22008KT CAVOK 24/19 Q1014=
2010031407 - SBKP 140700Z 10004KT CAVOK 22/19 Q1014=
2010031408 - SBKP 140800Z 11004KT CAVOK 21/19 Q1014=
2010031409 - SBKP 140900Z 07005KT CAVOK 21/19 Q1014=
2010031410 - SBKP 141000Z 03005KT CAVOK 24/19 Q1015=
2010031411 - SBKP 141100Z 03007KT 6000 NSC 25/19 Q1016=
2010031412 - SBKP 141200Z 04010KT 6000 NSC 27/20 Q1016=
2010031413 - SBKP 141300Z 36012KT 7000 NSC 29/20 Q1016=
2010031414 - SBKP 141400Z 36012KT CAVOK 31/21 Q1015=
2010031415 - SBKP 141500Z 33015KT 9999 SCT035 SCT090 30/21 Q1015=
2010031416 - SBKP 141600Z 34013KT 9999 SCT035 32/21 Q1014=
2010031417 - SBKP 141700Z 31013KT 9999 BKN035 31/19 Q1013=
2010031418 - SBKP 141800Z 33010KT 9999 SCT035 32/19 Q1013=
2010031419 - SBKP 141900Z 27007KT 9999 SCT035 FEW050TCU 31/19 Q1012=
2010031420 - SBKP 142000Z 26014KT 8000 -RA SCT035 FEW050TCU 24/19 Q1013=
2010031421 - SBKP 142100Z 21016KT 9999 SCT025 SCT035 FEW040TCU 21/19 Q1015=
2010031422 - SBKP 142200Z 08006KT 6000 -RA SCT025 SCT040 21/20 Q1016=
2010031423 - SBKP 142300Z 16006KT 9000 -RA SCT025 SCT040 21/19 Q1017=
2010031500 - SBKP 150000Z 17007KT 9000 -TSRA FEW020 SCT035 FEW050CB 21/19 Q1017 WS R33=
2010031501 - SBKP 150100Z 06006KT 9000 -RA SCT025 SCT040 21/20 Q1018 RETS=
2010031502 - SBKP 150200Z 05008KT 9999 -RA SCT020 SCT040 21/20 Q1017=
2010031503 - SBKP 150300Z 05007KT 9999 SCT020 BKN070 21/20 Q1017=
2010031504 - SBKP 150400Z 31004KT 9999 VCSH FEW015 SCT030 BKN070 21/20 Q1017=
2010031505 - SBKP 150500Z 29005KT 9999 FEW015 BKN070 20/20 Q1017=
2010031506 - SBKP 150600Z 33002KT 9999 -RA FEW015 BKN070 20/20 Q1016=
2010031507 - SBKP 150700Z 31002KT 9999 -RA FEW015 SCT030 BKN070 20/20 Q1016=
2010031508 - SBKP 150800Z 24004KT 9999 FEW015 SCT030 BKN070 20/20 Q1017=
2010031509 - SBKP 150900Z 28004KT 2500 -RA BR BKN005 SCT030 BKN070 20/19 Q1018=
2010031510 - SBKP 151000Z 35004KT 2000 -RA BR BKN005 SCT030 BKN070 20/20 Q1019=
2010031510 - SBKP 151020Z 02003KT 5000 -RA BR BKN005 SCT030 BKN070 20/20 Q1019=
2010031511 - SBKP 151100Z 02003KT 8000 SCT005 SCT030 BKN080 21/20 Q1019=
2010031512 - SBKP 151200Z 03006KT 8000 SCT006 SCT015 OVC090 21/21 Q1019=
2010031513 - SBKP 151300Z 03010KT 9999 FEW006 BKN015 OVC090 22/20 Q1019=
2010031514 - SBKP 151400Z 04008KT 9999 BKN011 BKN090 23/20 Q1019=
2010031515 - SBKP 151500Z 03008KT 9999 BKN014 BKN090 24/20 Q1018=
2010031515 - SBKP 151525Z 03006KT 9999 BKN018 BKN090 25/20 Q1017=
2010031516 - SBKP 151600Z 01004KT 9999 BKN020 BKN090 26/21 Q1017=
2010031517 - SBKP 151700Z 23005KT 9999 BKN025 BKN090 26/21 Q1016=
2010031518 - SBKP 151800Z 24006KT 9999 SCT025 FEW030TCU BKN090 27/21 Q1015=
2010031519 - SBKP 151900Z 20006KT 9999 SCT030 FEW035TCU BKN090 27/21 Q1014=
2010031520 - SBKP 152000Z 25009KT 9999 SCT030 FEW035TCU BKN090 27/19 Q1015=
2010031521 - SBKP 152100Z 21006KT 9999 FEW030 FEW035TCU BKN090 26/21 Q1016=
2010031522 - SBKP 152200Z 18005KT CAVOK 25/20 Q1016=
2010031523 - SBKP 152300Z 18004KT CAVOK 25/20 Q1017=
2010031600 - SBKP 160000Z 16005KT CAVOK 24/20 Q1018=
2010031601 - SBKP 160100Z 14004KT CAVOK 23/20 Q1018=
2010031602 - SBKP 160200Z 12005KT CAVOK 23/20 Q1018=
2010031603 - SBKP 160300Z 13005KT CAVOK 22/20 Q1019=
2010031604 - SBKP 160400Z 11005KT CAVOK 21/20 Q1018=
2010031605 - SBKP 160500Z 13005KT CAVOK 21/19 Q1018=
2010031606 - SBKP 160600Z 11006KT CAVOK 21/19 Q1017=
2010031607 - SBKP 160700Z 11007KT CAVOK 21/19 Q1017=
2010031608 - SBKP 160800Z 10006KT CAVOK 20/19 Q1018=
2010031609 - SBKP 160900Z 11002KT 9999 FEW040 BKN090 21/19 Q1019=
2010031610 - SBKP 161000Z 11004KT 9999 FEW040 BKN070 21/19 Q1019=
2010031611 - SBKP 161100Z 13010KT 9999 FEW015 SCT040 BKN070 22/19 Q1020=
2010031612 - SBKP 161200Z 14009KT 9999 FEW015 SCT040 BKN070 23/19 Q1020=
2010031613 - SBKP 161300Z 13012KT 9999 FEW020 SCT070 25/18 Q1021=
2010031614 - SBKP 161400Z 12009KT 9999 FEW020 BKN080 26/19 Q1021=
2010031615 - SBKP 161500Z 11007KT 9999 FEW020 BKN080 26/19 Q1020=
2010031616 - SBKP 161600Z 13009KT 9999 FEW030 SCT080 27/18 Q1020=
2010031617 - SBKP 161700Z 14009KT 9999 FEW035 SCT080 28/17 Q1019=
2010031618 - SBKP 161800Z 11007KT 9999 FEW035 28/17 Q1018=
2010031619 - SBKP 161900Z 14011KT 9999 FEW040 29/16 Q1018=
2010031620 - SBKP 162000Z 14015KT 9999 FEW040 28/17 Q1018=
2010031621 - SBKP 162100Z 14015KT 9999 FEW040 26/16 Q1018=
2010031622 - SBKP 162200Z 15012KT CAVOK 25/17 Q1019=
2010031623 - SBKP 162300Z 14012KT CAVOK 23/17 Q1020=
2010031600 - SBKP 160000Z 16005KT CAVOK 24/20 Q1018=
2010031601 - SBKP 160100Z 14004KT CAVOK 23/20 Q1018=
2010031602 - SBKP 160200Z 12005KT CAVOK 23/20 Q1018=
2010031603 - SBKP 160300Z 13005KT CAVOK 22/20 Q1019=
2010031604 - SBKP 160400Z 11005KT CAVOK 21/20 Q1018=
2010031605 - SBKP 160500Z 13005KT CAVOK 21/19 Q1018=
2010031606 - SBKP 160600Z 11006KT CAVOK 21/19 Q1017=
2010031607 - SBKP 160700Z 11007KT CAVOK 21/19 Q1017=
2010031608 - SBKP 160800Z 10006KT CAVOK 20/19 Q1018=
2010031609 - SBKP 160900Z 11002KT 9999 FEW040 BKN090 21/19 Q1019=
2010031610 - SBKP 161000Z 11004KT 9999 FEW040 BKN070 21/19 Q1019=
2010031611 - SBKP 161100Z 13010KT 9999 FEW015 SCT040 BKN070 22/19 Q1020=
2010031612 - SBKP 161200Z 14009KT 9999 FEW015 SCT040 BKN070 23/19 Q1020=
2010031613 - SBKP 161300Z 13012KT 9999 FEW020 SCT070 25/18 Q1021=
2010031614 - SBKP 161400Z 12009KT 9999 FEW020 BKN080 26/19 Q1021=
2010031615 - SBKP 161500Z 11007KT 9999 FEW020 BKN080 26/19 Q1020=
2010031616 - SBKP 161600Z 13009KT 9999 FEW030 SCT080 27/18 Q1020=
2010031617 - SBKP 161700Z 14009KT 9999 FEW035 SCT080 28/17 Q1019=
2010031618 - SBKP 161800Z 11007KT 9999 FEW035 28/17 Q1018=
2010031619 - SBKP 161900Z 14011KT 9999 FEW040 29/16 Q1018=
2010031620 - SBKP 162000Z 14015KT 9999 FEW040 28/17 Q1018=
2010031621 - SBKP 162100Z 14015KT 9999 FEW040 26/16 Q1018=
2010031622 - SBKP 162200Z 15012KT CAVOK 25/17 Q1019=
2010031623 - SBKP 162300Z 14012KT CAVOK 23/17 Q1020=
2010031700 - SBKP 170000Z 13012KT CAVOK 22/17 Q1020=
2010031801 - SBKP 180100Z 11015KT CAVOK 21/17 Q1021=
2010031802 - SBKP 180200Z 11014KT CAVOK 20/17 Q1021=
2010031803 - SBKP 180300Z 13016KT CAVOK 20/16 Q1020=
2010031804 - SBKP 180400Z 13015KT CAVOK 20/16 Q1020=
2010031805 - SBKP 180500Z 13014KT CAVOK 20/15 Q1019=
2010031806 - SBKP 180600Z 12011KT CAVOK 19/15 Q1019=
2010031807 - SBKP 180700Z 13010KT CAVOK 18/15 Q1018=
2010031808 - SBKP 180800Z 14009KT CAVOK 18/16 Q1019=
2010031809 - SBKP 180900Z 11009KT 9999 FEW040 18/16 Q1019=
2010031810 - SBKP 181000Z 14010KT 9000 NSC 19/16 Q1019=
2010031811 - SBKP 181100Z 11009KT CAVOK 21/17 Q1020=
2010031812 - SBKP 181200Z 10007KT CAVOK 23/18 Q1020=
2010031813 - SBKP 181300Z 09005KT CAVOK 25/18 Q1020=
2010031814 - SBKP 181400Z 06006KT 9999 FEW030 27/17 Q1020=
2010031815 - SBKP 181500Z 05004KT 9999 SCT035 28/17 Q1020=
2010031816 - SBKP 181600Z 34004KT 9999 SCT035 29/17 Q1019=
2010031817 - SBKP 181700Z 29001KT 9999 SCT040 29/17 Q1018=
2010031818 - SBKP 181800Z 20005KT 9999 SCT040 29/17 Q1017=
2010031819 - SBKP 181900Z 20004KT 9999 FEW040 FEW045TCU 30/17 Q1017=
2010031820 - SBKP 182000Z 20004KT 9999 FEW040 FEW045TCU 30/17 Q1017=
2010031821 - SBKP 182100Z 11012KT 9999 VCSH SCT040 FEW045TCU 26/18 Q1017=
2010031822 - SBKP 182200Z 10004KT 9999 -SHRA FEW040 SCT050TCU 25/19 Q1017=
2010031823 - SBKP 182300Z 13008KT CAVOK 24/20 Q1018=
2010031900 - SBKP 190000Z 12011KT CAVOK 23/20 Q1018=
2010031901 - SBKP 190100Z 12012KT CAVOK 23/20 Q1019=
2010031902 - SBKP 190200Z 12013KT CAVOK 22/19 Q1018=
2010031903 - SBKP 190300Z 13013KT CAVOK 22/19 Q1018=
2010031904 - SBKP 190400Z 13012KT CAVOK 21/19 Q1018=
2010031905 - SBKP 190500Z 11010KT CAVOK 21/19 Q1018=
2010031906 - SBKP 190600Z 11011KT CAVOK 21/19 Q1017=
2010031907 - SBKP 190700Z 12008KT CAVOK 20/18 Q1017=
2010031908 - SBKP 190800Z 13008KT CAVOK 20/18 Q1018=
2010031909 - SBKP 190900Z 13007KT CAVOK 20/18 Q1018=
2010031910 - SBKP 191000Z 13006KT 6000 NSC 20/19 Q1018=
2010031911 - SBKP 191100Z 11007KT 5000 BR NSC 22/19 Q1019=
2010031912 - SBKP 191200Z 05005KT 6000 NSC 25/19 Q1019=
2010031913 - SBKP 191300Z 36008KT 8000 NSC 27/18 Q1020=
2010031914 - SBKP 191400Z 01005KT 9999 FEW025 28/18 Q1020=
2010031915 - SBKP 191500Z 31006KT 9999 SCT030 29/18 Q1019=
2010031916 - SBKP 191600Z 32005KT 9999 SCT030 30/18 Q1019=
2010031917 - SBKP 191700Z 22004KT 9999 SCT035 30/18 Q1017=
2010031918 - SBKP 191800Z 23007KT 9999 SCT040 30/18 Q1017=
2010031919 - SBKP 191900Z 20007KT 9999 SCT040 30/18 Q1016=
2010031920 - SBKP 192000Z 21006KT 9999 FEW040 FEW045TCU 30/18 Q1015=
2010031921 - SBKP 192100Z 22006KT 9999 FEW040 30/19 Q1015=
2010031922 - SBKP 192200Z 18005KT 9999 FEW040 29/18 Q1016=
2010031923 - SBKP 192300Z 11012KT CAVOK 25/20 Q1016=
2010032000 - SBKP 200000Z 11011KT CAVOK 24/19 Q1017=
2010032001 - SBKP 200100Z 12012KT CAVOK 23/18 Q1018=
2010032002 - SBKP 200200Z 11012KT CAVOK 22/18 Q1017=
2010032003 - SBKP 200300Z 13012KT CAVOK 22/18 Q1017=
2010032004 - SBKP 200400Z 14011KT CAVOK 21/18 Q1017=
2010032005 - SBKP 200500Z 13008KT CAVOK 21/18 Q1016=
2010032006 - SBKP 200600Z 12005KT CAVOK 20/17 Q1016=
2010032007 - SBKP 200700Z 13007KT CAVOK 19/17 Q1016=
2010032008 - SBKP 200800Z 14005KT CAVOK 19/17 Q1016=
2010032009 - SBKP 200900Z 12005KT 9000 NSC 19/17 Q1016=
2010032010 - SBKP 201000Z 14004KT 7000 NSC 20/17 Q1017=
2010032011 - SBKP 201100Z 09004KT 7000 NSC 22/18 Q1017=
2010032012 - SBKP 201200Z 03005KT 6000 NSC 25/18 Q1017=
2010032013 - SBKP 201300Z 09005KT CAVOK 27/19 Q1017=
2010032014 - SBKP 201400Z 32006KT CAVOK 29/19 Q1017=
2010032015 - SBKP 201500Z 31007KT 9999 SCT030 30/19 Q1016=
2010032016 - SBKP 201600Z 30006KT 9999 SCT030 31/19 Q1015=
2010032017 - SBKP 201700Z 26006KT 9999 SCT035 31/19 Q1014=
2010032018 - SBKP 201800Z 28008KT 9999 BKN040 31/18 Q1013=
2010032019 - SBKP 201900Z 27008KT 9999 BKN040 31/18 Q1012=
2010032020 - SBKP 202000Z 27005KT 9999 SCT040 30/18 Q1011=
2010032021 - SBKP 202100Z 26005KT 9999 SCT040 FEW045TCU BKN090 29/18 Q1011=
2010032022 - SBKP 202200Z 21004KT 9999 SCT040 FEW045TCU BKN090 28/18 Q1011=
2010032023 - SBKP 202300Z 20006KT 9999 TS SCT040 FEW045CB BKN090 24/19 Q1013=
2010032100 - SBKP 210000Z 11007KT 9999 -TSRA SCT040 FEW045CB OVC090 21/19 Q1014=
2010032101 - SBKP 210100Z 12008KT 9999 -RA SCT040 OVC090 21/18 Q1013 RETS=
2010032102 - SBKP 210200Z 17009KT 9999 FEW040 SCT090 21/18 Q1013=
2010032103 - SBKP 210300Z 10006KT 9999 SCT045 SCT090 20/18 Q1013=
2010032104 - SBKP 210400Z 06004KT CAVOK 21/18 Q1012=
2010032105 - SBKP 210500Z 03005KT CAVOK 21/19 Q1012=
2010032106 - SBKP 210600Z 12003KT CAVOK 21/19 Q1011=
2010032107 - SBKP 210700Z 08003KT 9999 FEW040 BKN100 20/18 Q1011=
2010032108 - SBKP 210800Z 08003KT CAVOK 20/18 Q1011=
2010032109 - SBKP 210900Z 10003KT 9999 FEW035 BKN090 20/18 Q1011=
2010032110 - SBKP 211000Z 10003KT 9999 SCT035 BKN090 20/19 Q1011=
2010032110 - SBKP 211035Z 28010G22KT 4000 -RA BR BKN012 SCT035 BKN090 21/19 Q1013=
2010032111 - SBKP 211100Z 06006KT 9999 FEW012 SCT035 BKN090 21/20 Q1012=
2010032112 - SBKP 211200Z 06005KT 9999 SCT035 BKN090 22/20 Q1012=
2010032113 - SBKP 211300Z 34009KT 9999 VCSH FEW020 SCT035 BKN090 23/20 Q1013=
2010032114 - SBKP 211400Z 01009KT 9999 FEW013 BKN080 24/20 Q1013=
2010032115 - SBKP 211500Z 36009KT 9999 FEW015 BKN070 25/21 Q1012=
2010032116 - SBKP 211600Z 34010KT 9999 FEW015 SCT025 BKN070 27/21 Q1011=
2010032117 - SBKP 211700Z 31006KT 9999 VCSH SCT035 FEW040TCU BKN070 27/21 Q1010=
2010032118 - SBKP 211800Z 34006KT 9999 VCSH SCT030 FEW035TCU 27/21 Q1009=
2010032119 - SBKP 211900Z 35001KT 9999 SCT030 FEW035TCU 28/20 Q1007=
2010032120 - SBKP 212000Z 30010KT 9999 VCSH SCT030 FEW035TCU 29/20 Q1008=
2010032121 - SBKP 212100Z 29007KT 9999 VCSH SCT030 FEW035TCU 28/20 Q1008=
2010032122 - SBKP 212200Z 09006KT 9999 VCSH SCT030 FEW035TCU 25/20 Q1008=
2010032123 - SBKP 212300Z 10008KT 9999 -RA BKN040 21/19 Q1010=
2010032200 - SBKP 220000Z 06006KT 9999 BKN040 22/20 Q1011=
2010032201 - SBKP 220100Z 09006KT 9999 SCT040 21/19 Q1011=
2010032202 - SBKP 220200Z 10005KT 9999 SCT040 21/19 Q1010=
2010032203 - SBKP 220300Z 10005KT 9999 FEW040 21/19 Q1010=
2010032204 - SBKP 220400Z 10005KT 9999 SCT040 SCT080 21/19 Q1010=
2010032205 - SBKP 220500Z 08005KT 9999 FEW040 20/19 Q1009=
2010032206 - SBKP 220600Z 04005KT 9999 FEW040 22/19 Q1009=
2010032207 - SBKP 220700Z 02006KT CAVOK 22/19 Q1009=
2010032208 - SBKP 220800Z 01007KT CAVOK 22/19 Q1011=
2010032209 - SBKP 220900Z 01008KT 9999 FEW035 SCT080 22/19 Q1012=
2010032210 - SBKP 221000Z 01008KT 9999 FEW035 22/19 Q1013=
2010032211 - SBKP 221100Z 01010KT CAVOK 23/20 Q1013=
2010032212 - SBKP 221200Z 36010KT 9999 FEW015 24/21 Q1014=
2010032213 - SBKP 221300Z 34007KT 9999 SCT020 26/21 Q1013=
2010032214 - SBKP 221400Z 32007KT 9999 SCT025 27/21 Q1013=
2010032215 - SBKP 221500Z 31007KT 9999 BKN030 29/21 Q1012=
2010032216 - SBKP 221600Z 32009KT 9999 BKN030 30/21 Q1011=
2010032217 - SBKP 221700Z 32010KT 9999 BKN030 31/20 Q1010=
2010032218 - SBKP 221800Z 31009KT 9999 SCT030 32/20 Q1010=
2010032219 - SBKP 221900Z 27012KT 9999 TS VCSH SCT030 FEW035CB 30/21 Q1011=
2010032219 - SBKP 221928Z 23018G39KT 6000 -TSRA SCT030 FEW035CB 25/19 Q1012=
2010032220 - SBKP 222000Z 22019KT 6000 -TSRA SCT030 FEW035CB 21/20 Q1013 WS R33=
2010032221 - SBKP 222100Z 18010KT 9000 -TSRA FEW030 FEW035CB 21/20 Q1011=
2010032222 - SBKP 222200Z 03006KT 9999 SCT030 21/20 Q1012 RETS=
2010032223 - SBKP 222300Z 04002KT 9999 FEW030 21/20 Q1013=
2010032300 - SBKP 230000Z 05004KT 9999 FEW030 21/20 Q1014=
2010032301 - SBKP 230100Z 04004KT 9999 FEW030 21/19 Q1014=
2010032302 - SBKP 230200Z 03006KT 9999 FEW030 21/19 Q1014=
2010032303 - SBKP 230300Z 01006KT CAVOK 21/19 Q1015=
2010032304 - SBKP 230400Z 02004KT CAVOK 21/19 Q1015=
2010032305 - SBKP 230500Z 02002KT CAVOK 20/19 Q1015=
2010032306 - SBKP 230600Z 02002KT CAVOK 20/19 Q1014=
2010032307 - SBKP 230700Z 12006KT CAVOK 19/18 Q1014=
2010032308 - SBKP 230800Z 11003KT CAVOK 19/18 Q1015=
2010032309 - SBKP 230900Z 02001KT CAVOK 19/18 Q1015=
2010032310 - SBKP 231000Z 08003KT 9000 3500E NSC 20/19 Q1015=
2010032311 - SBKP 231100Z 06004KT CAVOK 22/19 Q1016=
2010032312 - SBKP 231200Z 01003KT CAVOK 24/20 Q1016=
2010032313 - SBKP 231300Z 35005KT 9999 FEW020 26/20 Q1017=
2010032314 - SBKP 231400Z 34004KT 9999 FEW020 27/21 Q1017=
2010032315 - SBKP 231500Z 30004KT 9999 BKN030 28/21 Q1017=
2010032316 - SBKP 231600Z 27003KT 9999 BKN030 29/21 Q1016=
2010032317 - SBKP 231700Z 21002KT 9999 BKN030 30/20 Q1016=
2010032318 - SBKP 231800Z 29005KT 9999 SCT030 31/20 Q1014=
2010032319 - SBKP 231900Z 11004KT 9999 SCT030 FEW040TCU 30/21 Q1013=
2010032320 - SBKP 232000Z 10003KT 9999 VCSH SCT030 FEW040TCU 29/21 Q1014=
2010032321 - SBKP 232100Z 23008KT 9999 4800NW -RA SCT040 FEW050TCU 27/21 Q1014=
2010032321 - SBKP 232105Z 31013KT 9999 4800NW -TSRA BKN040 FEW050CB 24/21 Q1015=
2010032321 - SBKP 232130Z 03016G26KT 3000 TSRA BKN012 SCT040 FEW050CB 23/20 Q1016=
2010032321 - SBKP 232150Z 08007G22KT 2500 +TSRA BKN012 SCT040 SCT050CB 23/20 Q1015=
2010032322 - SBKP 232200Z 11011G21KT 2500 +TSRA BKN012 SCT040 SCT050CB 23/20 Q1015=
2010032322 - SBKP 232215Z 13017KT 6000 -TSRA BKN020 SCT040 FEW050CB 21/19 Q1016 RERA=
2010032323 - SBKP 232300Z 13011KT 7000 -TSRA SCT020 SCT040 FEW050CB 22/21 Q1016 RERA=
2010032323 - SBKP 232310Z 13009KT 9000 -RA SCT020 SCT040 22/21 Q1015 RETS=
2010032400 - SBKP 240000Z 11010KT 9000 SCT040 SCT100 22/21 Q1015 RETS=
2010032401 - SBKP 240100Z 13005KT 9000 SCT040 SCT100 23/22 Q1017=
2010032402 - SBKP 240200Z 14009KT 9000 NSC 23/21 Q1017=
2010032403 - SBKP 240300Z 11007KT 9000 NSC 23/21 Q1016=
2010032404 - SBKP 240400Z 11006KT 9000 NSC 22/20 Q1016=
2010032405 - SBKP 240500Z 10006KT 9000 NSC 22/20 Q1016=
2010032406 - SBKP 240600Z 09005KT CAVOK 22/20 Q1016=
2010032407 - SBKP 240700Z 10005KT CAVOK 22/20 Q1016=
2010032408 - SBKP 240800Z 10006KT CAVOK 21/20 Q1016=
2010032409 - SBKP 240900Z 10005KT CAVOK 21/20 Q1016=
2010032410 - SBKP 241000Z 11005KT 6000 NSC 21/20 Q1016=
2010032411 - SBKP 241100Z 10005KT CAVOK 23/20 Q1017=
2010032412 - SBKP 241200Z 05005KT CAVOK 26/20 Q1017=
2010032413 - SBKP 241300Z 02007KT CAVOK 28/20 Q1017=
2010032414 - SBKP 241400Z 02009KT 9999 FEW030 30/20 Q1017=
2010032415 - SBKP 241500Z 35008KT 9999 SCT030 31/21 Q1017=
2010032416 - SBKP 241600Z 33006KT 9999 SCT030 31/20 Q1017=
2010032417 - SBKP 241700Z 36006KT 9999 SCT030 32/19 Q1016=
2010032418 - SBKP 241800Z 07004KT 9999 SCT030 32/19 Q1014=
2010032419 - SBKP 241900Z 07005KT 9999 SCT040 32/17 Q1014=
2010032420 - SBKP 242000Z 09005KT 9999 FEW040 32/18 Q1014=
2010032421 - SBKP 242100Z 10003KT 9999 SCT045 30/19 Q1014=
2010032422 - SBKP 242200Z 12006KT 9999 FEW045 27/20 Q1014=
2010032423 - SBKP 242300Z 15005KT CAVOK 26/20 Q1015=
2010032500 - SBKP 250000Z 13008KT CAVOK 25/22 Q1016=
2010032501 - SBKP 250100Z 12009KT 9000 NSC 24/22 Q1016=
2010032502 - SBKP 250200Z 12013KT 6000 NSC 24/21 Q1016=
2010032503 - SBKP 250300Z 11012KT 6000 NSC 23/21 Q1015=
2010032504 - SBKP 250400Z 11012KT 7000 NSC 23/20 Q1015=
2010032505 - SBKP 250500Z 11010KT 7000 NSC 22/20 Q1015=
2010032506 - SBKP 250600Z 10006KT 9000 NSC 22/20 Q1015=
2010032507 - SBKP 250700Z 09005KT 9000 NSC 22/20 Q1015=
2010032508 - SBKP 250800Z 10006KT CAVOK 22/20 Q1016=
2010032509 - SBKP 250900Z 12003KT 7000 SCT045 FEW050TCU SCT080 22/20 Q1016=
2010032510 - SBKP 251000Z 10006KT 6000 SCT045 FEW050TCU SCT080 22/20 Q1017=
2010032511 - SBKP 251100Z 36007KT 9999 SCT045 SCT080 23/20 Q1018=
2010032512 - SBKP 251200Z 09003KT 9000 VCSH SCT045 SCT080 23/22 Q1019=
2010032513 - SBKP 251300Z 08004KT 9000 SCT045 BKN080 27/21 Q1019=
2010032514 - SBKP 251400Z 03002KT 9999 SCT045 BKN080 28/20 Q1018=
2010032515 - SBKP 251500Z 02005KT 9999 SCT035 FEW045TCU BKN080 29/20 Q1018=
2010032516 - SBKP 251600Z 33007KT 9999 SCT035 FEW045TCU BKN080 29/20 Q1017=
2010032517 - SBKP 251700Z 35004KT 9999 SCT035 FEW045TCU 30/20 Q1016=
2010032518 - SBKP 251800Z 31006KT 9999 SCT030 FEW045TCU 30/19 Q1016=
2010032519 - SBKP 251900Z 07012KT 9999 -RA SCT035 FEW048TCU SCT080 28/20 Q1015=
2010032519 - SBKP 251936Z 03011KT 9999 -TSRA FEW035 FEW048CB SCT080 26/20 Q1016=
2010032520 - SBKP 252000Z 03007KT 9999 TS VCSH FEW035 FEW048CB SCT080 26/20 Q1015=
2010032521 - SBKP 252100Z 19008KT 9999 -TSRA FEW030 FEW048CB BKN090 25/20 Q1016=
2010032522 - SBKP 252200Z 12007KT 9999 -TSRA FEW035 FEW048CB SCT080 BKN090 23/20 Q1017=
2010032523 - SBKP 252300Z 12011KT 9999 FEW030 BKN080 BKN090 23/20 Q1017 RETS=
2010032600 - SBKP 260000Z 12012KT 9999 FEW030 BKN090 22/20 Q1017=
2010032601 - SBKP 260100Z 13010KT CAVOK 22/20 Q1018=
2010032602 - SBKP 260200Z 11012KT CAVOK 22/20 Q1017=
2010032603 - SBKP 260300Z 11014KT CAVOK 23/20 Q1017=
2010032604 - SBKP 260400Z 10012KT CAVOK 23/20 Q1017=
2010032605 - SBKP 260500Z 11012KT CAVOK 23/20 Q1016=
2010032606 - SBKP 260600Z 11009KT CAVOK 22/20 Q1016=
2010032607 - SBKP 260700Z 10010KT CAVOK 22/20 Q1016=
2010032608 - SBKP 260800Z 11007KT CAVOK 22/20 Q1016=
2010032609 - SBKP 260900Z 11006KT 6000 NSC 21/20 Q1017=
2010032610 - SBKP 261000Z 10004KT 4000 BR NSC 21/20 Q1018=
2010032611 - SBKP 261100Z 06003KT 4000 HZ FEW040 24/20 Q1018=
2010032611 - SBKP 261136Z 02007KT 9000 FEW040 25/19 Q1019=
2010032612 - SBKP 261200Z 02008KT 9999 FEW040 SCT090 25/19 Q1019=
2010032613 - SBKP 261300Z 36004KT 9999 FEW040 BKN090 25/20 Q1019=
2010032614 - SBKP 261400Z 32005KT 9999 FEW030 BKN100 26/21 Q1020=
2010032615 - SBKP 261500Z 33007KT 9999 FEW035 SCT100 27/21 Q1019=
2010032616 - SBKP 261600Z 28007KT 9999 SCT035 29/20 Q1018=
2010032617 - SBKP 261700Z 29007KT 9999 SCT035 FEW050TCU 29/19 Q1017=
2010032618 - SBKP 261800Z 31004KT 9999 SCT035 FEW050TCU 30/19 Q1016=
2010032619 - SBKP 261900Z 21005KT 9999 FEW035 FEW048TCU 29/20 Q1015=
2010032620 - SBKP 262000Z 19009KT 9999 FEW035 FEW048TCU 28/21 Q1015=
2010032621 - SBKP 262100Z 12012KT 9999 VCSH FEW035 FEW048TCU 25/19 Q1016=
2010032621 - SBKP 262120Z 12012KT 9999 TS VCSH FEW035 FEW048CB SCT100 24/19 Q1016=
2010032622 - SBKP 262200Z 11011KT 9999 TS VCSH FEW030 FEW048CB SCT090 23/19 Q1017=
2010032623 - SBKP 262300Z 10004KT 9999 VCTS FEW030 FEW045CB BKN090 22/19 Q1017 RETS=
2010032700 - SBKP 270000Z 12012KT 9999 VCTS FEW030 FEW045CB SCT070 BKN090 22/19 Q1017=
2010032701 - SBKP 270100Z 11012KT 9999 VCTS FEW030 FEW045CB BKN090 22/19 Q1017=
2010032702 - SBKP 270200Z 11009KT CAVOK 22/19 Q1017=
2010032703 - SBKP 270300Z 11004KT CAVOK 22/19 Q1018=
2010032704 - SBKP 270400Z 11004KT CAVOK 21/19 Q1018=
2010032705 - SBKP 270500Z 16004KT 9999 SCT045 BKN100 21/19 Q1017=
2010032706 - SBKP 270600Z 18004KT 9000 NSC 21/20 Q1016=
2010032707 - SBKP 270700Z 17007KT 8000 NSC 21/20 Q1016=
2010032708 - SBKP 270800Z 08006KT CAVOK 20/19 Q1016=
2010032709 - SBKP 270900Z 11005KT 6000 NSC 20/19 Q1016=
2010032710 - SBKP 271000Z 11006KT 6000 NSC 21/19 Q1017=
2010032711 - SBKP 271100Z 09005KT 7000 NSC 23/20 Q1018=
2010032712 - SBKP 271200Z 05005KT 9000 NSC 26/19 Q1018=
2010032713 - SBKP 271300Z 01006KT 9999 FEW030 27/19 Q1018=
2010032714 - SBKP 271400Z 35007KT 9999 FEW033 28/19 Q1018=
2010032715 - SBKP 271500Z 33005KT 290V050 9999 SCT033 28/20 Q1018=
2010032716 - SBKP 271600Z 36003KT 9999 SCT037 29/19 Q1017=
2010032717 - SBKP 271700Z 32004KT 270V040 9999 SCT040 29/18 Q1016=
2010032718 - SBKP 271800Z 25003KT 180V290 9999 SCT040 30/18 Q1016=
2010032719 - SBKP 271900Z 21008KT 9999 FEW040 FEW045TCU 29/21 Q1015=
2010032720 - SBKP 272000Z 21010KT 9999 SCT040 28/20 Q1014=
2010032721 - SBKP 272100Z 20009KT 9999 VCSH FEW040 FEW045TCU 27/20 Q1015=
2010032722 - SBKP 272200Z 19007KT 9999 VCTS FEW040 FEW045CB 25/20 Q1015=
2010032723 - SBKP 272300Z 12014KT 9999 VCTS FEW037 FEW045CB 25/20 Q1017=
2010032800 - SBKP 280000Z 12008KT 9999 VCTS FEW037 FEW045CB 23/20 Q1017=
2010032801 - SBKP 280100Z 13010KT 9999 VCTS FEW035 FEW045CB SCT100 23/20 Q1017=
2010032802 - SBKP 280200Z 13008KT 9999 FEW040 23/20 Q1017=
2010032803 - SBKP 280300Z 14011KT CAVOK 23/20 Q1017=
2010032804 - SBKP 280400Z 12010KT CAVOK 22/20 Q1016=
2010032805 - SBKP 280500Z 17006KT CAVOK 22/20 Q1016=
2010032806 - SBKP 280600Z 11009KT CAVOK 22/20 Q1015=
2010032807 - SBKP 280700Z 10007KT CAVOK 22/20 Q1014=
2010032808 - SBKP 280800Z 09005KT CAVOK 21/20 Q1015=
2010032809 - SBKP 280900Z 10006KT CAVOK 21/20 Q1015=
2010032810 - SBKP 281000Z 09005KT CAVOK 21/20 Q1016=
2010032811 - SBKP 281100Z 10004KT 9000 FEW020 BKN100 23/20 Q1016=
2010032812 - SBKP 281200Z 06003KT 9000 FEW020 BKN100 25/20 Q1017=
2010032813 - SBKP 281300Z 03008KT 9999 FEW030 BKN100 27/18 Q1017=
2010032814 - SBKP 281400Z 34010KT 9999 FEW030 BKN100 28/19 Q1017=
2010032815 - SBKP 281500Z 36012KT 9999 SCT040 SCT100 30/19 Q1016=
2010032816 - SBKP 281600Z 33009KT 9999 SCT040 FEW045TCU SCT100 30/19 Q1015=
2010032816 - SBKP 281650Z 33010KT 9999 TS VCSH SCT040 FEW050CB SCT080 30/19 Q1014=
2010032817 - SBKP 281700Z 35012KT 9999 TS VCSH SCT040 FEW050CB SCT080 30/19 Q1014=
2010032818 - SBKP 281800Z 25011G23KT 4000 -TSRA BKN040 FEW050CB BKN080 23/20 Q1014=
2010032818 - SBKP 281825Z 13002KT 8000 2000SE -TSRA SCT040 FEW050CB BKN080 21/20 Q1014=
2010032819 - SBKP 281900Z 08004KT 8000 -TSRA FEW030 SCT040 FEW050CB BKN090 21/20 Q1015=
2010032820 - SBKP 282000Z 18007KT 9999 FEW040 FEW045TCU BKN090 21/20 Q1013 RETS=
2010032821 - SBKP 282100Z 11006KT 9999 FEW040 FEW045TCU BKN100 21/20 Q1013=
2010032822 - SBKP 282200Z 12005KT 9999 FEW035 FEW045TCU SCT080 BKN100 21/20 Q1013=
2010032823 - SBKP 282300Z 15008KT 9999 -RA FEW040 FEW045TCU SCT080 BKN100 21/20 Q1014=
2010032900 - SBKP 290000Z 14007KT 9999 FEW003 SCT035 BKN100 21/20 Q1015=
2010032901 - SBKP 290100Z 13007KT 9999 FEW035 BKN090 21/20 Q1015=
2010032902 - SBKP 290200Z 13006KT 9999 FEW030 BKN080 21/20 Q1015=
2010032903 - SBKP 290300Z 15005KT CAVOK 21/20 Q1014=
2010032904 - SBKP 290400Z 18004KT CAVOK 21/20 Q1014=
2010032905 - SBKP 290500Z 16004KT 9999 FEW015 SCT070 21/20 Q1014=
2010032906 - SBKP 290600Z 13004KT 9999 FEW001 SCT030 BKN070 20/20 Q1013=
2010032907 - SBKP 290700Z 09006KT CAVOK 20/19 Q1013=
2010032908 - SBKP 290800Z 10004KT CAVOK 21/19 Q1013=
2010032909 - SBKP 290900Z 10006KT 9999 FEW030 20/19 Q1014=
2010032910 - SBKP 291000Z 08003KT CAVOK 21/19 Q1014=
2010032911 - SBKP 291100Z 05003KT 8000 NSC 23/20 Q1015=
2010032912 - SBKP 291200Z 01005KT 9000 NSC 25/20 Q1016=
2010032913 - SBKP 291300Z 36009KT CAVOK 27/20 Q1016=
2010032914 - SBKP 291400Z 35011KT 9999 SCT045 28/20 Q1016=
2010032915 - SBKP 291500Z 33012KT 9999 SCT045 FEW050TCU 30/20 Q1016=
2010032916 - SBKP 291600Z 30009G22KT 5000 -TSRA SCT040 FEW050CB 27/21 Q1015=
2010032916 - SBKP 291629Z 28006KT 9999 VCSH SCT040 FEW050TCU SCT100 24/20 Q1014 RETS=
2010032917 - SBKP 291700Z 22004KT 9999 SCT040 FEW050TCU SCT100 25/21 Q1014 RETS=
2010032918 - SBKP 291800Z 27004KT 9999 FEW040 SCT100 28/21 Q1013=
2010032919 - SBKP 291900Z 28003KT 9999 VCSH FEW040 FEW050TCU 29/21 Q1012=
2010032919 - SBKP 291927Z 30011G26KT 9000 -TSRA SCT040 SCT050CB 27/20 Q1012=
2010032920 - SBKP 292000Z 29004KT 9999 4900W -TSRA SCT040 SCT050CB 25/20 Q1013=
2010032921 - SBKP 292100Z 16006KT 9999 TS SCT040 FEW050CB SCT100 24/20 Q1012=
2010032922 - SBKP 292200Z 23008KT 9999 TS SCT040 FEW050CB SCT100 23/21 Q1013=
2010032923 - SBKP 292300Z 19012KT 2000 +TSRA SCT010 SCT030 SCT040CB BKN100 22/20 Q1015=
2010032923 - SBKP 292340Z 18010KT 5000 -TSRA SCT030 SCT040CB BKN100 21/20 Q1015 RERA=
2010033000 - SBKP 300000Z 13009KT 5000 TSRA SCT025 BKN040CB BKN080 21/20 Q1017 WS R15=
2010033001 - SBKP 300100Z 13009KT 5000 -TSRA SCT030 SCT040CB BKN080 21/20 Q1016 RERA=
2010033002 - SBKP 300200Z 12008KT 6000 -TSRA SCT030 FEW040CB BKN080 20/20 Q1015=
2010033002 - SBKP 300210Z 24007KT 2000 +TSRA SCT030 SCT040CB BKN080 20/20 Q1016=
2010033003 - SBKP 300300Z 03007KT 6000 -RA FEW015 BKN030 BKN080 20/20 Q1016 RETSRA=
2010033004 - SBKP 300400Z 07005KT 9999 -RA FEW015 BKN030 BKN080 20/20 Q1014=
2010033005 - SBKP 300500Z 08005KT 9999 FEW025 BKN080 20/19 Q1014=
2010033006 - SBKP 300600Z 34003KT CAVOK 21/20 Q1014=
2010033007 - SBKP 300700Z 32003KT 9999 FEW030 20/19 Q1013=
2010033008 - SBKP 300800Z 03002KT 9999 FEW015 20/19 Q1014=
2010033009 - SBKP 300900Z 13002KT 9999 SCT030 BKN080 20/19 Q1014=
2010033010 - SBKP 301000Z 15003KT 9999 SCT026 BKN070 20/19 Q1015=
2010033011 - SBKP 301100Z 19005KT 7000 FEW002 BKN030 BKN070 21/20 Q1016=
2010033012 - SBKP 301200Z 22002KT 7000 SCT030 SCT035 BKN070 22/20 Q1017=
2010033013 - SBKP 301300Z 01003KT 9999 FEW030 SCT035 24/21 Q1017=
2010033014 - SBKP 301400Z 24006KT 9999 SCT018 SCT035 24/21 Q1018=
2010033015 - SBKP 301500Z 00000KT 9000 SCT017 SCT035 26/22 Q1017=
2010033016 - SBKP 301600Z 26007KT 8000 SCT020 SCT036 27/22 Q1017=
2010033017 - SBKP 301700Z 25008KT 9999 SCT035 BKN040 27/21 Q1016=
2010033018 - SBKP 301800Z 23008KT 9999 FEW030 BKN040 28/21 Q1015=
2010033019 - SBKP 301900Z 23008KT 9999 FEW030 SCT040 28/20 Q1015=
2010033020 - SBKP 302000Z 23008KT 9999 FEW030 SCT040 28/20 Q1014=
2010033021 - SBKP 302100Z 19007KT 9999 SCT040 27/20 Q1015=
2010033022 - SBKP 302200Z 16006KT 9999 FEW040 25/21 Q1015=
2010033023 - SBKP 302300Z 12011KT CAVOK 23/20 Q1016=
2010033100 - SBKP 310000Z 11009KT CAVOK 22/19 Q1016=
2010033101 - SBKP 310100Z 12009KT CAVOK 22/19 Q1017=
2010033102 - SBKP 310200Z 13008KT CAVOK 22/19 Q1017=
2010033103 - SBKP 310300Z 12008KT CAVOK 21/19 Q1017=
2010033104 - SBKP 310400Z 14008KT CAVOK 21/19 Q1017=
2010033105 - SBKP 310500Z 14009KT CAVOK 21/19 Q1016=
2010033106 - SBKP 310600Z 12007KT CAVOK 20/19 Q1016=
2010033107 - SBKP 310700Z 13009KT CAVOK 20/18 Q1015=
2010033108 - SBKP 310800Z 15007KT CAVOK 20/18 Q1015=
2010033109 - SBKP 310900Z 13004KT CAVOK 20/18 Q1016=
2010033110 - SBKP 311000Z 13010KT CAVOK 20/18 Q1016=
2010033111 - SBKP 311100Z 12013KT 9999 FEW017 22/18 Q1017=
2010033112 - SBKP 311200Z 12016KT 9999 FEW012 23/18 Q1017=
2010033113 - SBKP 311300Z 12014KT 9999 FEW017 24/19 Q1018=
2010033114 - SBKP 311400Z 11010KT 9999 FEW020 26/19 Q1017=
2010033115 - SBKP 311500Z 13010KT 9999 SCT035 27/19 Q1017=
2010033116 - SBKP 311600Z 15007KT 9999 BKN039 28/19 Q1016=
2010033117 - SBKP 311700Z 15006KT 9999 SCT040 28/18 Q1015=
2010033118 - SBKP 311800Z 18005KT 9999 SCT040 28/17 Q1014=
2010033119 - SBKP 311900Z 13010KT 9999 FEW040 28/18 Q1014=
2010033120 - SBKP 312000Z 15011KT 9999 FEW040 28/18 Q1014=
2010033121 - SBKP 312100Z 14010KT 9999 FEW040 26/19 Q1014=
2010033122 - SBKP 312200Z 13010KT CAVOK 24/19 Q1014=
2010033123 - SBKP 312300Z 14016KT CAVOK 23/19 Q1015=
2010040100 - SBKP 010000Z 13016KT CAVOK 22/18 Q1016=
2010040101 - SBKP 010100Z 12011KT CAVOK 22/18 Q1016=
2010040102 - SBKP 010200Z 12014KT CAVOK 21/18 Q1016=
2010040103 - SBKP 010300Z 12013KT CAVOK 21/18 Q1016=
2010040104 - SBKP 010400Z 11011KT CAVOK 20/18 Q1016=
2010040105 - SBKP 010500Z 12012KT CAVOK 20/17 Q1015=
2010040106 - SBKP 010600Z 12011KT CAVOK 19/17 Q1015=
2010040107 - SBKP 010700Z 11010KT CAVOK 19/17 Q1015=
2010040108 - SBKP 010800Z 11012KT CAVOK 19/17 Q1015=
2010040109 - SBKP 010900Z 11011KT CAVOK 19/17 Q1016=
2010040110 - SBKP 011000Z 11011KT CAVOK 19/17 Q1016=
2010040111 - SBKP 011100Z 11013KT 9999 FEW030 21/18 Q1017=
2010040112 - SBKP 011200Z 11014KT 9999 FEW030 23/18 Q1017=
2010040113 - SBKP 011300Z 10008KT 9999 FEW030 24/19 Q1017=
2010040114 - SBKP 011400Z 11007KT 9999 FEW030 26/19 Q1017=
2010040115 - SBKP 011500Z 07004KT 9999 SCT035 27/19 Q1017=
2010040116 - SBKP 011600Z 18002KT 9999 SCT037 27/19 Q1016=
2010040117 - SBKP 011700Z 18002KT 9999 SCT040 29/19 Q1016=
2010040118 - SBKP 011800Z 20006KT 9999 BKN040 28/19 Q1015=
2010040119 - SBKP 011900Z 14012KT 9999 FEW040 FEW050TCU 27/19 Q1014=
2010040120 - SBKP 012000Z 14015KT 9999 FEW040 26/20 Q1013=
2010040121 - SBKP 012100Z 13014KT 8000 FEW045 SCT055 24/19 Q1014=
2010040122 - SBKP 012200Z 14015KT 9999 FEW045 SCT055 23/18 Q1015=
2010040123 - SBKP 012300Z 13014KT CAVOK 22/18 Q1015=
2010040200 - SBKP 020000Z 12013KT CAVOK 22/18 Q1016=
2010040201 - SBKP 020100Z 12015KT CAVOK 21/18 Q1016=
2010040202 - SBKP 020200Z 12011KT 9999 FEW040 SCT100 21/18 Q1016=
2010040203 - SBKP 020300Z 12012KT 9999 FEW040 BKN080 21/17 Q1016=
2010040204 - SBKP 020400Z 11013KT 9999 FEW040 BKN080 20/17 Q1016=
2010040205 - SBKP 020500Z 11013KT 9999 FEW040 20/18 Q1016=
2010040206 - SBKP 020600Z 12012KT 9999 FEW040 20/18 Q1015=
2010040207 - SBKP 020700Z 12011KT 9999 FEW040 SCT080 20/18 Q1015=
2010040208 - SBKP 020800Z 11009KT 9999 FEW040 SCT080 20/18 Q1015=
2010040209 - SBKP 020900Z 12009KT 9999 FEW040 SCT080 20/18 Q1016=
2010040210 - SBKP 021000Z 12009KT 9999 FEW040 SCT080 20/18 Q1016=
2010040211 - SBKP 021100Z 11009KT 9999 SCT045 BKN090 21/18 Q1017=
2010040212 - SBKP 021200Z 11008KT 9999 SCT045 BKN090 22/18 Q1018=
2010040213 - SBKP 021300Z 11008KT 9999 FEW045 SCT058 BKN100 24/19 Q1018=
2010040214 - SBKP 021400Z 11006KT 9999 FEW030 SCT060 BKN090 26/20 Q1017=
2010040215 - SBKP 021500Z 06006KT 9999 FEW030 SCT060 BKN070 27/19 Q1017=
2010040216 - SBKP 021600Z 05005KT 9999 SCT035 SCT070 28/19 Q1016=
2010040217 - SBKP 021700Z 02003KT 9999 SCT037 FEW040TCU SCT080 28/20 Q1015=
2010040218 - SBKP 021800Z 22003KT 9999 VCSH SCT040 FEW042TCU SCT090 28/19 Q1015=
2010040218 - SBKP 021825Z 11010KT 9999 2500N TSRA FEW015 SCT040 FEW050CB 23/19 Q1015=
2010040219 - SBKP 021900Z 17007KT 9999 -TSRA FEW015 SCT045 FEW050CB 23/19 Q1014 RERA=
2010040219 - SBKP 021937Z 15010KT 9999 SCT045 FEW050TCU SCT075 23/20 Q1015 RETS=
2010040220 - SBKP 022000Z 13007KT 9999 SCT045 FEW055TCU SCT080 23/20 Q1014 RETS=
2010040221 - SBKP 022100Z 33002KT 9999 -RA FEW045 BKN080 22/21 Q1015=
2010040222 - SBKP 022200Z 20005KT 9999 -RA SCT035 OVC100 21/20 Q1016=
2010040223 - SBKP 022300Z 20006KT 9999 -RA FEW010 SCT035 OVC100 22/21 Q1016=
2010040300 - SBKP 030000Z 18007KT 9999 -RA FEW010 BKN100 21/20 Q1017=
2010040301 - SBKP 030100Z 15004KT 9999 FEW010 BKN100 21/21 Q1017=
2010040302 - SBKP 030200Z 11007KT 7000 FEW035 BKN090 22/20 Q1017=
2010040303 - SBKP 030300Z 11008KT 9999 FEW035 SCT090 21/20 Q1016=
2010040304 - SBKP 030400Z 11010KT 9999 SCT035 SCT090 21/20 Q1016=
2010040305 - SBKP 030500Z 08004KT 9999 -RA SCT035 SCT090 21/20 Q1016=
2010040306 - SBKP 030600Z 10004KT 9999 -RA FEW030 SCT090 21/20 Q1016=
2010040306 - SBKP 030640Z 13004KT 5000 RA BR FEW030 SCT090 21/20 Q1016=
2010040307 - SBKP 030700Z 13005KT 4500 RA BR FEW030 BKN090 21/20 Q1016=
2010040307 - SBKP 030725Z 12005KT 4500 -RA BR FEW030 BKN090 21/20 Q1016 RERA=
2010040308 - SBKP 030800Z 12005KT 9000 4000SE -RA FEW030 BKN090 21/20 Q1016 RERA=
2010040309 - SBKP 030900Z 13004KT 7000 -RA FEW007 SCT030 BKN090 21/20 Q1016=
2010040309 - SBKP 030925Z 10004KT 3000 R15/1900 R33/P2000 RA BR BKN040 BKN090 21/20 Q1016=
2010040310 - SBKP 031000Z 12008KT 6000 2500S R33/1900 R15/P2000 -RA BKN040 BKN090 21/20 Q1016 RERA=
2010040311 - SBKP 031100Z 10003KT 3000 R15/1400 R33/P2000 -RA BR SCT040 OVC090 21/20 Q1018=
2010040312 - SBKP 031200Z 10003KT 5000 BR SCT040 BKN070 OVC090 22/20 Q1018=
2010040313 - SBKP 031300Z 11007KT 7000 FEW010 SCT045 BKN075 23/21 Q1017=
2010040313 - SBKP 031330Z 08003KT 1500 R15/1300 R33/P2000 RA BR BKN010 SCT045 BKN075 23/21 Q1018=
2010040314 - SBKP 031400Z 36005KT 3000 -RA BR SCT010 SCT040 BKN070 21/20 Q1018 RERA=
2010040315 - SBKP 031500Z 17003KT 6000 SCT010 SCT040 BKN070 23/21 Q1017=
2010040316 - SBKP 031600Z 20005KT 4000 -RA BR FEW004 SCT010 BKN040 23/22 Q1016=
2010040317 - SBKP 031700Z 09005KT 9999 3000E -RA SCT020 BKN040 BKN070 25/21 Q1015=
2010040317 - SBKP 031720Z 07002KT 3000 -RA BR FEW012 SCT020 BKN040 24/21 Q1014=
2010040318 - SBKP 031800Z 36004KT 2500 -TSRA BR FEW010 SCT020 FEW025CB BKN040 23/21 Q1014=
2010040318 - SBKP 031820Z 31008KT 2000 R15/1400 R33/P2000 TSRA BKN008 FEW025CB 22/21 Q1016=
2010040318 - SBKP 031825Z 31008KT 0500 R15/1000 R33/1100 +TSRA BKN008 FEW025CB 22/21 Q1016=
2010040319 - SBKP 031900Z 04008KT 3000 -TSRA BR SCT008 FEW025CB OVC080 20/20 Q1015 RERA=
2010040320 - SBKP 032000Z 12004KT 3000 -RA BR FEW008 OVC080 21/20 Q1015 RETS=
2010040320 - SBKP 032023Z 11007KT 5000 -RA BR FEW008 OVC080 21/20 Q1015=
2010040321 - SBKP 032100Z 12008KT 8000 SCT045 BKN090 21/20 Q1015=
2010040322 - SBKP 032200Z 12006KT 9999 -RA SCT045 BKN090 21/20 Q1015=
2010040323 - SBKP 032300Z 09006KT 9000 -RA FEW045 OVC090 21/20 Q1015=
2010040400 - SBKP 040000Z 10004KT 9999 -RA FEW045 OVC090 21/20 Q1016=
2010040401 - SBKP 040100Z 08003KT 9999 SCT045 BKN100 21/20 Q1016=
2010040402 - SBKP 040200Z 06005KT 9999 FEW045 OVC100 21/20 Q1016=
2010040403 - SBKP 040300Z 04007KT 9999 FEW045 21/20 Q1015=
2010040404 - SBKP 040400Z 06005KT 9999 FEW045 21/20 Q1015=
2010040405 - SBKP 040500Z 22006KT 9999 FEW013 SCT035 21/20 Q1015=
2010040406 - SBKP 040600Z 18006KT 9999 -RA SCT020 BKN035 21/20 Q1015=
2010040407 - SBKP 040700Z 15003KT 6000 -RA FEW003 BKN010 OVC100 21/20 Q1015=
2010040408 - SBKP 040800Z 09003KT 7000 FEW003 BKN040 OVC080 21/20 Q1015=
2010040409 - SBKP 040900Z 00000KT 9000 BKN040 BKN080 21/20 Q1015=
2010040410 - SBKP 041000Z 08003KT 9999 2500SE BCFG BKN040 SCT080 21/20 Q1015=
2010040411 - SBKP 041100Z 36004KT 2000 R15/1200 R33/P2000 -RA BR BKN025 OVC070 21/21 Q1016=
2010040411 - SBKP 041125Z 03005KT 6000 2500E -RA BKN005 BKN025 OVC070 21/21 Q1016=
2010040412 - SBKP 041200Z 03005KT 9999 SCT006 BKN027 OVC070 22/21 Q1017=
2010040413 - SBKP 041300Z 36006KT 9999 SCT011 BKN028 OVC080 23/21 Q1018=
2010040414 - SBKP 041400Z 36010KT 9999 BKN017 BKN032 BKN085 25/21 Q1017=
2010040415 - SBKP 041500Z 33009KT 9999 SCT025 BKN033 FEW035TCU BKN090 26/21 Q1016=
2010040416 - SBKP 041600Z 32012KT 9999 VCSH SCT025 SCT033 FEW035TCU 27/21 Q1015=
2010040417 - SBKP 041700Z 32011KT 9999 SCT033 FEW035TCU 28/20 Q1014=
2010040418 - SBKP 041800Z 28009KT 9999 VCSH SCT030 FEW033TCU 27/21 Q1014=
2010040419 - SBKP 041900Z 29008KT 9999 SCT030 FEW040TCU 28/21 Q1014=
2010040420 - SBKP 042000Z 28008KT 9999 SCT030 FEW040TCU 27/21 Q1014=
2010040421 - SBKP 042100Z 26005KT 9999 SCT035 FEW040TCU 26/21 Q1014=
2010040422 - SBKP 042200Z 17008KT 9999 -RA SCT035 FEW040TCU BKN090 23/21 Q1014=
2010040423 - SBKP 042300Z 17009KT 9999 FEW045 BKN090 23/21 Q1015=
2010040500 - SBKP 050000Z 14003KT 9999 FEW040 BKN090 23/21 Q1015=
2010040501 - SBKP 050100Z 14006KT CAVOK 23/20 Q1016=
2010040502 - SBKP 050200Z 19004KT 9999 FEW020 SCT090 22/20 Q1016=
2010040503 - SBKP 050300Z 18003KT 9999 BKN020 22/20 Q1016=
2010040504 - SBKP 050400Z 19004KT 9999 BKN015 22/20 Q1016=
2010040504 - SBKP 050435Z 10001KT 9999 SCT020 21/20 Q1016=
2010040505 - SBKP 050500Z 13003KT 9999 FEW020 SCT070 21/19 Q1016=
2010040506 - SBKP 050600Z 18004KT 9999 BKN048 21/19 Q1015=
2010040507 - SBKP 050700Z 15002KT 9999 FEW015 BKN048 20/19 Q1016=
2010040508 - SBKP 050800Z 15003KT 9999 FEW015 SCT050 BKN070 21/19 Q1016=
2010040509 - SBKP 050900Z 16002KT 9999 SCT030 BKN070 21/19 Q1016=
2010040510 - SBKP 051000Z 16002KT 9999 BKN020 21/19 Q1017=
2010040511 - SBKP 051100Z 19007KT 9999 BKN025 SCT070 22/19 Q1018=
2010040512 - SBKP 051200Z 18008KT 9999 BKN025 SCT070 23/19 Q1018=
2010040513 - SBKP 051300Z 16015KT 9999 BKN025 SCT070 25/18 Q1018=
2010040514 - SBKP 051400Z 20014KT 9999 SCT020 BKN027 24/19 Q1018=
2010040515 - SBKP 051500Z 19013KT 9999 BKN020 BKN032 24/18 Q1018=
2010040516 - SBKP 051600Z 16011KT 9999 SCT025 BKN033 24/18 Q1017=
2010040517 - SBKP 051700Z 15014KT 9999 SCT025 BKN035 BKN070 24/18 Q1016=
2010040518 - SBKP 051800Z 19011KT 9999 BKN035 BKN070 24/18 Q1016=
2010040519 - SBKP 051900Z 18012KT 9999 BKN035 BKN070 23/18 Q1016=
2010040520 - SBKP 052000Z 16015KT 9999 BKN035 BKN070 23/17 Q1016=
2010040521 - SBKP 052100Z 16015KT 9999 BKN030 BKN070 22/16 Q1016=
2010040522 - SBKP 052200Z 15009KT 9999 BKN030 BKN070 21/16 Q1017=
2010040523 - SBKP 052300Z 16008KT 9999 BKN030 BKN070 21/16 Q1017=
2010040600 - SBKP 060000Z 15007KT 9999 BKN025 OVC080 20/16 Q1017=
2010040601 - SBKP 060100Z 12005KT 9999 BKN030 OVC080 19/16 Q1018=
2010040602 - SBKP 060200Z 14005KT 9999 BKN030 OVC080 19/16 Q1018=
2010040603 - SBKP 060300Z 13005KT 9999 BKN026 BKN080 19/16 Q1017=
2010040604 - SBKP 060400Z 14005KT 9999 BKN020 BKN080 19/16 Q1017=
2010040605 - SBKP 060500Z 12005KT 9999 BKN022 BKN080 18/16 Q1016=
2010040606 - SBKP 060600Z 15009KT 9999 BKN022 BKN080 19/16 Q1015=
2010040607 - SBKP 060700Z 08003KT 9999 FEW015 BKN020 BKN080 19/16 Q1015=
2010040608 - SBKP 060800Z 17009KT 9999 BKN025 BKN080 19/16 Q1015=
2010040609 - SBKP 060900Z 15011KT 9999 SCT025 BKN070 18/15 Q1016=
2010040610 - SBKP 061000Z 13009KT 9999 FEW015 SCT025 BKN070 18/15 Q1016=
2010040611 - SBKP 061100Z 13012KT 9999 VCSH FEW015 BKN025 BKN070 18/15 Q1016=
2010040611 - SBKP 061130Z 19007KT 3000 -RA BR BKN017 OVC070 18/16 Q1017=
2010040612 - SBKP 061200Z 23006KT 3000 RA BR SCT003 BKN015 OVC070 17/16 Q1017=
2010040612 - SBKP 061215Z 24009KT 1200 R15/1300 R33/1900 RA BR BKN002 BKN015 OVC070 17/16 Q1018=
2010040612 - SBKP 061240Z 22013KT 2500 RA BR BKN004 BKN015 OVC070 17/16 Q1018=
2010040613 - SBKP 061300Z 21015KT 4000 -RA BR BKN005 BKN015 OVC070 17/16 Q1018 RERA=
2010040614 - SBKP 061400Z 22013KT 2500 RA BR BKN005 BKN015 OVC070 16/15 Q1018=
2010040614 - SBKP 061430Z 21014KT 4000 -RA BKN005 BKN015 OVC070 16/15 Q1018 RERA=
2010040615 - SBKP 061500Z 21015KT 6000 -RA SCT008 BKN013 OVC070 16/15 Q1017=
2010040615 - SBKP 061530Z 21013G23KT 3000 -RA BR BKN008 BKN013 OVC070 16/15 Q1017=
2010040616 - SBKP 061600Z 20011KT 6000 -RA SCT008 BKN013 OVC070 16/16 Q1017=
2010040616 - SBKP 061640Z 20012KT 8000 SCT010 BKN015 OVC070 17/14 Q1017=
2010040617 - SBKP 061700Z 19015KT 9999 VCSH FEW010 BKN015 BKN040 17/14 Q1017=
2010040618 - SBKP 061800Z 17013KT 6000 -RA SCT020 BKN045 OVC080 16/14 Q1016=
2010040619 - SBKP 061900Z 19008KT 6000 -RA SCT010 BKN045 OVC080 17/14 Q1016=
2010040620 - SBKP 062000Z 18010KT 9999 FEW010 BKN030 BKN080 17/14 Q1016=
2010040621 - SBKP 062100Z 19011KT 9999 BKN020 BKN080 16/13 Q1017=
2010040622 - SBKP 062200Z 18011KT 9999 BKN020 BKN080 16/13 Q1017=
2010040623 - SBKP 062300Z 18008KT 9999 SCT020 15/13 Q1017=
2010040700 - SBKP 070000Z 19009KT 9999 FEW025 14/12 Q1017=
2010040701 - SBKP 070100Z 19006KT 9999 FEW007 SCT080 14/12 Q1017=
2010040702 - SBKP 070200Z 16005KT CAVOK 14/11 Q1017=
2010040703 - SBKP 070300Z 15005KT 9999 FEW028 14/11 Q1017=
2010040704 - SBKP 070400Z 14002KT 9999 SCT024 BKN070 14/11 Q1016=
2010040705 - SBKP 070500Z 20005KT 9999 FEW024 14/12 Q1016=
2010040706 - SBKP 070600Z 22003KT 9999 SCT024 BKN070 14/12 Q1015=
2010040707 - SBKP 070700Z 24003KT 9999 SCT020 SCT070 14/12 Q1015=
2010040708 - SBKP 070800Z 30004KT 9999 BKN030 13/13 Q1016=
2010040709 - SBKP 070900Z 28006KT 8000 -RA FEW010 OVC030 14/13 Q1016=
2010040710 - SBKP 071000Z 22006KT 9999 BKN025 14/13 Q1017=
2010040711 - SBKP 071100Z 17004KT 9999 4000E FEW010 SCT030 15/13 Q1017=
2010040712 - SBKP 071200Z 19007KT 9999 FEW015 BKN025 17/13 Q1018=
2010040713 - SBKP 071300Z 17009KT 9999 BKN030 19/13 Q1017=
2010040714 - SBKP 071400Z 15014KT 9999 BKN035 19/13 Q1017=
2010040715 - SBKP 071500Z 15011KT 9999 BKN035 20/13 Q1017=
2010040716 - SBKP 071600Z 12010KT 9999 VCSH FEW020 SCT035 BKN055 20/14Q1017=
2010040717 - SBKP 071700Z 16012KT 9999 FEW020 BKN035 19/14 Q1016=
2010040718 - SBKP 071800Z 16014G26KT 9999 SCT020 SCT035 FEW045TCU 22/13 Q1016=
2010040719 - SBKP 071900Z 14011KT 9999 FEW020 BKN045 18/13 Q1016=
2010040720 - SBKP 072000Z 16012KT 9999 FEW020 SCT045 19/13 Q1017=
2010040721 - SBKP 072100Z 17013KT 9999 VCSH FEW020 BKN045 18/12 Q1017=
2010040722 - SBKP 072200Z 14009KT 9999 FEW040 BKN070 16/13 Q1017=
2010040723 - SBKP 072300Z 16007KT 9999 FEW030 SCT070 15/12 Q1018=
2010040800 - SBKP 080000Z 19008KT 9999 FEW030 14/12 Q1019=
2010040801 - SBKP 080100Z 19007KT 9999 BKN030 14/12 Q1019=
2010040802 - SBKP 080200Z 18006KT 9999 FEW030 14/12 Q1019=
2010040803 - SBKP 080300Z 19006KT 9999 FEW025 BKN030 BKN050 14/13 Q1019=
2010040804 - SBKP 080400Z 18004KT 9999 FEW025 13/12 Q1018=
2010040805 - SBKP 080500Z 22005KT 9999 FEW030 13/12 Q1018=
2010040806 - SBKP 080600Z 25003KT 9999 FEW020 BKN030 13/12 Q1017=
2010040807 - SBKP 080700Z 24003KT 9999 FEW030 12/12 Q1017=
2010040808 - SBKP 080800Z 21004KT 9999 3500NW FEW008 12/12 Q1017=
2010040808 - SBKP 080820Z 22004KT 4000 0900E PRFG BR FEW008 SCT030 11/11 Q1017=
2010040808 - SBKP 080835Z 09002KT 1500 0500E R15////// R33////// PRFG BR FEW008 SCT030 12/11 Q1017=
2010040809 - SBKP 080900Z 25002KT 2500 0500NW BCFG BR FEW008 SCT030 BKN055 12/12 Q1018=
2010040809 - SBKP 080920Z 13001KT 5000 1200NW BCFG BR FEW008 12/11 Q1018=
2010040810 - SBKP 081000Z 30002KT 4000 0900NW BCFG BR FEW008 13/13 Q1018=
2010040811 - SBKP 081100Z 27003KT 5000 2400SE BR FEW007 BKN030 14/13 Q1019=
2010040812 - SBKP 081200Z 22006KT 6000 FEW020 BKN035 15/13 Q1019=
2010040813 - SBKP 081300Z 20008KT 9999 4000SE -RA BKN020 17/13 Q1020=
2010040814 - SBKP 081400Z 13009KT 9999 BKN025 19/13 Q1020=
2010040815 - SBKP 081500Z 14010KT 9999 BKN035 22/13 Q1019=
2010040816 - SBKP 081600Z 15014KT 9999 BKN035 23/12 Q1018=
2010040817 - SBKP 081700Z 15013KT 9999 SCT045 22/10 Q1018=
2010040818 - SBKP 081800Z 16010KT 9999 SCT045 SCT100 23/09 Q1018=
2010040819 - SBKP 081900Z 17014G25KT 9999 BKN045 SCT090 20/11 Q1018=
2010040820 - SBKP 082000Z 14012KT 9999 FEW045 SCT090 20/11 Q1019=
2010040821 - SBKP 082100Z 17006KT 9999 FEW040 SCT090 17/12 Q1019=
2010040822 - SBKP 082200Z 17007KT 9999 FEW040 SCT070 16/12 Q1019=
2010040823 - SBKP 082300Z 17009KT 9999 FEW045 BKN100 16/12 Q1020=
2010040900 - SBKP 090000Z 16006KT 9999 FEW020 SCT045 BKN100 15/13 Q1021=
2010040901 - SBKP 090100Z 20004KT 9999 SCT030 BKN100 14/13 Q1021=
2010040902 - SBKP 090200Z 19004KT 9999 SCT025 SCT050 BKN100 14/13 Q1020=
2010040903 - SBKP 090300Z 21005KT 9999 -DZ SCT015 OVC023 15/14 Q1020=
2010040904 - SBKP 090400Z 29002KT 9999 FEW015 SCT025 BKN030 14/14 Q1020=
2010040905 - SBKP 090500Z 20005KT 9999 -RA SCT010 OVC020 14/14 Q1020=
2010040905 - SBKP 090510Z 19005KT 3500 -RA SCT010 OVC020 14/14 Q1020=
2010040906 - SBKP 090600Z 15009KT 9999 -RA FEW008 SCT025 BKN040 15/14 Q1020=
2010040907 - SBKP 090700Z 12004KT 9999 FEW010 SCT030 BKN080 13/13 Q1019=
2010040908 - SBKP 090800Z 15002KT 9999 FEW010 SCT030 13/12 Q1020=
2010040909 - SBKP 090900Z 16006KT 9999 FEW010 SCT022 BKN028 14/13 Q1021=
2010040910 - SBKP 091000Z 13013KT 9999 FEW045 14/11 Q1021=
2010040911 - SBKP 091100Z 13013KT 9999 FEW045 16/12 Q1022=
2010040912 - SBKP 091200Z 13019KT 9999 FEW040 18/13 Q1022=
2010040913 - SBKP 091300Z 14019KT 9999 SCT040 20/13 Q1023=
2010040914 - SBKP 091400Z 14017KT 9999 SCT040 21/13 Q1023=
2010040915 - SBKP 091500Z 13015KT 9999 SCT035 22/12 Q1022=
2010040916 - SBKP 091600Z /////KT 9999 SCT035 23/13 Q1022=
2010040917 - SBKP 091700Z 11011KT 9999 BKN035 22/13 Q1021=
2010040918 - SBKP 091800Z 13012KT 9999 BKN035 21/12 Q1021=
2010040919 - SBKP 091900Z 16012KT 9999 SCT040 20/12 Q1021=
2010040920 - SBKP 092000Z 13012KT 9999 FEW040 21/13 Q1021=
2010040921 - SBKP 092100Z 14013KT 9999 SCT035 19/13 Q1022=
2010040922 - SBKP 092200Z 13015KT 9999 FEW035 SCT070 17/13 Q1022=
2010040923 - SBKP 092300Z 14014KT 9999 FEW030 16/13 Q1023=
2010041000 - SBKP 100000Z 16013KT CAVOK 16/13 Q1023=
2010041001 - SBKP 100100Z 17007KT CAVOK 15/13 Q1023=
2010041002 - SBKP 100200Z 14010KT 9999 FEW025 14/12 Q1023=
2010041003 - SBKP 100300Z 15007KT 9999 FEW025 14/12 Q1022=
2010041004 - SBKP 100400Z 14010KT 9999 FEW025 14/13 Q1021=
2010041005 - SBKP 100500Z 14009KT 9999 FEW025 14/12 Q1021=
2010041006 - SBKP 100600Z 13008KT 9999 FEW025 14/12 Q1021=
2010041007 - SBKP 100700Z 12009KT 9999 FEW025 13/13 Q1021=
2010041008 - SBKP 100800Z 12005KT 9999 FEW025 13/12 Q1020=
2010041009 - SBKP 100900Z 13004KT 9999 FEW020 12/12 Q1021=
2010041010 - SBKP 101000Z 14004KT 9999 FEW030 14/13 Q1022=
2010041011 - SBKP 101100Z 11010KT 7000 SCT015 16/14 Q1022=
2010041012 - SBKP 101200Z 12008KT 7000 SCT020 19/14 Q1023=
2010041013 - SBKP 101300Z 13009KT 9999 SCT025 20/14 Q1023=
2010041014 - SBKP 101400Z 11013KT 9999 SCT030 22/14 Q1022=
2010041015 - SBKP 101500Z 15011KT 9999 BKN035 22/14 Q1022=
2010041016 - SBKP 101600Z 13013KT 9999 SCT040 23/14 Q1021=
2010041017 - SBKP 101700Z 12010KT 9999 SCT040 SCT100 24/13 Q1020=
2010041018 - SBKP 101800Z 13010KT 9999 SCT045 SCT080 23/14 Q1020=
2010041019 - SBKP 101900Z 13012KT 9999 SCT040 SCT080 23/14 Q1020=
2010041020 - SBKP 102000Z 13013KT 9999 FEW040 SCT080 21/13 Q1020=
2010041021 - SBKP 102100Z 16011KT CAVOK 20/14 Q1020=
2010041022 - SBKP 102200Z 16014KT CAVOK 18/13 Q1020=
2010041023 - SBKP 102300Z 13016KT CAVOK 17/13 Q1021=
2010041000 - SBKP 100000Z 16013KT CAVOK 16/13 Q1023=
2010041001 - SBKP 100100Z 17007KT CAVOK 15/13 Q1023=
2010041002 - SBKP 100200Z 14010KT 9999 FEW025 14/12 Q1023=
2010041003 - SBKP 100300Z 15007KT 9999 FEW025 14/12 Q1022=
2010041004 - SBKP 100400Z 14010KT 9999 FEW025 14/13 Q1021=
2010041005 - SBKP 100500Z 14009KT 9999 FEW025 14/12 Q1021=
2010041006 - SBKP 100600Z 13008KT 9999 FEW025 14/12 Q1021=
2010041007 - SBKP 100700Z 12009KT 9999 FEW025 13/13 Q1021=
2010041008 - SBKP 100800Z 12005KT 9999 FEW025 13/12 Q1020=
2010041009 - SBKP 100900Z 13004KT 9999 FEW020 12/12 Q1021=
2010041010 - SBKP 101000Z 14004KT 9999 FEW030 14/13 Q1022=
2010041011 - SBKP 101100Z 11010KT 7000 SCT015 16/14 Q1022=
2010041012 - SBKP 101200Z 12008KT 7000 SCT020 19/14 Q1023=
2010041013 - SBKP 101300Z 13009KT 9999 SCT025 20/14 Q1023=
2010041014 - SBKP 101400Z 11013KT 9999 SCT030 22/14 Q1022=
2010041015 - SBKP 101500Z 15011KT 9999 BKN035 22/14 Q1022=
2010041016 - SBKP 101600Z 13013KT 9999 SCT040 23/14 Q1021=
2010041017 - SBKP 101700Z 12010KT 9999 SCT040 SCT100 24/13 Q1020=
2010041018 - SBKP 101800Z 13010KT 9999 SCT045 SCT080 23/14 Q1020=
2010041019 - SBKP 101900Z 13012KT 9999 SCT040 SCT080 23/14 Q1020=
2010041020 - SBKP 102000Z 13013KT 9999 FEW040 SCT080 21/13 Q1020=
2010041021 - SBKP 102100Z 16011KT CAVOK 20/14 Q1020=
2010041022 - SBKP 102200Z 16014KT CAVOK 18/13 Q1020=
2010041023 - SBKP 102300Z 13016KT CAVOK 17/13 Q1021=
2010041100 - SBKP 110000Z 14013KT CAVOK 16/13 Q1022=
2010041201 - SBKP 120100Z 13013KT 9999 FEW048 17/14 Q1020=
2010041202 - SBKP 120200Z 12015KT 9999 FEW045 16/14 Q1020=
2010041203 - SBKP 120300Z 10014KT 9999 FEW045 16/14 Q1020=
2010041204 - SBKP 120400Z 10011KT CAVOK 16/13 Q1020=
2010041205 - SBKP 120500Z 12011KT CAVOK 16/13 Q1020=
2010041206 - SBKP 120600Z 11014KT CAVOK 15/13 Q1020=
2010041207 - SBKP 120700Z 11013KT 9999 FEW030 15/13 Q1019=
2010041208 - SBKP 120800Z 11013KT 9999 FEW030 SCT060 15/13 Q1020=
2010041209 - SBKP 120900Z 11011KT 9999 FEW030 14/13 Q1020=
2010041210 - SBKP 121000Z 11012KT CAVOK 15/13 Q1020=
2010041211 - SBKP 121100Z 11011KT 9999 FEW045 17/13 Q1021=
2010041212 - SBKP 121200Z 11009KT CAVOK 20/14 Q1021=
2010041213 - SBKP 121300Z 10006KT CAVOK 22/14 Q1022=
2010041214 - SBKP 121400Z 12005KT 9999 FEW035 24/14 Q1021=
2010041215 - SBKP 121500Z 10006KT 9999 SCT045 25/12 Q1021=
2010041216 - SBKP 121600Z 13005KT 9999 SCT045 24/12 Q1020=
2010041217 - SBKP 121700Z 10005KT 9999 SCT045 26/14 Q1019=
2010041218 - SBKP 121800Z 14008KT 9999 SCT045 26/12 Q1018=
2010041219 - SBKP 121900Z 12009KT 9999 SCT045 25/12 Q1018=
2010041220 - SBKP 122000Z 12011KT 9999 FEW045 24/13 Q1018=
2010041221 - SBKP 122100Z 12008KT 9999 FEW045 20/12 Q1019=
2010041222 - SBKP 122200Z 14008KT CAVOK 19/12 Q1019=
2010041223 - SBKP 122300Z 13012KT CAVOK 19/15 Q1020=
2010041300 - SBKP 130000Z 12012KT CAVOK 18/15 Q1021=
2010041301 - SBKP 130100Z 11015KT CAVOK 18/14 Q1021=
2010041302 - SBKP 130200Z 11014KT CAVOK 17/14 Q1021=
2010041303 - SBKP 130300Z 11015KT CAVOK 16/14 Q1021=
2010041304 - SBKP 130400Z 11014KT CAVOK 16/14 Q1020=
2010041305 - SBKP 130500Z 12015KT CAVOK 16/14 Q1020=
2010041306 - SBKP 130600Z 11014KT CAVOK 15/14 Q1020=
2010041307 - SBKP 130700Z 09006KT CAVOK 15/14 Q1020=
2010041308 - SBKP 130800Z 07003KT CAVOK 15/14 Q1021=
2010041309 - SBKP 130900Z 12006KT CAVOK 14/13 Q1021=
2010041310 - SBKP 131000Z 11010KT CAVOK 15/14 Q1022=
2010041311 - SBKP 131100Z 11009KT CAVOK 18/14 Q1023=
2010041312 - SBKP 131200Z 10007KT CAVOK 20/15 Q1024=
2010041313 - SBKP 131300Z 09003KT CAVOK 23/15 Q1024=
2010041314 - SBKP 131400Z 03002KT CAVOK 25/15 Q1024=
2010041315 - SBKP 131500Z 05004KT 9999 FEW025 26/14 Q1023=
2010041316 - SBKP 131600Z 18003KT 9999 SCT035 28/13 Q1022=
2010041317 - SBKP 131700Z 00000KT 9999 BKN040 26/13 Q1021=
2010041318 - SBKP 131800Z 01005KT 9999 BKN040 27/14 Q1021=
2010041319 - SBKP 131900Z 19004KT 9999 SCT040 SCT060 25/13 Q1021=
2010041320 - SBKP 132000Z 12004KT 9999 FEW040 BKN060 24/14 Q1021=
2010041321 - SBKP 132100Z 15008KT 9999 FEW045 SCT090 23/14 Q1021=
2010041322 - SBKP 132200Z 13010KT 9999 FEW045 20/15 Q1021=
2010041323 - SBKP 132300Z 13011KT CAVOK 20/16 Q1022=
2010041400 - SBKP 140000Z 12013KT CAVOK 19/16 Q1022=
2010041401 - SBKP 140100Z 11012KT 9999 FEW040 SCT060 BKN080 19/16 Q1022=
2010041402 - SBKP 140200Z 11013KT 9999 FEW040 SCT060 BKN080 19/16 Q1022=
2010041403 - SBKP 140300Z 11011KT 9999 FEW040 SCT060 BKN080 19/15 Q1022=
2010041404 - SBKP 140400Z 11010KT CAVOK 17/15 Q1022=
2010041405 - SBKP 140500Z 11008KT CAVOK 17/15 Q1022=
2010041406 - SBKP 140600Z 11010KT CAVOK 16/15 Q1021=
2010041407 - SBKP 140700Z 11009KT CAVOK 16/14 Q1022=
2010041408 - SBKP 140800Z 12006KT CAVOK 15/14 Q1022=
2010041409 - SBKP 140900Z 12007KT CAVOK 15/14 Q1022=
2010041410 - SBKP 141000Z 12005KT 7000 NSC 15/14 Q1023=
2010041411 - SBKP 141100Z 13006KT 9000 NSC 19/15 Q1024=
2010041412 - SBKP 141200Z 11006KT CAVOK 21/15 Q1024=
2010041413 - SBKP 141300Z 12004KT CAVOK 23/15 Q1024=
2010041414 - SBKP 141400Z 10003KT 9999 FEW030 25/16 Q1024=
2010041415 - SBKP 141500Z 01004KT 9999 FEW030 26/14 Q1023=
2010041416 - SBKP 141600Z 16003KT 9999 FEW035 SCT080 27/13 Q1022=
2010041417 - SBKP 141700Z 02001KT 9999 SCT035 BKN080 26/14 Q1021=
2010041418 - SBKP 141800Z 22006KT 9999 SCT040 BKN080 26/13 Q1021=
2010041419 - SBKP 141900Z 23005KT 9999 SCT040 BKN080 27/14 Q1020=
2010041420 - SBKP 142000Z 18008KT 9999 FEW040 SCT080 26/15 Q1020=
2010041421 - SBKP 142100Z 16007KT 9999 FEW040 SCT080 23/15 Q1020=
2010041422 - SBKP 142200Z 16006KT 9999 FEW045 BKN100 23/15 Q1020=
2010041423 - SBKP 142300Z 12011KT 9999 FEW045 BKN100 21/17 Q1021=
2010041500 - SBKP 150000Z 12010KT 9999 FEW045 BKN100 20/17 Q1021=
2010041501 - SBKP 150100Z 12011KT 9999 FEW045 SCT070 BKN100 19/16 Q1021=
2010041502 - SBKP 150200Z 11013KT CAVOK 19/16 Q1021=
2010041503 - SBKP 150300Z 11011KT CAVOK 18/16 Q1021=
2010041504 - SBKP 150400Z 11012KT CAVOK 18/16 Q1020=
2010041505 - SBKP 150500Z 11009KT CAVOK 18/16 Q1020=
2010041506 - SBKP 150600Z 11008KT CAVOK 17/16 Q1019=
2010041507 - SBKP 150700Z 11006KT CAVOK 16/16 Q1019=
2010041508 - SBKP 150800Z 12007KT CAVOK 16/16 Q1019=
2010041509 - SBKP 150900Z 11005KT 9999 FEW040 SCT090 16/15 Q1020=
2010041510 - SBKP 151000Z 12006KT 8000 FEW040 SCT090 17/16 Q1020=
2010041511 - SBKP 151100Z 10007KT 9000 FEW030 18/16 Q1021=
2010041512 - SBKP 151200Z 12006KT 9999 FEW030 22/16 Q1021=
2010041513 - SBKP 151300Z 04006KT CAVOK 25/15 Q1021=
2010041514 - SBKP 151400Z 35009KT 9999 FEW030 26/15 Q1021=
2010041515 - SBKP 151500Z 36007KT 9999 FEW035 27/16 Q1020=
2010041516 - SBKP 151600Z 34005KT 9999 SCT040 27/15 Q1019=
2010041517 - SBKP 151700Z 36004KT 9999 SCT040 27/14 Q1018=
2010041518 - SBKP 151800Z 28006KT 9999 FEW040 27/11 Q1017=
2010041519 - SBKP 151900Z 27006KT 9999 FEW040 28/12 Q1017=
2010041520 - SBKP 152000Z 25007KT 9999 FEW040 26/12 Q1017=
2010041521 - SBKP 152100Z 23005KT 9999 FEW040 24/14 Q1017=
2010041522 - SBKP 152200Z 18004KT 9999 FEW040 23/13 Q1017=
2010041523 - SBKP 152300Z 13006KT CAVOK 20/14 Q1018=
2010041600 - SBKP 160000Z 12006KT CAVOK 18/14 Q1018=
2010041601 - SBKP 160100Z 11008KT CAVOK 18/14 Q1019=
2010041602 - SBKP 160200Z 11008KT CAVOK 17/14 Q1019=
2010041603 - SBKP 160300Z 11008KT CAVOK 17/15 Q1018=
2010041604 - SBKP 160400Z 16006KT CAVOK 17/15 Q1018=
2010041605 - SBKP 160500Z 11009KT CAVOK 17/15 Q1018=
2010041606 - SBKP 160600Z 11009KT CAVOK 17/15 Q1017=
2010041607 - SBKP 160700Z 10009KT CAVOK 17/15 Q1017=
2010041608 - SBKP 160800Z 10007KT CAVOK 16/15 Q1017=
2010041609 - SBKP 160900Z 09006KT CAVOK 16/15 Q1018=
2010041610 - SBKP 161000Z 10006KT CAVOK 16/15 Q1019=
2010041611 - SBKP 161100Z 10006KT 5000 BR NSC 19/16 Q1019=
2010041612 - SBKP 161200Z 08004KT 5000 HZ NSC 22/16 Q1020=
2010041613 - SBKP 161300Z 02005KT 9000 NSC 26/15 Q1020=
2010041614 - SBKP 161400Z 02005KT 9999 FEW030 27/14 Q1019=
2010041615 - SBKP 161500Z 31005KT 9999 FEW030 28/13 Q1019=
2010041616 - SBKP 161600Z 32005KT 9999 SCT040 27/13 Q1018=
2010041617 - SBKP 161700Z 36003KT 9999 BKN040 28/13 Q1017=
2010041618 - SBKP 161800Z 31004KT 9999 SCT040 29/13 Q1016=
2010041619 - SBKP 161900Z 23005KT 9999 FEW040 28/13 Q1016=
2010041620 - SBKP 162000Z 21005KT 9999 FEW040 27/12 Q1017=
2010041621 - SBKP 162100Z 19005KT 9999 FEW040 25/14 Q1017=
2010041622 - SBKP 162200Z 17005KT 9999 FEW040 23/14 Q1017=
2010041623 - SBKP 162300Z 16005KT CAVOK 22/14 Q1018=
2010041700 - SBKP 170000Z 12006KT CAVOK 19/15 Q1018=
2010041701 - SBKP 170100Z 12009KT CAVOK 19/15 Q1018=
2010041702 - SBKP 170200Z 11010KT CAVOK 18/15 Q1019=
2010041703 - SBKP 170300Z 11010KT CAVOK 18/15 Q1018=
2010041704 - SBKP 170400Z 12010KT CAVOK 18/15 Q1018=
2010041705 - SBKP 170500Z 12010KT CAVOK 17/15 Q1018=
2010041706 - SBKP 170600Z 12008KT CAVOK 17/15 Q1018=
2010041707 - SBKP 170700Z 12008KT CAVOK 17/14 Q1017=
2010041708 - SBKP 170800Z 12009KT CAVOK 17/14 Q1018=
2010041709 - SBKP 170900Z 09005KT CAVOK 16/14 Q1018=
2010041710 - SBKP 171000Z 10007KT 8000 NSC 16/14 Q1019=
2010041711 - SBKP 171100Z 09003KT 8000 NSC 20/16 Q1020=
2010041712 - SBKP 171200Z 08004KT CAVOK 23/16 Q1021=
2010041713 - SBKP 171300Z 03005KT CAVOK 26/15 Q1021=
2010041714 - SBKP 171400Z 09002KT CAVOK 27/14 Q1021=
2010041715 - SBKP 171500Z 36004KT 9999 FEW030 29/13 Q1020=
2010041716 - SBKP 171600Z 10005KT 9999 FEW030 30/12 Q1019=
2010041717 - SBKP 171700Z 14007KT 9999 FEW035 30/12 Q1018=
2010041718 - SBKP 171800Z 27001KT 9999 FEW035 30/11 Q1018=
2010041719 - SBKP 171900Z 12005KT 9999 FEW035 29/12 Q1018=
2010041720 - SBKP 172000Z 13005KT 9999 FEW035 27/11 Q1018=
2010041721 - SBKP 172100Z 14006KT CAVOK 25/10 Q1019=
2010041722 - SBKP 172200Z 12007KT CAVOK 21/11 Q1019=
2010041723 - SBKP 172300Z 12009KT CAVOK 20/11 Q1020=
2010041800 - SBKP 180000Z 12011KT CAVOK 21/13 Q1021=
2010041801 - SBKP 180100Z 11011KT CAVOK 18/13 Q1021=
2010041802 - SBKP 180200Z 12012KT CAVOK 18/14 Q1021=
2010041803 - SBKP 180300Z 12013KT CAVOK 18/15 Q1021=
2010041804 - SBKP 180400Z 12014KT CAVOK 18/15 Q1020=
2010041805 - SBKP 180500Z 11011KT CAVOK 17/14 Q1020=
2010041806 - SBKP 180600Z 11014KT CAVOK 17/14 Q1019=
2010041807 - SBKP 180700Z 12017KT CAVOK 17/13 Q1019=
2010041808 - SBKP 180800Z 12016KT CAVOK 17/12 Q1020=
2010041809 - SBKP 180900Z 12014KT CAVOK 16/12 Q1020=
2010041810 - SBKP 181000Z 12017KT 9000 NSC 17/12 Q1021=
2010041811 - SBKP 181100Z 10010KT CAVOK 20/13 Q1021=
2010041812 - SBKP 181200Z 09010KT CAVOK 23/14 Q1022=
2010041813 - SBKP 181300Z 10008KT CAVOK 26/13 Q1023=
2010041814 - SBKP 181400Z 08010KT CAVOK 27/11 Q1022=
2010041815 - SBKP 181500Z 10008KT CAVOK 29/11 Q1021=
2010041816 - SBKP 181600Z 11008KT CAVOK 29/12 Q1020=
2010041817 - SBKP 181700Z 13007KT CAVOK 29/12 Q1019=
2010041818 - SBKP 181800Z 13006KT CAVOK 29/12 Q1019=
2010041819 - SBKP 181900Z 11005KT CAVOK 29/11 Q1019=
2010041820 - SBKP 182000Z 14007KT CAVOK 28/11 Q1019=
2010041821 - SBKP 182100Z 12009KT 7000 NSC 24/11 Q1019=
2010041822 - SBKP 182200Z 11009KT CAVOK 21/12 Q1020=
2010041823 - SBKP 182300Z 12010KT CAVOK 20/12 Q1020=
2010041900 - SBKP 190000Z 12009KT CAVOK 19/12 Q1020=
2010041901 - SBKP 190100Z 11011KT CAVOK 18/13 Q1020=
2010041902 - SBKP 190200Z 12012KT CAVOK 18/14 Q1020=
2010041903 - SBKP 190300Z 11011KT CAVOK 18/14 Q1020=
2010041904 - SBKP 190400Z 11012KT CAVOK 17/14 Q1020=
2010041905 - SBKP 190500Z 11010KT CAVOK 17/13 Q1018=
2010041906 - SBKP 190600Z 10008KT CAVOK 16/13 Q1018=
2010041907 - SBKP 190700Z 12010KT CAVOK 16/13 Q1018=
2010041908 - SBKP 190800Z 11011KT CAVOK 16/13 Q1018=
2010041909 - SBKP 190900Z 11007KT CAVOK 15/13 Q1018=
2010041910 - SBKP 191000Z 10008KT CAVOK 16/13 Q1019=
2010041911 - SBKP 191100Z 10007KT CAVOK 19/14 Q1020=
2010041912 - SBKP 191200Z 10005KT CAVOK 22/15 Q1020=
2010041913 - SBKP 191300Z 05003KT CAVOK 26/15 Q1021=
2010041914 - SBKP 191400Z 02004KT CAVOK 28/15 Q1020=
2010041915 - SBKP 191500Z 32003KT 9999 FEW040 29/14 Q1020=
2010041916 - SBKP 191600Z 28005KT 9999 SCT045 30/14 Q1019=
2010041917 - SBKP 191700Z 29006KT CAVOK 30/14 Q1018=
2010041918 - SBKP 191800Z 27005KT CAVOK 29/14 Q1017=
2010041919 - SBKP 191900Z 20005KT CAVOK 29/14 Q1017=
2010041920 - SBKP 192000Z 26005KT CAVOK 28/14 Q1017=
2010041921 - SBKP 192100Z 21004KT CAVOK 26/15 Q1017=
2010041922 - SBKP 192200Z 18005KT CAVOK 24/15 Q1018=
2010041923 - SBKP 192300Z 15007KT CAVOK 23/15 Q1018=
2010042000 - SBKP 200000Z 11007KT CAVOK 20/15 Q1018=
2010042001 - SBKP 200100Z 11011KT CAVOK 20/15 Q1018=
2010042002 - SBKP 200200Z 12011KT CAVOK 19/15 Q1017=
2010042003 - SBKP 200300Z 11008KT CAVOK 19/15 Q1017=
2010042004 - SBKP 200400Z 11009KT CAVOK 18/15 Q1016=
2010042005 - SBKP 200500Z 07004KT CAVOK 18/15 Q1016=
2010042006 - SBKP 200600Z 10009KT CAVOK 17/14 Q1016=
2010042007 - SBKP 200700Z 11006KT CAVOK 16/15 Q1016=
2010042008 - SBKP 200800Z 12007KT CAVOK 16/14 Q1016=
2010042009 - SBKP 200900Z 12005KT CAVOK 15/14 Q1016=
2010042010 - SBKP 201000Z 10006KT 8000 NSC 16/15 Q1017=
2010042011 - SBKP 201100Z 10006KT 9000 NSC 20/16 Q1018=
2010042012 - SBKP 201200Z 02005KT 9999 4500E NSC 24/16 Q1018=
2010042013 - SBKP 201300Z 36005KT CAVOK 26/16 Q1018=
2010042014 - SBKP 201400Z 34009KT CAVOK 28/16 Q1017=
2010042015 - SBKP 201500Z 33007KT 9999 FEW040 29/16 Q1017=
2010042016 - SBKP 201600Z 32007KT 9999 SCT045 30/16 Q1016=
2010042017 - SBKP 201700Z 36006KT 9999 SCT048 31/15 Q1015=
2010042018 - SBKP 201800Z 32008KT CAVOK 30/16 Q1014=
2010042019 - SBKP 201900Z 27008KT 9999 FEW045 31/15 Q1014=
2010042020 - SBKP 202000Z 26005KT 9999 FEW045 29/15 Q1015=
2010042021 - SBKP 202100Z 20006KT CAVOK 27/17 Q1015=
2010042022 - SBKP 202200Z 17007KT 9000 NSC 25/17 Q1015=
2010042023 - SBKP 202300Z 12006KT CAVOK 22/16 Q1016=
2010042100 - SBKP 210000Z 12007KT CAVOK 22/17 Q1016=
2010042101 - SBKP 210100Z 12009KT CAVOK 21/17 Q1016=
2010042102 - SBKP 210200Z 11011KT CAVOK 21/17 Q1016=
2010042103 - SBKP 210300Z 14011KT CAVOK 20/17 Q1016=
2010042104 - SBKP 210400Z 13010KT CAVOK 20/17 Q1016=
2010042105 - SBKP 210500Z 13010KT CAVOK 20/16 Q1015=
2010042106 - SBKP 210600Z 13009KT CAVOK 19/16 Q1015=
2010042107 - SBKP 210700Z 13007KT CAVOK 18/16 Q1015=
2010042108 - SBKP 210800Z 09007KT CAVOK 18/16 Q1015=
2010042109 - SBKP 210900Z 10008KT CAVOK 17/15 Q1015=
2010042110 - SBKP 211000Z 12007KT 8000 NSC 18/16 Q1016=
2010042111 - SBKP 211100Z 09005KT 8000 3000E NSC 21/17 Q1017=
2010042112 - SBKP 211200Z 09003KT 8000 3000E NSC 24/17 Q1017=
2010042113 - SBKP 211300Z 36007KT 8000 NSC 26/17 Q1017=
2010042114 - SBKP 211400Z 35008KT CAVOK 28/17 Q1017=
2010042115 - SBKP 211500Z 01009KT 9999 FEW040 29/17 Q1015=
2010042116 - SBKP 211600Z 36010KT 9999 SCT045 30/18 Q1014=
2010042117 - SBKP 211700Z 32011KT 9999 SCT048 31/16 Q1014=
2010042118 - SBKP 211800Z 31009KT CAVOK 31/16 Q1013=
2010042119 - SBKP 211900Z 31008KT 9999 SCT048 30/15 Q1013=
2010042120 - SBKP 212000Z 34005KT 9999 SCT048 29/15 Q1014=
2010042121 - SBKP 212100Z 27004KT 6000 FEW048 SCT070 27/15 Q1014=
2010042122 - SBKP 212200Z 23003KT 6000 NSC 27/16 Q1015=
2010042123 - SBKP 212300Z 19004KT 8000 NSC 25/16 Q1015=
2010042200 - SBKP 220000Z 11005KT 8000 NSC 21/17 Q1016=
2010042201 - SBKP 220100Z 10004KT 8000 NSC 21/17 Q1016=
2010042202 - SBKP 220200Z 09006KT CAVOK 20/17 Q1016=
2010042203 - SBKP 220300Z 10007KT CAVOK 19/17 Q1015=
2010042204 - SBKP 220400Z 10006KT CAVOK 19/17 Q1015=
2010042205 - SBKP 220500Z 12006KT CAVOK 18/16 Q1015=
2010042206 - SBKP 220600Z 12006KT CAVOK 18/16 Q1014=
2010042207 - SBKP 220700Z 12008KT CAVOK 18/16 Q1015=
2010042208 - SBKP 220800Z 11007KT CAVOK 17/16 Q1015=
2010042209 - SBKP 220900Z 11006KT CAVOK 17/16 Q1015=
2010042210 - SBKP 221000Z 10006KT 8000 NSC 17/16 Q1015=
2010042211 - SBKP 221100Z 09004KT 8000 3500E NSC 21/18 Q1016=
2010042212 - SBKP 221200Z 02006KT 8000 3500E NSC 25/18 Q1016=
2010042213 - SBKP 221300Z 01010KT 9000 NSC 26/18 Q1016=
2010042214 - SBKP 221400Z 35007KT CAVOK 28/18 Q1016=
2010042215 - SBKP 221500Z 35010KT CAVOK 30/17 Q1014=
2010042216 - SBKP 221600Z 34010KT 9999 FEW040 31/16 Q1013=
2010042217 - SBKP 221700Z 33009KT 9999 FEW045 30/16 Q1013=
2010042218 - SBKP 221800Z 33010KT 9999 SCT045 30/16 Q1012=
2010042219 - SBKP 221900Z 30006KT 9999 FEW045 31/15 Q1013=
2010042220 - SBKP 222000Z 31005KT 9999 SCT045 29/17 Q1013=
2010042221 - SBKP 222100Z 31005KT 6000 FEW045 27/17 Q1014=
2010042222 - SBKP 222200Z 34004KT 6000 FEW045 26/16 Q1014=
2010042223 - SBKP 222300Z 02002KT 6000 NSC 25/16 Q1015=
2010042300 - SBKP 230000Z 09004KT 6000 NSC 22/17 Q1015=
2010042301 - SBKP 230100Z 08004KT 6000 NSC 22/17 Q1016=
2010042302 - SBKP 230200Z 06003KT CAVOK 21/17 Q1016=
2010042303 - SBKP 230300Z 07004KT 9999 FEW040 SCT080 21/17 Q1015=
2010042304 - SBKP 230400Z 08006KT 9999 FEW040 BKN080 20/17 Q1015=
2010042305 - SBKP 230500Z 07006KT 9999 FEW045 BKN100 21/17 Q1014=
2010042306 - SBKP 230600Z 09004KT 9999 FEW045 SCT100 21/17 Q1014=
2010042307 - SBKP 230700Z 06004KT 9999 FEW045 BKN100 20/17 Q1013=
2010042308 - SBKP 230800Z 10004KT CAVOK 19/17 Q1014=
2010042309 - SBKP 230900Z 09004KT CAVOK 19/17 Q1014=
2010042310 - SBKP 231000Z 12005KT 9000 FEW040 20/17 Q1015=
2010042311 - SBKP 231100Z 03001KT 9999 FEW040 BKN070 22/19 Q1016=
2010042312 - SBKP 231200Z 33005KT 9999 FEW040 BKN070 22/18 Q1016=
2010042313 - SBKP 231300Z 32003KT 8000 3500SE FEW040 BKN070 25/18 Q1017=
2010042314 - SBKP 231400Z 34002KT 6000 FEW040 BKN070 25/18 Q1017=
2010042315 - SBKP 231500Z 34004KT 6000 FEW040 BKN070 25/18 Q1016=
2010042316 - SBKP 231600Z 35003KT 8000 FEW040 BKN070 27/18 Q1016=
2010042317 - SBKP 231700Z 35004KT 8000 FEW040 BKN080 26/19 Q1015=
2010042318 - SBKP 231800Z 03004KT 8000 FEW040 BKN080 27/19 Q1015=
2010042319 - SBKP 231900Z 36005KT 6000 FEW040 BKN070 27/19 Q1014=
2010042320 - SBKP 232000Z 17013KT 6000 SCT045 FEW050TCU BKN070 23/20 Q1016=
2010042320 - SBKP 232016Z 16015KT 6000 TS SCT045 FEW050CB BKN070 22/20 Q1016=
2010042321 - SBKP 232100Z 14016KT 9999 3000W -TSRA FEW010 SCT040 SCT050CB OVC070 20/18 Q1017=
2010042322 - SBKP 232200Z 12004KT 9999 -TSRA FEW040 FEW050CB OVC090 19/18 Q1018=
2010042323 - SBKP 232300Z 10009KT 9999 -RA FEW005 19/18 Q1018 RETS=
2010042400 - SBKP 240000Z 11012KT 9000 -TSRA FEW005 SCT050CB OVC090 19/18 Q1018=
2010042400 - SBKP 240015Z 14005KT 9000 TSRA SCT020 SCT050CB OVC090 19/18 Q1019=
2010042400 - SBKP 240030Z 14007KT 6000 2800NW +TSRA SCT020 SCT050CB OVC090 19/18 Q1020=
2010042401 - SBKP 240100Z 12006KT 4000 +TSRA BR BKN020 FEW050CB OVC090 18/18 Q1020=
2010042401 - SBKP 240130Z 18009KT 4000 -RA BR BKN002 SCT035 OVC090 19/18 Q1020 RETSRA=
2010042401 - SBKP 240155Z 22007KT 1500 R15///// R33///// BR OVC002 19/19 Q1020 RETSRA=
2010042402 - SBKP 240200Z 22007KT 1500 R15///// R33///// BR OVC002 19/19 Q1020 RETSRA=
2010042403 - SBKP 240300Z 13006KT 3000 -RA BR SCT002 BKN004 OVC100 19/18 Q1019=
2010042403 - SBKP 240315Z 14005KT 5000 -RA BR FEW002 SCT030 OVC100 19/19 Q1019=
2010042404 - SBKP 240400Z 12005KT 8000 FEW004 BKN030 OVC100 19/19 Q1019=
2010042405 - SBKP 240500Z 11012KT 8000 FEW004 SCT030 OVC100 19/18 Q1018=
2010042406 - SBKP 240600Z 10009KT 9999 SCT030 OVC100 19/18 Q1017=
2010042407 - SBKP 240700Z 11005KT 9999 SCT030 OVC100 19/18 Q1016=
2010042408 - SBKP 240800Z 20007KT 9999 SCT030 OVC100 19/18 Q1017=
2010042409 - SBKP 240900Z 18007KT 8000 FEW014 SCT030 BKN100 18/18 Q1018=
2010042410 - SBKP 241000Z 16007KT 4000 BR FEW014 SCT100 19/18 Q1019=
2010042411 - SBKP 241100Z 13011KT 8000 FEW030 SCT100 20/18 Q1019=
2010042412 - SBKP 241200Z 13015KT 9999 FEW025 SCT100 22/18 Q1020=
2010042413 - SBKP 241300Z 12015KT 9999 SCT025 23/18 Q1021=
2010042414 - SBKP 241400Z 12014KT 9999 FEW025 24/18 Q1020=
2010042415 - SBKP 241500Z 11010KT 9999 FEW025 SCT100 25/19 Q1019=
2010042416 - SBKP 241600Z 12010KT 9999 FEW025 SCT100 26/19 Q1018=
2010042417 - SBKP 241700Z 13009KT 9999 FEW030 26/19 Q1017=
2010042418 - SBKP 241800Z 13008KT 9999 FEW030 SCT100 26/19 Q1017=
2010042419 - SBKP 241900Z 13010KT 9999 FEW040 SCT100 26/19 Q1017=
2010042420 - SBKP 242000Z 13010KT CAVOK 25/19 Q1017=
2010042421 - SBKP 242100Z 12010KT CAVOK 23/19 Q1017=
2010042422 - SBKP 242200Z 12010KT CAVOK 22/19 Q1018=
2010042423 - SBKP 242300Z 11011KT CAVOK 22/19 Q1018=
2010042500 - SBKP 250000Z 12011KT CAVOK 21/19 Q1018=
2010042501 - SBKP 250100Z 12010KT CAVOK 21/19 Q1019=
2010042502 - SBKP 250200Z 11012KT CAVOK 21/19 Q1018=
2010042503 - SBKP 250300Z 12013KT CAVOK 20/19 Q1018=
2010042504 - SBKP 250400Z 11013KT CAVOK 20/19 Q1018=
2010042505 - SBKP 250500Z 11012KT CAVOK 20/19 Q1017=
2010042506 - SBKP 250600Z 12013KT 8000 NSC 20/19 Q1017=
2010042507 - SBKP 250700Z 11012KT 8000 NSC 20/19 Q1017=
2010042508 - SBKP 250800Z 11013KT 7000 NSC 20/19 Q1017=
2010042509 - SBKP 250900Z 11012KT 8000 NSC 20/19 Q1017=
2010042510 - SBKP 251000Z 11012KT 5000 BR FEW040 20/19 Q1018=
2010042511 - SBKP 251100Z 11009KT 9000 FEW040 SCT090 22/19 Q1019=
2010042512 - SBKP 251200Z 10008KT CAVOK 24/19 Q1020=
2010042513 - SBKP 251300Z 07007KT CAVOK 26/20 Q1020=
2010042514 - SBKP 251400Z 03009KT 9999 FEW030 28/20 Q1019=
2010042515 - SBKP 251500Z 34007KT 9999 FEW030 29/20 Q1018=
2010042516 - SBKP 251600Z 36007KT 9999 SCT035 30/20 Q1016=
2010042517 - SBKP 251700Z 35007KT 9999 BKN045 30/20 Q1015=
2010042518 - SBKP 251800Z 32006KT 9999 SCT042 FEW045TCU 30/20 Q1015=
2010042519 - SBKP 251900Z 33005KT 9999 SCT040 FEW045TCU 29/19 Q1015=
2010042520 - SBKP 252000Z 36006KT 9999 FEW040 FEW045TCU 29/19 Q1014=
2010042521 - SBKP 252100Z 03004KT 9999 FEW040 27/19 Q1015=
2010042522 - SBKP 252200Z 06003KT 9999 BKN045 26/19 Q1015=
2010042523 - SBKP 252300Z 07005KT 9999 SCT045 24/20 Q1016=
2010042600 - SBKP 260000Z 09004KT CAVOK 24/19 Q1016=
2010042601 - SBKP 260100Z 05004KT CAVOK 25/19 Q1016=
2010042602 - SBKP 260200Z 08005KT CAVOK 23/19 Q1016=
2010042603 - SBKP 260300Z 10005KT 9999 VCTS FEW040CB 21/19 Q1016=
2010042604 - SBKP 260400Z 09004KT 9999 VCTS FEW040CB SCT100 20/19 Q1015=
2010042605 - SBKP 260500Z 10005KT CAVOK 20/19 Q1015=
2010042606 - SBKP 260600Z 03002KT CAVOK 19/19 Q1014=
2010042607 - SBKP 260700Z 03002KT CAVOK 20/19 Q1014=
2010042608 - SBKP 260800Z 02005KT CAVOK 19/18 Q1015=
2010042609 - SBKP 260900Z 05002KT CAVOK 19/18 Q1015=
2010042610 - SBKP 261000Z 36005KT 7000 FEW045 SCT050 19/18 Q1017=
2010042611 - SBKP 261100Z 04007KT 9000 4000SE SCT040 23/19 Q1018=
2010042612 - SBKP 261200Z 35016KT 9999 SCT040 30/16 Q1015=
2010042613 - SBKP 261300Z 01015KT 9999 SCT040 26/17 Q1018=
2010042614 - SBKP 261400Z 36013KT 9999 FEW040 28/17 Q1017=
2010042615 - SBKP 261500Z 35013KT 9999 FEW040 29/15 Q1016=
2010042616 - SBKP 261600Z 35016KT 9999 SCT040 30/16 Q1015=
2010042617 - SBKP 261700Z 35014KT 9999 SCT040 30/15 Q1014=
2010042618 - SBKP 261800Z 33014KT 9999 FEW040 30/14 Q1013=
2010042619 - SBKP 261900Z 34012KT 9999 SCT040 30/13 Q1013=
2010042620 - SBKP 262000Z 34012KT 9999 FEW040 29/14 Q1014=
2010042621 - SBKP 262100Z 33005KT 9999 FEW040 26/14 Q1015=
2010042622 - SBKP 262200Z 01004KT CAVOK 25/15 Q1015=
2010042623 - SBKP 262300Z 04004KT CAVOK 24/15 Q1015=
2010042700 - SBKP 270000Z 04004KT CAVOK 24/16 Q1015=
2010042701 - SBKP 270100Z 03005KT CAVOK 23/16 Q1015=
2010042702 - SBKP 270200Z 02006KT CAVOK 22/16 Q1015=
2010042703 - SBKP 270300Z 36005KT CAVOK 22/16 Q1016=
2010042704 - SBKP 270400Z 01005KT CAVOK 21/16 Q1015=
2010042705 - SBKP 270500Z 27006G22KT 9999 FEW040 SCT060 BKN085 21/16 Q1015=
2010042706 - SBKP 270600Z 07005KT CAVOK 20/16 Q1015=
2010042707 - SBKP 270700Z 05004KT CAVOK 19/16 Q1015=
2010042708 - SBKP 270800Z 06004KT CAVOK 19/16 Q1015=
2010042709 - SBKP 270900Z 06003KT CAVOK 19/17 Q1016=
2010042710 - SBKP 271000Z 01003KT 5000 BR FEW040 SCT060 BKN090 20/17 Q1016=
2010042711 - SBKP 271100Z 02007KT 6000 FEW040 22/17 Q1017=
2010042712 - SBKP 271200Z 01010KT 8000 FEW040 25/17 Q1018=
2010042713 - SBKP 271300Z 36008KT 8000 FEW040 BKN080 25/18 Q1018=
2010042714 - SBKP 271400Z 35006KT 8000 FEW040 BKN070 27/18 Q1018=
2010042715 - SBKP 271500Z 27006KT 9000 VCSH SCT040TCU SCT070 26/18 Q1017=
2010042716 - SBKP 271600Z 29007KT 250V350 9999 SCT045 SCT070 29/19 Q1016=
2010042717 - SBKP 271700Z 24006KT 9999 SCT045 SCT070 28/18 Q1016=
2010042718 - SBKP 271800Z 23008KT 9999 SCT040 28/18 Q1016=
2010042719 - SBKP 271900Z 21008KT 9999 SCT037 27/19 Q1016=
2010042720 - SBKP 272000Z 22007KT 9999 FEW035 SCT060 27/18 Q1016=
2010042721 - SBKP 272100Z 21005KT 9999 FEW035 24/19 Q1016=
2010042722 - SBKP 272200Z 11008KT 9999 FEW035 21/18 Q1017=
2010042723 - SBKP 272300Z 11013KT CAVOK 20/17 Q1017=
2010042800 - SBKP 280000Z 11014KT CAVOK 19/17 Q1018=
2010042801 - SBKP 280100Z 12013KT CAVOK 19/17 Q1018=
2010042802 - SBKP 280200Z 12013KT 9999 FEW040 18/16 Q1019=
2010042803 - SBKP 280300Z 12014KT 9999 SCT040 18/17 Q1019=
2010042804 - SBKP 280400Z 12013KT 9999 SCT040 18/16 Q1018=
2010042805 - SBKP 280500Z 12012KT 9999 SCT040 18/16 Q1018=
2010042806 - SBKP 280600Z 11013KT 9999 FEW035 18/16 Q1018=
2010042807 - SBKP 280700Z 12011KT 9999 SCT037 18/16 Q1018=
2010042808 - SBKP 280800Z 12012KT 9999 FEW040 18/16 Q1018=
2010042809 - SBKP 280900Z 12012KT 9999 FEW040 17/16 Q1018=
2010042810 - SBKP 281000Z 11014KT 9999 FEW030 18/16 Q1018=
2010042811 - SBKP 281100Z 11013KT 9999 FEW030 20/17 Q1019=
2010042812 - SBKP 281200Z 11012KT 9999 FEW030 21/17 Q1020=
2010042813 - SBKP 281300Z 10009KT 9999 FEW030 23/17 Q1021=
2010042814 - SBKP 281400Z 13011KT 9999 SCT040 24/17 Q1021=
2010042815 - SBKP 281500Z 12006KT 9999 SCT040 26/17 Q1020=
2010042816 - SBKP 281600Z 11005KT 9999 BKN040 26/17 Q1019=
2010042817 - SBKP 281700Z 10006KT 9999 SCT040 27/17 Q1018=
2010042818 - SBKP 281800Z 20004KT 170V250 9999 SCT040 FEW050TCU 25/16 Q1018=
2010042819 - SBKP 281900Z 17008KT 9999 FEW040 26/17 Q1018=
2010042820 - SBKP 282000Z 17010KT 9999 FEW040 24/17 Q1018=
2010042821 - SBKP 282100Z 13010KT 9999 FEW040 22/16 Q1019=
2010042822 - SBKP 282200Z 14011KT 9999 FEW040 21/16 Q1019=
2010042823 - SBKP 282300Z 12013KT 9999 FEW040 19/16 Q1020=
2010042900 - SBKP 290000Z 12012KT 9999 FEW040 19/15 Q1020=
2010042901 - SBKP 290100Z 11013KT 9999 FEW040 18/15 Q1020=
2010042902 - SBKP 290200Z 11014KT CAVOK 18/15 Q1020=
2010042903 - SBKP 290300Z 11014KT CAVOK 17/15 Q1020=
2010042904 - SBKP 290400Z 11011KT CAVOK 17/15 Q1021=
2010042905 - SBKP 290500Z 13012KT CAVOK 17/15 Q1020=
2010042906 - SBKP 290600Z 12012KT 9999 -RA NSC 18/15 Q1020=
2010042907 - SBKP 290700Z 11013KT 9999 FEW025 BKN070 17/15 Q1019=
2010042908 - SBKP 290800Z 12012KT CAVOK 17/15 Q1019=
2010042909 - SBKP 290900Z 12012KT CAVOK 17/15 Q1019=
2010042910 - SBKP 291000Z 11010KT CAVOK 17/15 Q1020=
2010042911 - SBKP 291100Z 12010KT 9999 FEW030 19/16 Q1021=
2010042912 - SBKP 291200Z 12012KT 9999 FEW030 20/16 Q1021=
2010042913 - SBKP 291300Z 11009KT CAVOK 22/16 Q1021=
2010042914 - SBKP 291400Z 09005KT CAVOK 22/16 Q1021=
2010042915 - SBKP 291500Z 09003KT 9999 FEW035 24/16 Q1020=
2010042916 - SBKP 291600Z 15007KT 9999 FEW035 25/17 Q1019=
2010042917 - SBKP 291700Z 15006KT 9999 SCT040 26/16 Q1018=
2010042918 - SBKP 291800Z 16010KT 9999 SCT040 25/16 Q1018=
2010042919 - SBKP 291900Z 14011KT 9999 SCT040 BKN090 24/16 Q1018=
2010042920 - SBKP 292000Z 12012KT 9000 SCT035 BKN090 22/16 Q1018=
2010042921 - SBKP 292100Z 13013KT 7000 SCT035 BKN100 21/16 Q1018=
2010042922 - SBKP 292200Z 13014KT 9999 FEW035 BKN100 20/15 Q1018=
2010042923 - SBKP 292300Z 12013KT CAVOK 18/15 Q1019=
2010043000 - SBKP 300000Z 13013KT CAVOK 18/15 Q1019=
2010043001 - SBKP 300100Z 11014KT CAVOK 17/14 Q1019=
2010043002 - SBKP 300200Z 12015KT CAVOK 17/14 Q1019=
2010043003 - SBKP 300300Z 12014KT CAVOK 16/14 Q1019=
2010043004 - SBKP 300400Z 11012KT CAVOK 16/14 Q1018=
2010043005 - SBKP 300500Z 12010KT CAVOK 16/13 Q1018=
2010043006 - SBKP 300600Z 11010KT CAVOK 15/13 Q1017=
2010043007 - SBKP 300700Z 12010KT CAVOK 15/13 Q1017=
2010043008 - SBKP 300800Z 12008KT CAVOK 15/13 Q1017=
2010043009 - SBKP 300900Z 11008KT CAVOK 15/13 Q1018=
2010043010 - SBKP 301000Z 11008KT CAVOK 15/14 Q1019=
2010043011 - SBKP 301100Z 12012KT CAVOK 18/14 Q1020=
2010043012 - SBKP 301200Z 11010KT CAVOK 20/14 Q1020=
2010043013 - SBKP 301300Z 09008KT CAVOK 22/15 Q1020=
2010043014 - SBKP 301400Z 11005KT 9999 FEW030 24/15 Q1020=
2010043015 - SBKP 301500Z 11004KT 9999 SCT035 25/15 Q1019=
2010043016 - SBKP 301600Z 23002KT 9999 SCT040 25/14 Q1018=
2010043017 - SBKP 301700Z 20004KT 9999 SCT040 26/13 Q1018=
2010043018 - SBKP 301800Z 22006KT 9999 SCT040 26/13 Q1017=
2010043019 - SBKP 301900Z 19007KT 9999 FEW040 24/12 Q1017=
2010043020 - SBKP 302000Z 18007KT CAVOK 24/13 Q1017=
2010043021 - SBKP 302100Z 16009KT CAVOK 22/14 Q1018=
2010043022 - SBKP 302200Z 15010KT 9999 FEW040 SCT075 20/14 Q1018=
2010043023 - SBKP 302300Z 12010KT CAVOK 18/14 Q1019=
2010050100 - SBKP 010000Z 12009KT CAVOK 17/14 Q1019=
2010050101 - SBKP 010100Z 12011KT CAVOK 16/14 Q1020=
2010050102 - SBKP 010200Z 12010KT CAVOK 16/14 Q1020=
2010050103 - SBKP 010300Z 11007KT CAVOK 15/13 Q1019=
2010050104 - SBKP 010400Z 11009KT CAVOK 14/13 Q1019=
2010050105 - SBKP 010500Z 11008KT CAVOK 14/13 Q1019=
2010050106 - SBKP 010600Z 14007KT CAVOK 13/13 Q1019=
2010050107 - SBKP 010700Z 14004KT CAVOK 13/12 Q1018=
2010050108 - SBKP 010800Z 14004KT CAVOK 13/12 Q1018=
2010050109 - SBKP 010900Z 15005KT CAVOK 12/12 Q1019=
2010050109 - SBKP 010944Z 11009KT 1500 R15///// R33///// BR BKN002 12/12 Q1019=
2010050110 - SBKP 011000Z 11008KT 0500 R15///// R33///// FG BKN002 12/12 Q1019=
2010050111 - SBKP 011100Z 11007KT 0600 R15///// R33///// FG BKN002 13/13 Q1020=
2010050111 - SBKP 011130Z 10008KT 1000 R15///// R33///// BR SCT003 14/14 Q1020=
2010050112 - SBKP 011200Z 11006KT 5000 2000SE BR SCT004 15/15 Q1020=
2010050113 - SBKP 011300Z 13007KT 5000 BR FEW015 19/15 Q1021=
2010050114 - SBKP 011400Z 15005KT 9999 FEW020 21/13 Q1021=
2010050115 - SBKP 011500Z 13007KT 9999 FEW020 23/10 Q1020=
2010050116 - SBKP 011600Z 13005KT 9999 FEW020 23/09 Q1019=
2010050117 - SBKP 011700Z 18004KT 9999 FEW020 24/09 Q1018=
2010050118 - SBKP 011800Z 18005KT CAVOK 24/10 Q1017=
2010050119 - SBKP 011900Z 19005KT CAVOK 24/10 Q1017=
2010050120 - SBKP 012000Z 20008KT CAVOK 23/09 Q1017=
2010050121 - SBKP 012100Z 17006KT CAVOK 20/09 Q1018=
2010050122 - SBKP 012200Z 16004KT CAVOK 19/09 Q1018=
2010050123 - SBKP 012300Z 13005KT CAVOK 16/09 Q1018=
2010050200 - SBKP 020000Z 15006KT CAVOK 16/11 Q1019=
2010050201 - SBKP 020100Z 12007KT CAVOK 14/12 Q1019=
2010050202 - SBKP 020200Z 12008KT CAVOK 14/13 Q1020=
2010050203 - SBKP 020300Z 12008KT CAVOK 14/13 Q1020=
2010050204 - SBKP 020400Z 11011KT CAVOK 14/13 Q1019=
2010050205 - SBKP 020500Z 11010KT CAVOK 14/13 Q1019=
2010050206 - SBKP 020600Z 12011KT 7000 NSC 14/13 Q1018=
2010050207 - SBKP 020700Z 15010KT 7000 NSC 13/13 Q1018=
2010050208 - SBKP 020800Z 12006KT 7000 NSC 13/12 Q1018=
2010050209 - SBKP 020900Z 13010KT 5000 BR NSC 12/12 Q1018=
2010050209 - SBKP 020918Z 12009KT 3000 BR NSC 12/12 Q1018=
2010050210 - SBKP 021000Z 10006KT 2000 BR NSC 13/13 Q1019=
2010050211 - SBKP 021100Z 11008KT 5000 2000E BR NSC 15/14 Q1020=
2010050212 - SBKP 021200Z 10006KT 8000 3500E NSC 18/14 Q1020=
2010050213 - SBKP 021300Z 06005KT CAVOK 22/15 Q1021=
2010050214 - SBKP 021400Z 02005KT 9999 FEW030 23/13 Q1020=
2010050215 - SBKP 021500Z 35005KT CAVOK 24/11 Q1019=
2010050216 - SBKP 021600Z 33004KT CAVOK 25/10 Q1019=
2010050217 - SBKP 021700Z 03004KT CAVOK 27/11 Q1018=
2010050218 - SBKP 021800Z 31003KT CAVOK 26/11 Q1018=
2010050219 - SBKP 021900Z 30002KT CAVOK 26/12 Q1017=
2010050220 - SBKP 022000Z 07002KT CAVOK 24/12 Q1018=
2010050221 - SBKP 022100Z 18003KT CAVOK 23/11 Q1018=
2010050222 - SBKP 022200Z 17004KT CAVOK 22/12 Q1018=
2010050223 - SBKP 022300Z 14005KT CAVOK 19/12 Q1019=
2010050300 - SBKP 030000Z 12007KT CAVOK 16/12 Q1020=
2010050301 - SBKP 030100Z 12008KT CAVOK 17/13 Q1020=
2010050302 - SBKP 030200Z 12010KT CAVOK 16/14 Q1020=
2010050303 - SBKP 030300Z 12011KT CAVOK 16/14 Q1020=
2010050304 - SBKP 030400Z 12011KT CAVOK 16/14 Q1019=
2010050305 - SBKP 030500Z 12009KT CAVOK 15/14 Q1019=
2010050306 - SBKP 030600Z 12010KT CAVOK 15/14 Q1018=
2010050307 - SBKP 030700Z 14009KT CAVOK 15/13 Q1018=
2010050308 - SBKP 030800Z 13007KT CAVOK 17/13 Q1018=
2010050309 - SBKP 030900Z 12007KT CAVOK 14/13 Q1018=
2010050310 - SBKP 031000Z 13004KT 6000 NSC 15/13 Q1019=
2010050311 - SBKP 031100Z 10007KT 8000 NSC 18/14 Q1020=
2010050312 - SBKP 031200Z 07003KT CAVOK 22/15 Q1020=
2010050313 - SBKP 031300Z 32003KT CAVOK 24/15 Q1020=
2010050314 - SBKP 031400Z 36005KT CAVOK 26/15 Q1020=
2010050315 - SBKP 031500Z 36009KT CAVOK 27/16 Q1019=
2010050316 - SBKP 031600Z 35010KT 9999 FEW030 28/13 Q1018=
2010050317 - SBKP 031700Z 33007KT 9999 SCT040 29/13 Q1018=
2010050318 - SBKP 031800Z 33008KT 9999 SCT045 28/13 Q1017=
2010050319 - SBKP 031900Z 33006KT 9999 FEW045 27/13 Q1017=
2010050320 - SBKP 032000Z 34006KT 9999 FEW045 27/14 Q1017=
2010050321 - SBKP 032100Z 32004KT 9999 FEW045 24/13 Q1017=
2010050322 - SBKP 032200Z 35003KT 9999 FEW045 23/13 Q1017=
2010050323 - SBKP 032300Z 01003KT CAVOK 21/14 Q1018=
2010050400 - SBKP 040000Z 11005KT 9999 FEW045 19/15 Q1018=
2010050401 - SBKP 040100Z 11006KT CAVOK 18/15 Q1018=
2010050402 - SBKP 040200Z 11006KT CAVOK 17/15 Q1018=
2010050403 - SBKP 040300Z 11007KT CAVOK 16/15 Q1018=
2010050404 - SBKP 040400Z 10007KT CAVOK 16/15 Q1017=
2010050405 - SBKP 040500Z 11006KT CAVOK 16/14 Q1017=
2010050406 - SBKP 040600Z 11008KT CAVOK 16/14 Q1017=
2010050407 - SBKP 040700Z 10005KT CAVOK 15/14 Q1017=
2010050408 - SBKP 040800Z 12005KT CAVOK 15/14 Q1017=
2010050409 - SBKP 040900Z 11004KT CAVOK 14/14 Q1017=
2010050410 - SBKP 041000Z 13006KT 6000 NSC 14/14 Q1017=
2010050411 - SBKP 041100Z 09003KT 8000 NSC 19/15 Q1018=
2010050412 - SBKP 041200Z 01005KT 8000 NSC 22/14 Q1018=
2010050413 - SBKP 041300Z 02010KT CAVOK 24/14 Q1018=
2010050414 - SBKP 041400Z 01010KT CAVOK 26/15 Q1018=
2010050415 - SBKP 041500Z 36009KT CAVOK 27/15 Q1017=
2010050416 - SBKP 041600Z 33012KT 9999 FEW040 28/15 Q1016=
2010050417 - SBKP 041700Z 34009KT 9999 FEW040 28/15 Q1015=
2010050418 - SBKP 041800Z 32010KT 9999 SCT045 28/14 Q1015=
2010050419 - SBKP 041900Z 33005KT 9999 FEW045 28/14 Q1014=
2010050420 - SBKP 042000Z 35005KT CAVOK 26/14 Q1015=
2010050421 - SBKP 042100Z 30004KT 8000 NSC 25/15 Q1015=
2010050422 - SBKP 042200Z 24002KT 8000 NSC 24/15 Q1015=
2010050423 - SBKP 042300Z 21002KT CAVOK 22/16 Q1015=
2010050500 - SBKP 050000Z 09003KT CAVOK 21/16 Q1016=
2010050501 - SBKP 050100Z 08002KT CAVOK 20/16 Q1016=
2010050502 - SBKP 050200Z 08004KT CAVOK 19/16 Q1016=
2010050503 - SBKP 050300Z 11005KT CAVOK 18/16 Q1016=
2010050504 - SBKP 050400Z 10006KT CAVOK 18/16 Q1015=
2010050505 - SBKP 050500Z 11007KT CAVOK 17/16 Q1015=
2010050506 - SBKP 050600Z 09003KT CAVOK 17/16 Q1015=
2010050507 - SBKP 050700Z 10002KT CAVOK 17/15 Q1014=
2010050508 - SBKP 050800Z 07003KT CAVOK 16/15 Q1014=
2010050509 - SBKP 050900Z 09002KT CAVOK 16/15 Q1015=
2010050510 - SBKP 051000Z 02003KT 8000 3000NE NSC 16/15 Q1016=
2010050511 - SBKP 051100Z 07004KT 8000 3000E NSC 19/16 Q1016=
2010050512 - SBKP 051200Z 01007KT 9999 4500E NSC 22/16 Q1017=
2010050513 - SBKP 051300Z 01007KT CAVOK 24/16 Q1017=
2010050514 - SBKP 051400Z 33007KT CAVOK 26/16 Q1016=
2010050515 - SBKP 051500Z 35010KT CAVOK 27/17 Q1016 WS R33=
2010050516 - SBKP 051600Z 31009KT CAVOK 28/17 Q1015=
2010050517 - SBKP 051700Z 29008KT 9999 SCT048 29/17 Q1014=
2010050518 - SBKP 051800Z 29008KT 9999 SCT048 29/17 Q1013=
2010050519 - SBKP 051900Z 27007KT 9999 SCT045 28/17 Q1014=
2010050520 - SBKP 052000Z 27006KT 9999 FEW045 27/17 Q1014=
2010050521 - SBKP 052100Z 24005KT 7000 SCT045 25/17 Q1014=
2010050522 - SBKP 052200Z 20006KT 8000 FEW045 23/18 Q1015=
2010050523 - SBKP 052300Z 16005KT 9000 FEW045 22/18 Q1016=
2010050500 - SBKP 050000Z 09003KT CAVOK 21/16 Q1016=
2010050501 - SBKP 050100Z 08002KT CAVOK 20/16 Q1016=
2010050502 - SBKP 050200Z 08004KT CAVOK 19/16 Q1016=
2010050503 - SBKP 050300Z 11005KT CAVOK 18/16 Q1016=
2010050504 - SBKP 050400Z 10006KT CAVOK 18/16 Q1015=
2010050505 - SBKP 050500Z 11007KT CAVOK 17/16 Q1015=
2010050506 - SBKP 050600Z 09003KT CAVOK 17/16 Q1015=
2010050507 - SBKP 050700Z 10002KT CAVOK 17/15 Q1014=
2010050508 - SBKP 050800Z 07003KT CAVOK 16/15 Q1014=
2010050509 - SBKP 050900Z 09002KT CAVOK 16/15 Q1015=
2010050510 - SBKP 051000Z 02003KT 8000 3000NE NSC 16/15 Q1016=
2010050511 - SBKP 051100Z 07004KT 8000 3000E NSC 19/16 Q1016=
2010050512 - SBKP 051200Z 01007KT 9999 4500E NSC 22/16 Q1017=
2010050513 - SBKP 051300Z 01007KT CAVOK 24/16 Q1017=
2010050514 - SBKP 051400Z 33007KT CAVOK 26/16 Q1016=
2010050515 - SBKP 051500Z 35010KT CAVOK 27/17 Q1016 WS R33=
2010050516 - SBKP 051600Z 31009KT CAVOK 28/17 Q1015=
2010050517 - SBKP 051700Z 29008KT 9999 SCT048 29/17 Q1014=
2010050518 - SBKP 051800Z 29008KT 9999 SCT048 29/17 Q1013=
2010050519 - SBKP 051900Z 27007KT 9999 SCT045 28/17 Q1014=
2010050520 - SBKP 052000Z 27006KT 9999 FEW045 27/17 Q1014=
2010050521 - SBKP 052100Z 24005KT 7000 SCT045 25/17 Q1014=
2010050522 - SBKP 052200Z 20006KT 8000 FEW045 23/18 Q1015=
2010050523 - SBKP 052300Z 16005KT 9000 FEW045 22/18 Q1016=
2010050600 - SBKP 060000Z 13004KT CAVOK 20/18 Q1016=
2010050701 - SBKP 070100Z 13007KT CAVOK 19/16 Q1019=
2010050702 - SBKP 070200Z 13007KT CAVOK 18/16 Q1019=
2010050703 - SBKP 070300Z 11008KT CAVOK 18/16 Q1019=
2010050704 - SBKP 070400Z 09007KT CAVOK 17/16 Q1018=
2010050705 - SBKP 070500Z 12008KT CAVOK 17/16 Q1018=
2010050706 - SBKP 070600Z 11009KT CAVOK 17/16 Q1018=
2010050707 - SBKP 070700Z 10008KT CAVOK 16/15 Q1018=
2010050708 - SBKP 070800Z 12005KT CAVOK 17/15 Q1018=
2010050709 - SBKP 070900Z 08004KT CAVOK 15/15 Q1018=
2010050710 - SBKP 071000Z 09006KT 5000 BR NSC 16/15 Q1019=
2010050711 - SBKP 071100Z 11006KT 7000 3300E NSC 19/16 Q1020=
2010050712 - SBKP 071200Z 06006KT 9999 4500E NSC 22/16 Q1019=
2010050713 - SBKP 071300Z 02005KT CAVOK 26/15 Q1020=
2010050714 - SBKP 071400Z 04005KT CAVOK 28/14 Q1019=
2010050715 - SBKP 071500Z 01008KT CAVOK 30/12 Q1018=
2010050716 - SBKP 071600Z 01007KT CAVOK 31/11 Q1017=
2010050717 - SBKP 071700Z 35007KT CAVOK 31/11 Q1016=
2010050718 - SBKP 071800Z 35008KT CAVOK 30/11 Q1016=
2010050719 - SBKP 071900Z 35005KT CAVOK 29/13 Q1016=
2010050720 - SBKP 072000Z 32003KT CAVOK 28/13 Q1016=
2010050721 - SBKP 072100Z 28003KT 6000 FEW045 27/12 Q1016=
2010050722 - SBKP 072200Z 19003KT 9999 FEW045 24/14 Q1016=
2010050723 - SBKP 072300Z 12006KT 9999 -RA FEW010 SCT030 BKN070 21/18 Q1017=
2010050800 - SBKP 080000Z 10010KT 8000 FEW040 SCT090 21/18 Q1017=
2010050801 - SBKP 080100Z 11011KT 8000 NSC 20/18 Q1017=
2010050802 - SBKP 080200Z 11010KT 8000 NSC 20/17 Q1017=
2010050803 - SBKP 080300Z 11008KT 5000 BR NSC 19/17 Q1017=
2010050804 - SBKP 080400Z 09007KT 5000 BR FEW045 19/17 Q1017=
2010050805 - SBKP 080500Z 10008KT 5000 2000E BR NSC 18/17 Q1016=
2010050806 - SBKP 080600Z 09007KT 5000 2400E BR NSC 18/17 Q1015=
2010050807 - SBKP 080700Z 10004KT 5000 BR NSC 18/17 Q1016=
2010050808 - SBKP 080800Z 22005KT 5000 BR NSC 18/17 Q1016=
2010050809 - SBKP 080900Z 11002KT 4000 BR NSC 18/17 Q1016=
2010050809 - SBKP 080920Z 11002KT 2000 BR NSC 18/17 Q1017=
2010050810 - SBKP 081000Z 15003KT 2000 BR NSC 18/17 Q1017=
2010050811 - SBKP 081100Z 10002KT 3000 BR NSC 20/18 Q1017=
2010050812 - SBKP 081200Z 04003KT 3500 HZ FEW045 BKN100 22/18 Q1017=
2010050812 - SBKP 081248Z 26012KT 2500 RA BR SCT030 BKN080 21/18 Q1019=
2010050813 - SBKP 081300Z 26011KT 1800 R15///// R33///// RA BR SCT030 BKN080 20/18 Q1019=
2010050813 - SBKP 081315Z 28003KT 2000 -RA BR SCT030 BKN080 19/19 Q1019 RERA=
2010050814 - SBKP 081400Z 36002KT 3000 BR FEW030 BKN080 20/19 Q1018 RERA=
2010050815 - SBKP 081500Z 36004KT 4000 -RA BR BKN020 BKN080 20/19 Q1017=
2010050816 - SBKP 081600Z 30002KT 4000 BR FEW040 BKN080 21/19 Q1017=
2010050817 - SBKP 081700Z 29001KT 4500 BR FEW040 BKN100 20/20 Q1015=
2010050818 - SBKP 081800Z 28003KT 6000 FEW040 BKN100 23/20 Q1015=
2010050819 - SBKP 081900Z 26006KT 5000 BR FEW015 SCT040 BKN070 23/19 Q1015=
2010050820 - SBKP 082000Z 30006KT 5000 BR SCT040 BKN070 22/20 Q1015=
2010050821 - SBKP 082100Z 30012KT 9999 FEW022 BKN045 BKN070 21/18 Q1016=
2010050822 - SBKP 082200Z 32006KT 9999 FEW010 BKN045 BKN070 20/19 Q1016=
2010050823 - SBKP 082300Z 20012KT 9999 -RA SCT005 BKN045 OVC070 19/17 Q1017=
2010050900 - SBKP 090000Z 12008KT 9999 -RA FEW009 SCT040 BKN070 18/17 Q1017=
2010050901 - SBKP 090100Z 12009KT 9999 FEW035 SCT045 BKN070 17/17 Q1017=
2010050902 - SBKP 090200Z 17003KT 9999 -RA FEW035 SCT045 BKN070 17/17 Q1018=
2010050903 - SBKP 090300Z 18005KT 7000 -RA SCT010 SCT013 OVC070 17/17 Q1018=
2010050903 - SBKP 090330Z 21003KT 7000 -RA FEW002 BKN008 BKN013 17/17 Q1018=
2010050904 - SBKP 090400Z 22005KT 8000 -RA FEW002 SCT008 OVC070 17/16 Q1018=
2010050905 - SBKP 090500Z 23004KT 9000 -RA FEW002 SCT040 OVC070 16/16 Q1018=
2010050906 - SBKP 090600Z 21007KT 9000 -RA SCT002 SCT030 OVC070 16/16 Q1017=
2010050906 - SBKP 090610Z 19008KT 9000 -RA SCT002 BKN005 OVC070 16/16 Q1017=
2010050907 - SBKP 090700Z 21007KT 8000 -RA FEW002 BKN005 OVC070 16/16 Q1017=
2010050907 - SBKP 090735Z 17006KT 8000 -RA FEW002 SCT005 OVC070 16/16 Q1016=
2010050908 - SBKP 090800Z 17002KT 9000 -RA SCT005 SCT022 BKN070 16/16 Q1016=
2010050909 - SBKP 090900Z 22004KT 8000 1500NW -RA SCT001 BKN010 BKN070 16/16 Q1017=
2010050910 - SBKP 091000Z 18005KT 4000 BR SCT001 BKN010 BKN022 16/16 Q1018=
2010050911 - SBKP 091100Z 20006KT 8000 FEW002 BKN020 BKN070 17/16 Q1019=
2010050912 - SBKP 091200Z 18006KT 9000 BKN020 BKN080 17/16 Q1019=
2010050913 - SBKP 091300Z 13009KT 9999 BKN020 BKN080 19/15 Q1020=
2010050914 - SBKP 091400Z 16006KT 9999 BKN035 BKN080 20/15 Q1020=
2010050915 - SBKP 091500Z 18009KT 9999 BKN030 20/14 Q1019=
2010050916 - SBKP 091600Z 14006KT 9999 BKN035 21/15 Q1018=
2010050917 - SBKP 091700Z 15010KT 9999 SCT030 20/14 Q1018=
2010050918 - SBKP 091800Z 16010KT 9999 SCT030 21/14 Q1018=
2010050919 - SBKP 091900Z 15010KT 9999 SCT030 SCT040 20/14 Q1018=
2010050920 - SBKP 092000Z 19011KT 9999 FEW030 SCT045 19/14 Q1019=
2010050921 - SBKP 092100Z 18013KT 9999 FEW030 SCT040 17/13 Q1019=
2010050922 - SBKP 092200Z 19009KT 9999 FEW030 SCT070 16/13 Q1019=
2010050923 - SBKP 092300Z 18007KT 9999 SCT028 SCT070 15/13 Q1020=
2010051000 - SBKP 100000Z 17008KT 9999 BKN024 15/13 Q1020=
2010051001 - SBKP 100100Z 16008KT 9999 SCT024 15/12 Q1020=
2010051002 - SBKP 100200Z 15006KT 9999 SCT025 14/12 Q1020=
2010051003 - SBKP 100300Z 15008KT 9999 BKN025 14/12 Q1020=
2010051004 - SBKP 100400Z 14006KT 9999 SCT030 14/12 Q1020=
2010051005 - SBKP 100500Z 18004KT 9999 SCT025 14/12 Q1020=
2010051006 - SBKP 100600Z 15003KT 9999 FEW025 13/11 Q1019=
2010051007 - SBKP 100700Z 18005KT 9999 SCT025 13/12 Q1019=
2010051008 - SBKP 100800Z 14006KT 9999 SCT025 13/11 Q1018=
2010051009 - SBKP 100900Z 14007KT 9999 SCT025 13/11 Q1019=
2010051010 - SBKP 101000Z 14008KT 9999 SCT025 13/11 Q1020=
2010051011 - SBKP 101100Z 15007KT 9999 SCT025 15/12 Q1020=
2010051012 - SBKP 101200Z 14010KT 9999 SCT035 17/12 Q1020=
2010051013 - SBKP 101300Z 13015KT 9999 BKN030 17/12 Q1021=
2010051014 - SBKP 101400Z 15011KT 9999 BKN030 18/11 Q1020=
2010051015 - SBKP 101500Z 16010KT 9999 BKN035 18/12 Q1020=
2010051016 - SBKP 101600Z 16011KT 9999 BKN040 20/12 Q1019=
2010051017 - SBKP 101700Z 15010KT 9999 SCT040 19/11 Q1018=
2010051018 - SBKP 101800Z 13011KT 9999 SCT045 21/11 Q1017=
2010051019 - SBKP 101900Z 15011KT 9999 SCT048 21/12 Q1017=
2010051020 - SBKP 102000Z 16011KT 9999 FEW048 19/11 Q1018=
2010051021 - SBKP 102100Z 16007KT CAVOK 17/12 Q1018=
2010051022 - SBKP 102200Z 17006KT CAVOK 15/12 Q1018=
2010051023 - SBKP 102300Z 17007KT CAVOK 14/12 Q1018=
2010051100 - SBKP 110000Z 16005KT CAVOK 13/11 Q1019=
2010051101 - SBKP 110100Z 18002KT CAVOK 13/11 Q1020=
2010051102 - SBKP 110200Z 18003KT CAVOK 13/11 Q1019=
2010051103 - SBKP 110300Z 21004KT 9999 FEW020 12/11 Q1018=
2010051104 - SBKP 110400Z 17005KT 9999 FEW020 11/11 Q1018=
2010051105 - SBKP 110500Z 20002KT 9999 FEW020 12/12 Q1017=
2010051106 - SBKP 110600Z 24003KT 9999 BKN020 11/11 Q1017=
2010051107 - SBKP 110700Z 20006KT 9000 SCT020 10/10 Q1017=
2010051108 - SBKP 110800Z 17005KT 9999 FEW020 11/11 Q1016=
2010051109 - SBKP 110900Z 16003KT 9999 4000SE FEW025 11/10 Q1017=
2010051110 - SBKP 111000Z 12001KT 4000 0800NW BCFG BR FEW025 11/10 Q1017=
2010051111 - SBKP 111100Z 14003KT 5000 BR FEW040 SCT080 13/13 Q1018=
2010051112 - SBKP 111200Z 21001KT 5000 BR FEW040 SCT070 14/12 Q1018=
2010051113 - SBKP 111300Z 00000KT 5000 HZ SCT040 SCT070 18/13 Q1018=
2010051114 - SBKP 111400Z 33003KT 6000 SCT040 SCT070 19/13 Q1018=
2010051115 - SBKP 111500Z 30004KT 7000 BKN030 SCT080 20/12 Q1017=
2010051116 - SBKP 111600Z 27005KT 9999 BKN035 FEW040TCU 20/12 Q1016=
2010051117 - SBKP 111700Z 27005KT 9999 BKN035 FEW040TCU 22/13 Q1015=
2010051118 - SBKP 111800Z 23007KT 9999 BKN035 22/11 Q1015=
2010051119 - SBKP 111900Z 27009KT 9999 SCT040 22/09 Q1014=
2010051120 - SBKP 112000Z 25009KT 9999 FEW040 SCT070 20/08 Q1015=
2010051121 - SBKP 112100Z 24004KT CAVOK 18/08 Q1015=
2010051122 - SBKP 112200Z 24004KT CAVOK 17/08 Q1015=
2010051123 - SBKP 112300Z 09005KT CAVOK 14/09 Q1016=
2010051200 - SBKP 120000Z 13003KT CAVOK 13/09 Q1016=
2010051201 - SBKP 120100Z 13006KT CAVOK 12/08 Q1015=
2010051202 - SBKP 120200Z 09006KT CAVOK 10/08 Q1015=
2010051203 - SBKP 120300Z 21008KT CAVOK 12/09 Q1015=
2010051204 - SBKP 120400Z 22010KT 9999 FEW020 11/09 Q1015=
2010051205 - SBKP 120500Z 21006KT 9999 FEW020 11/09 Q1015=
2010051206 - SBKP 120600Z 12002KT 9999 FEW020 09/09 Q1014=
2010051207 - SBKP 120700Z 08004KT CAVOK 09/09 Q1014=
2010051208 - SBKP 120800Z 01004KT 9999 SCT045 BKN080 10/09 Q1014=
2010051209 - SBKP 120900Z 35005KT 9999 BKN045 SCT080 10/09 Q1014=
2010051210 - SBKP 121000Z 04004KT 9999 SCT045 SCT080 10/09 Q1015=
2010051211 - SBKP 121100Z 35003KT 5000 BR SCT045 SCT080 12/10 Q1015=
2010051212 - SBKP 121200Z 01006KT 5000 HZ FEW045 BKN080 14/11 Q1015=
2010051213 - SBKP 121300Z 33010KT 7000 FEW045 SCT080 17/11 Q1016=
2010051214 - SBKP 121400Z 32011KT 9999 FEW040 SCT080 19/10 Q1015=
2010051215 - SBKP 121500Z 30012KT 9999 BKN040 18/07 Q1015=
2010051216 - SBKP 121600Z 30013KT 9999 BKN045 18/07 Q1015=
2010051217 - SBKP 121700Z 31018KT 9999 SCT045 19/06 Q1014=
2010051218 - SBKP 121800Z 29012KT 9999 SCT045 19/05 Q1014=
2010051219 - SBKP 121900Z 30014KT 9999 SCT045 19/05 Q1014=
2010051220 - SBKP 122000Z 30010KT 9999 SCT045 17/05 Q1015=
2010051221 - SBKP 122100Z 30007KT 9999 FEW045 14/05 Q1015=
2010051222 - SBKP 122200Z 30006KT CAVOK 13/05 Q1016=
2010051223 - SBKP 122300Z 32004KT 9999 FEW030 13/06 Q1017=
2010051300 - SBKP 130000Z 31006KT CAVOK 12/06 Q1017=
2010051301 - SBKP 130100Z 32005KT CAVOK 11/06 Q1017=
2010051302 - SBKP 130200Z 33005KT CAVOK 11/06 Q1017=
2010051303 - SBKP 130300Z 31005KT CAVOK 10/06 Q1017=
2010051304 - SBKP 130400Z 01003KT CAVOK 10/07 Q1017=
2010051305 - SBKP 130500Z 34005KT CAVOK 10/06 Q1017=
2010051306 - SBKP 130600Z 36005KT CAVOK 09/06 Q1016=
2010051307 - SBKP 130700Z 36004KT CAVOK 09/06 Q1017=
2010051308 - SBKP 130800Z 36004KT CAVOK 09/06 Q1017=
2010051309 - SBKP 130900Z 02004KT 9999 BKN038 09/07 Q1018=
2010051310 - SBKP 131000Z 01004KT 9999 BKN035 10/07 Q1019=
2010051311 - SBKP 131100Z 34003KT 7000 BKN037 11/08 Q1020=
2010051312 - SBKP 131200Z 36003KT 7000 BKN035 12/08 Q1020=
2010051313 - SBKP 131300Z 26004KT 8000 FEW035 16/09 Q1020=
2010051314 - SBKP 131400Z 26006KT 9999 BKN025 17/10 Q1020=
2010051315 - SBKP 131500Z 30006KT 9999 BKN033 18/10 Q1019=
2010051316 - SBKP 131600Z 08002KT 9999 BKN033 18/10 Q1019=
2010051317 - SBKP 131700Z 26001KT 9999 BKN040 19/10 Q1018=
2010051318 - SBKP 131800Z 24002KT 9999 SCT040 21/11 Q1018=
2010051319 - SBKP 131900Z 25005KT 9999 SCT037 19/10 Q1018=
2010051320 - SBKP 132000Z 27005KT 9999 SCT035 19/10 Q1018=
2010051321 - SBKP 132100Z 28004KT 9999 FEW030 17/10 Q1018=
2010051322 - SBKP 132200Z 28003KT CAVOK 17/10 Q1019=
2010051323 - SBKP 132300Z 23003KT CAVOK 16/10 Q1020=
2010051400 - SBKP 140000Z 12003KT CAVOK 13/10 Q1021=
2010051401 - SBKP 140100Z 13005KT CAVOK 12/10 Q1021=
2010051402 - SBKP 140200Z 12006KT CAVOK 11/10 Q1021=
2010051403 - SBKP 140300Z 11007KT CAVOK 11/10 Q1021=
2010051404 - SBKP 140400Z 12008KT CAVOK 11/10 Q1020=
2010051405 - SBKP 140500Z 10007KT CAVOK 11/10 Q1020=
2010051406 - SBKP 140600Z 11007KT CAVOK 11/10 Q1020=
2010051407 - SBKP 140700Z 11007KT CAVOK 11/10 Q1020=
2010051408 - SBKP 140800Z 12008KT CAVOK 11/10 Q1020=
2010051409 - SBKP 140900Z 14005KT CAVOK 11/11 Q1020=
2010051410 - SBKP 141000Z 10005KT CAVOK 11/11 Q1021=
2010051411 - SBKP 141100Z 11005KT 9999 SCT020 15/13 Q1022=
2010051412 - SBKP 141200Z 12008KT 9999 SCT020 17/14 Q1022=
2010051413 - SBKP 141300Z 13012KT 9999 SCT023 18/14 Q1023=
2010051414 - SBKP 141400Z 15011KT 9999 BKN030 20/14 Q1022=
2010051415 - SBKP 141500Z 11009KT 9999 SCT035 21/13 Q1021=
2010051416 - SBKP 141600Z 11005KT 9999 SCT035 22/13 Q1020=
2010051417 - SBKP 141700Z 11006KT 9999 FEW040 23/12 Q1019=
2010051418 - SBKP 141800Z 14007KT CAVOK 22/13 Q1019=
2010051419 - SBKP 141900Z 13010KT 9999 FEW040 22/14 Q1018=
2010051420 - SBKP 142000Z 13012KT CAVOK 20/13 Q1019=
2010051421 - SBKP 142100Z 12008KT CAVOK 17/13 Q1019=
2010051422 - SBKP 142200Z 12009KT CAVOK 16/12 Q1019=
2010051423 - SBKP 142300Z 12010KT CAVOK 15/12 Q1020=
2010051500 - SBKP 150000Z 12011KT CAVOK 15/12 Q1020=
2010051501 - SBKP 150100Z 11012KT CAVOK 15/13 Q1020=
2010051502 - SBKP 150200Z 12013KT CAVOK 15/13 Q1020=
2010051503 - SBKP 150300Z 11012KT CAVOK 14/13 Q1020=
2010051504 - SBKP 150400Z 12013KT CAVOK 14/13 Q1019=
2010051505 - SBKP 150500Z 12012KT CAVOK 14/13 Q1019=
2010051506 - SBKP 150600Z 11012KT 9000 NSC 14/13 Q1018=
2010051507 - SBKP 150700Z 11011KT 9000 NSC 14/13 Q1018=
2010051508 - SBKP 150800Z 11010KT CAVOK 13/13 Q1018=
2010051509 - SBKP 150900Z 11008KT CAVOK 13/13 Q1019=
2010051510 - SBKP 151000Z 12011KT CAVOK 14/13 Q1019=
2010051511 - SBKP 151100Z 12011KT CAVOK 14/13 Q1020=
2010051512 - SBKP 151200Z 10008KT CAVOK 15/13 Q1020=
2010051513 - SBKP 151300Z 11008KT CAVOK 19/14 Q1021=
2010051514 - SBKP 151400Z 06004KT CAVOK 22/14 Q1020=
2010051515 - SBKP 151500Z 29004KT CAVOK 24/11 Q1019=
2010051516 - SBKP 151600Z 33004KT CAVOK 25/12 Q1018=
2010051517 - SBKP 151700Z 30005KT CAVOK 26/12 Q1018=
2010051518 - SBKP 151800Z 31006KT CAVOK 26/11 Q1017=
2010051519 - SBKP 151900Z 30003KT CAVOK 26/11 Q1017=
2010051520 - SBKP 152000Z 33002KT CAVOK 23/12 Q1017=
2010051521 - SBKP 152100Z 07002KT 8000 NSC 21/09 Q1017=
2010051522 - SBKP 152200Z 08003KT CAVOK 18/10 Q1018=
2010051523 - SBKP 152300Z 21002KT CAVOK 18/10 Q1018=
2010051600 - SBKP 160000Z 12002KT CAVOK 14/11 Q1019=
2010051601 - SBKP 160100Z 10006KT CAVOK 13/11 Q1019=
2010051602 - SBKP 160200Z 12007KT CAVOK 13/11 Q1019=
2010051603 - SBKP 160300Z 10008KT CAVOK 13/11 Q1019=
2010051604 - SBKP 160400Z 12009KT CAVOK 13/11 Q1018=
2010051605 - SBKP 160500Z 11007KT CAVOK 12/10 Q1018=
2010051606 - SBKP 160600Z 10005KT CAVOK 11/10 Q1018=
2010051607 - SBKP 160700Z 10008KT CAVOK 12/11 Q1017=
2010051608 - SBKP 160800Z 12005KT CAVOK 11/11 Q1017=
2010051609 - SBKP 160900Z 11005KT CAVOK 11/10 Q1017=
2010051610 - SBKP 161000Z 14005KT CAVOK 11/10 Q1018=
2010051611 - SBKP 161100Z 12005KT CAVOK 14/12 Q1019=
2010051612 - SBKP 161200Z 13003KT CAVOK 17/12 Q1019=
2010051613 - SBKP 161300Z 13003KT CAVOK 21/11 Q1019=
2010051614 - SBKP 161400Z 26002KT CAVOK 23/11 Q1019=
2010051615 - SBKP 161500Z 29003KT CAVOK 25/11 Q1019=
2010051616 - SBKP 161600Z 34002KT CAVOK 25/11 Q1018=
2010051617 - SBKP 161700Z 27005KT CAVOK 26/11 Q1017=
2010051618 - SBKP 161800Z 23006KT CAVOK 25/11 Q1017=
2010051619 - SBKP 161900Z 21005KT CAVOK 24/12 Q1017=
2010051620 - SBKP 162000Z 21003KT CAVOK 23/13 Q1017=
2010051621 - SBKP 162100Z 20003KT CAVOK 22/12 Q1017=
2010051622 - SBKP 162200Z 18004KT CAVOK 21/12 Q1018=
2010051623 - SBKP 162300Z 11005KT CAVOK 17/13 Q1018=
2010051700 - SBKP 170000Z 11006KT CAVOK 16/13 Q1018=
2010051701 - SBKP 170100Z 11007KT CAVOK 16/13 Q1018=
2010051702 - SBKP 170200Z 11005KT CAVOK 15/13 Q1018=
2010051703 - SBKP 170300Z 12007KT CAVOK 15/13 Q1018=
2010051704 - SBKP 170400Z 12006KT CAVOK 16/12 Q1018=
2010051705 - SBKP 170500Z 13009KT CAVOK 16/12 Q1018=
2010051706 - SBKP 170600Z 13011KT CAVOK 16/12 Q1017=
2010051707 - SBKP 170700Z 13011KT CAVOK 16/12 Q1017=
2010051708 - SBKP 170800Z 14011KT CAVOK 16/13 Q1018=
2010051709 - SBKP 170900Z 13009KT CAVOK 16/13 Q1018=
2010051710 - SBKP 171000Z 14008KT 9000 NSC 16/13 Q1019=
2010051711 - SBKP 171100Z 12010KT CAVOK 17/12 Q1020=
2010051712 - SBKP 171200Z 12014KT CAVOK 19/13 Q1021=
2010051713 - SBKP 171300Z 13017KT CAVOK 20/13 Q1021=
2010051714 - SBKP 171400Z 13018KT CAVOK 21/14 Q1021=
2010051715 - SBKP 171500Z 14016KT CAVOK 22/15 Q1020=
2010051716 - SBKP 171600Z 12012KT 9999 FEW025 23/15 Q1019=
2010051717 - SBKP 171700Z 14013KT 9999 FEW030 23/15 Q1019=
2010051718 - SBKP 171800Z 12012KT 9999 FEW035 23/15 Q1019=
2010051719 - SBKP 171900Z 12012KT 9999 FEW035 22/15 Q1018=
2010051720 - SBKP 172000Z 10011KT 9999 FEW035 20/15 Q1017=
2010051721 - SBKP 172100Z 11008KT 9999 FEW035 20/14 Q1018=
2010051722 - SBKP 172200Z 15005KT 9999 FEW035 19/15 Q1019=
2010051723 - SBKP 172300Z 15008KT CAVOK 18/14 Q1019=
2010051800 - SBKP 180000Z 15009KT CAVOK 18/15 Q1019=
2010051801 - SBKP 180100Z 14011KT CAVOK 17/15 Q1019=
2010051802 - SBKP 180200Z 13010KT CAVOK 17/15 Q1019=
2010051803 - SBKP 180300Z 12012KT CAVOK 17/15 Q1019=
2010051804 - SBKP 180400Z 12012KT CAVOK 16/15 Q1018=
2010051805 - SBKP 180500Z 11013KT CAVOK 16/15 Q1018=
2010051806 - SBKP 180600Z 12015KT CAVOK 16/15 Q1017=
2010051807 - SBKP 180700Z 11013KT CAVOK 16/15 Q1016=
2010051808 - SBKP 180800Z 11012KT CAVOK 16/14 Q1016=
2010051809 - SBKP 180900Z 12014KT CAVOK 16/14 Q1016=
2010051810 - SBKP 181000Z 10010KT 5000 BR NSC 16/14 Q1017=
2010051811 - SBKP 181100Z 11012KT 9000 4000E NSC 17/15 Q1017=
2010051812 - SBKP 181200Z 11011KT 9000 NSC 19/15 Q1017=
2010051813 - SBKP 181300Z 10008KT 9000 NSC 22/15 Q1018=
2010051814 - SBKP 181400Z 07008KT CAVOK 26/15 Q1017=
2010051815 - SBKP 181500Z 03006KT CAVOK 26/15 Q1017=
2010051816 - SBKP 181600Z 36007KT CAVOK 26/14 Q1016=
2010051817 - SBKP 181700Z 02010KT CAVOK 26/14 Q1015=
2010051818 - SBKP 181800Z 01009KT CAVOK 27/14 Q1015=
2010051819 - SBKP 181900Z 01007KT CAVOK 26/15 Q1014=
2010051820 - SBKP 182000Z 31004KT CAVOK 24/16 Q1015=
2010051821 - SBKP 182100Z 25007KT 9000 BKN045 BKN100 23/16 Q1015=
2010051822 - SBKP 182200Z 24004KT 8000 BKN045 BKN100 22/16 Q1016=
2010051823 - SBKP 182300Z 25007KT 9999 SCT045 21/16 Q1016=
2010051900 - SBKP 190000Z 30005KT 9999 BKN045 OVC100 20/16 Q1016=
2010051901 - SBKP 190100Z 34002KT 9999 BKN045 OVC100 19/16 Q1016=
2010051902 - SBKP 190200Z 35004KT 9999 BKN045 OVC100 18/17 Q1016=
2010051903 - SBKP 190300Z 02005KT 9999 SCT045 BKN100 19/17 Q1015=
2010051904 - SBKP 190400Z 03004KT 9999 SCT045 BKN100 19/16 Q1015=
2010051905 - SBKP 190500Z 03006KT 9999 SCT045 BKN070 19/17 Q1014=
2010051906 - SBKP 190600Z 30003KT 9999 SCT045 BKN070 18/17 Q1014=
2010051907 - SBKP 190700Z 30003KT 8000 SCT045 BKN070 18/17 Q1014=
2010051908 - SBKP 190800Z 30003KT 5000 -RA BR FEW010 SCT020 BKN070 18/17 Q1014=
2010051909 - SBKP 190900Z 33003KT 5000 BR FEW012 SCT025 BKN080 18/17 Q1015=
2010051910 - SBKP 191000Z 36004KT 3000 BR SCT022 BKN070 OVC100 18/17 Q1015=
2010051911 - SBKP 191100Z 36005KT 2500 BR FEW006 BKN010 BKN070 18/17 Q1016=
2010051911 - SBKP 191135Z 34005KT 2500 -TSRA BR FEW006 BKN010 FEW030CB OVC070 18/17 Q1016=
2010051912 - SBKP 191200Z 34006KT 2500 -TSRA BR FEW006 BKN010 FEW030CB OVC070 18/17 Q1017=
2010051912 - SBKP 191225Z 35007KT 3000 -RA BR FEW006 SCT010 BKN025 18/18 Q1017 RETS=
2010051913 - SBKP 191300Z 34006KT 3000 -RA BR SCT006 BKN010 OVC070 18/17 Q1017 RETS=
2010051913 - SBKP 191310Z 28006KT 2500 RA SCT006 BKN010 OVC070 17/17 Q1016=
2010051913 - SBKP 191330Z 30005KT 4000 -RA BR SCT005 BKN010 OVC070 17/17 Q1017 RERA WS R33=
2010051914 - SBKP 191400Z 28009KT 9000 FEW005 BKN010 OVC070 17/16 Q1017 RERA WS R33=
2010051915 - SBKP 191500Z 29008KT 3500 -RA BR FEW008 BKN015 OVC070 16/16 Q1017=
2010051916 - SBKP 191600Z 30009KT 5000 BR FEW008 BKN012 OVC070 16/16 Q1016=
2010051917 - SBKP 191700Z 25008KT 8000 BKN010 SCT030 OVC070 16/16 Q1016=
2010051918 - SBKP 191800Z 26008KT 9999 BKN012 OVC070 16/15 Q1015=
2010051919 - SBKP 191900Z 27007KT 9999 BKN014 OVC070 17/14 Q1015=
2010051920 - SBKP 192000Z 30005KT 9999 BKN015 OVC080 16/14 Q1016=
2010051921 - SBKP 192100Z 34004KT 9000 SCT025 SCT100 16/14 Q1016=
2010051922 - SBKP 192200Z 36004KT 9999 FEW045 SCT100 15/14 Q1017=
2010051923 - SBKP 192300Z 02004KT CAVOK 14/13 Q1017=
2010052000 - SBKP 200000Z 35004KT CAVOK 14/13 Q1017=
2010052001 - SBKP 200100Z 01005KT CAVOK 13/13 Q1017=
2010052002 - SBKP 200200Z 35004KT 9999 BKN045 BKN100 14/13 Q1017=
2010052003 - SBKP 200300Z 31004KT 9999 SCT045 13/12 Q1017=
2010052004 - SBKP 200400Z 30002KT 9999 BKN030 12/12 Q1017=
2010052005 - SBKP 200500Z 33003KT 9999 BKN040 12/12 Q1017=
2010052006 - SBKP 200600Z 29004KT 9999 BKN040 12/11 Q1017=
2010052007 - SBKP 200700Z 25005KT 9999 BKN035 12/11 Q1016=
2010052008 - SBKP 200800Z 33001KT 9999 BKN035 12/11 Q1016=
2010052009 - SBKP 200900Z 24002KT 9999 BKN040 12/11 Q1016=
2010052010 - SBKP 201000Z 28004KT 9999 BKN040 12/11 Q1017=
2010052011 - SBKP 201100Z 28005KT 9999 FEW030 BKN045 13/11 Q1017=
2010052012 - SBKP 201200Z 27005KT 9999 FEW030 BKN045 14/11 Q1018=
2010052013 - SBKP 201300Z 26005KT 9999 FEW030 BKN045 15/10 Q1018=
2010052014 - SBKP 201400Z 27005KT 9999 SCT030 BKN045 16/10 Q1018=
2010052015 - SBKP 201500Z 26005KT 9999 SCT032 BKN045 16/10 Q1018=
2010052016 - SBKP 201600Z 25003KT 9999 SCT034 SCT045 17/10 Q1017=
2010052017 - SBKP 201700Z 26006KT 9999 SCT034 SCT045 17/09 Q1016=
2010052018 - SBKP 201800Z 29004KT 9999 BKN040 18/09 Q1016=
2010052019 - SBKP 201900Z 32003KT 9999 SCT040 19/10 Q1016=
2010052020 - SBKP 202000Z 32003KT 9999 FEW045 18/10 Q1017=
2010052021 - SBKP 202100Z 30002KT CAVOK 15/09 Q1017=
2010052022 - SBKP 202200Z 28002KT CAVOK 14/09 Q1017=
2010052023 - SBKP 202300Z 06001KT CAVOK 13/10 Q1017=
2010052100 - SBKP 210000Z 10005KT CAVOK 11/10 Q1018=
2010052101 - SBKP 210100Z 11005KT CAVOK 11/10 Q1018=
2010052102 - SBKP 210200Z 10006KT CAVOK 10/10 Q1018=
2010052103 - SBKP 210300Z 12007KT CAVOK 10/09 Q1018=
2010052104 - SBKP 210400Z 11005KT CAVOK 09/09 Q1018=
2010052105 - SBKP 210500Z 11006KT 9999 SCT035 09/09 Q1017=
2010052106 - SBKP 210600Z 14005KT 9999 BKN028 10/10 Q1017=
2010052107 - SBKP 210700Z 11003KT 9999 OVC023 11/11 Q1017=
2010052108 - SBKP 210800Z 00000KT 9999 OVC025 11/11 Q1017=
2010052109 - SBKP 210900Z 00000KT 9999 SCT020 10/10 Q1017=
2010052110 - SBKP 211000Z 12005KT 5000 BR SCT020 10/10 Q1018=
2010052111 - SBKP 211100Z 05003KT 9999 FEW020 14/11 Q1018=
2010052112 - SBKP 211200Z 12007KT 9999 FEW020 16/12 Q1018=
2010052113 - SBKP 211300Z 15003KT 9999 BKN023 SCT070 17/12 Q1019=
2010052114 - SBKP 211400Z 16004KT 9999 BKN023 SCT070 18/12 Q1018=
2010052115 - SBKP 211500Z 31002KT 9999 BKN021 OVC027 18/13 Q1018=
2010052116 - SBKP 211600Z 27006KT 9999 BKN024 OVC030 18/13 Q1017=
2010052117 - SBKP 211700Z 20004KT 7000 SCT022 SCT038 20/14 Q1016=
2010052118 - SBKP 211800Z 20004KT 7000 SCT022 SCT038 20/14 Q1016=
2010052119 - SBKP 211900Z 21006KT 7000 BKN030 SCT036 20/14 Q1016=
2010052120 - SBKP 212000Z 25004KT 8000 BKN030 SCT045 19/14 Q1016=
2010052121 - SBKP 212100Z 11004KT 8000 BKN040 18/14 Q1016=
2010052122 - SBKP 212200Z 15004KT 9000 BKN047 17/15 Q1017=
2010052123 - SBKP 212300Z 14004KT 9999 FEW047 16/14 Q1017=
2010052200 - SBKP 220000Z 15006KT 9999 FEW049 SCT070 15/14 Q1017=
2010052201 - SBKP 220100Z 14004KT CAVOK 15/13 Q1018=
2010052202 - SBKP 220200Z 14005KT CAVOK 14/13 Q1018=
2010052203 - SBKP 220300Z 12006KT CAVOK 13/13 Q1018=
2010052204 - SBKP 220400Z 12007KT CAVOK 13/12 Q1017=
2010052205 - SBKP 220500Z 14006KT CAVOK 12/12 Q1017=
2010052206 - SBKP 220600Z 16005KT CAVOK 12/11 Q1016=
2010052207 - SBKP 220700Z 17002KT CAVOK 12/11 Q1016=
2010052208 - SBKP 220800Z 14002KT CAVOK 11/10 Q1016=
2010052209 - SBKP 220900Z 16005KT CAVOK 10/10 Q1016=
2010052210 - SBKP 221000Z 14004KT 6000 NSC 12/11 Q1017=
2010052211 - SBKP 221100Z 11005KT 8000 3500E NSC 15/14 Q1018=
2010052212 - SBKP 221200Z 13010KT 8000 3500E NSC 17/15 Q1018=
2010052213 - SBKP 221300Z 12010KT CAVOK 20/14 Q1018=
2010052214 - SBKP 221400Z 12009KT CAVOK 22/13 Q1017=
2010052215 - SBKP 221500Z 14006KT CAVOK 23/13 Q1016=
2010052216 - SBKP 221600Z 10005KT 9999 FEW030 25/12 Q1015=
2010052217 - SBKP 221700Z 14005KT 9999 FEW035 25/12 Q1015=
2010052218 - SBKP 221800Z 19008KT 9999 SCT040 24/14 Q1014=
2010052219 - SBKP 221900Z 15008KT 9999 SCT040 23/14 Q1014=
2010052220 - SBKP 222000Z 12005KT 9999 FEW040 22/13 Q1014=
2010052221 - SBKP 222100Z 18006KT CAVOK 20/14 Q1015=
2010052222 - SBKP 222200Z 16006KT CAVOK 19/15 Q1015=
2010052223 - SBKP 222300Z 17007KT CAVOK 17/15 Q1016=
2010052300 - SBKP 230000Z 15007KT CAVOK 17/15 Q1016=
2010052301 - SBKP 230100Z 15006KT CAVOK 16/15 Q1016=
2010052302 - SBKP 230200Z 14007KT CAVOK 16/14 Q1016=
2010052303 - SBKP 230300Z 13011KT CAVOK 16/14 Q1016=
2010052304 - SBKP 230400Z 13007KT CAVOK 15/14 Q1016=
2010052305 - SBKP 230500Z 12006KT CAVOK 14/13 Q1016=
2010052306 - SBKP 230600Z 12008KT CAVOK 14/13 Q1016=
2010052307 - SBKP 230700Z 13007KT CAVOK 13/13 Q1016=
2010052308 - SBKP 230800Z 13010KT CAVOK 13/13 Q1016=
2010052309 - SBKP 230900Z 14008KT CAVOK 13/13 Q1016=
2010052310 - SBKP 231000Z 14009KT 6000 FEW040 14/13 Q1017=
2010052311 - SBKP 231100Z 13009KT 8000 FEW040 16/14 Q1017=
2010052312 - SBKP 231200Z 20009KT CAVOK 19/15 Q1018=
2010052313 - SBKP 231300Z 11011KT CAVOK 21/14 Q1018=
2010052314 - SBKP 231400Z 13008KT 9999 FEW040 23/16 Q1018=
2010052315 - SBKP 231500Z 13008KT 9999 FEW030 24/15 Q1017=
2010052316 - SBKP 231600Z 15009KT 9999 FEW030 24/14 Q1016=
2010052317 - SBKP 231700Z 13008KT 9999 FEW035 24/14 Q1016=
2010052318 - SBKP 231800Z 13009KT 9999 FEW040 24/15 Q1015=
2010052319 - SBKP 231900Z 13011KT 9999 FEW045 23/14 Q1015=
2010052320 - SBKP 232000Z 14011KT 9999 FEW045 22/15 Q1015=
2010052321 - SBKP 232100Z 13011KT CAVOK 20/15 Q1015=
2010052322 - SBKP 232200Z 12011KT CAVOK 18/15 Q1016=
2010052323 - SBKP 232300Z 13011KT CAVOK 17/15 Q1016=
2010052400 - SBKP 240000Z 12009KT CAVOK 16/15 Q1016=
2010052401 - SBKP 240100Z 12010KT CAVOK 16/15 Q1017=
2010052402 - SBKP 240200Z 12009KT CAVOK 16/14 Q1016=
2010052403 - SBKP 240300Z 12012KT CAVOK 15/14 Q1016=
2010052404 - SBKP 240400Z 12012KT CAVOK 15/14 Q1016=
2010052405 - SBKP 240500Z 12014KT CAVOK 15/14 Q1015=
2010052406 - SBKP 240600Z 12011KT CAVOK 14/14 Q1015=
2010052407 - SBKP 240700Z 12015KT CAVOK 14/13 Q1014=
2010052408 - SBKP 240800Z 11009KT CAVOK 14/14 Q1014=
2010052409 - SBKP 240900Z 11009KT CAVOK 14/14 Q1015=
2010052410 - SBKP 241000Z 11010KT 5000 BR NSC 14/14 Q1015=
2010052411 - SBKP 241100Z 11009KT 8000 NSC 16/15 Q1016=
2010052412 - SBKP 241200Z 11010KT CAVOK 17/15 Q1016=
2010052413 - SBKP 241300Z 10008KT CAVOK 20/15 Q1016=
2010052414 - SBKP 241400Z 09005KT CAVOK 23/15 Q1016=
2010052415 - SBKP 241500Z 08004KT CAVOK 25/14 Q1015=
2010052416 - SBKP 241600Z 05003KT CAVOK 26/15 Q1014=
2010052417 - SBKP 241700Z 02003KT CAVOK 27/14 Q1014=
2010052418 - SBKP 241800Z 32002KT CAVOK 26/14 Q1014=
2010052419 - SBKP 241900Z 25003KT 9999 FEW040 BKN100 25/16 Q1014=
2010052420 - SBKP 242000Z 19004KT 9999 FEW035 24/16 Q1014=
2010052421 - SBKP 242100Z 18005KT 9999 FEW035 23/16 Q1015=
2010052422 - SBKP 242200Z 14004KT 9999 FEW025 21/16 Q1016=
2010052423 - SBKP 242300Z 11009KT 9999 FEW025 20/17 Q1016=
2010052500 - SBKP 250000Z 12010KT CAVOK 20/17 Q1016=
2010052501 - SBKP 250100Z 11008KT CAVOK 19/17 Q1016=
2010052502 - SBKP 250200Z 11008KT CAVOK 19/17 Q1017=
2010052503 - SBKP 250300Z 10003KT 9999 FEW020 18/16 Q1017=
2010052504 - SBKP 250400Z 14002KT 9999 FEW020 SCT055 BKN075 18/16 Q1017=
2010052505 - SBKP 250500Z 10004KT 9999 FEW020 SCT055 18/16 Q1016=
2010052506 - SBKP 250600Z 11005KT 9999 -RA FEW020 SCT055 BKN100 17/16 Q1015=
2010052507 - SBKP 250700Z 17003KT 9999 FEW020 SCT055 BKN100 18/16 Q1016=
2010052508 - SBKP 250800Z 20004KT 9999 FEW020 SCT060 BKN100 17/16 Q1016=
2010052509 - SBKP 250900Z 14003KT 9999 FEW020 BKN110 17/16 Q1017=
2010052510 - SBKP 251000Z 10004KT 4000 BR FEW020 SCT040 BKN085 17/16 Q1017=
2010052511 - SBKP 251100Z 11005KT 8000 SCT040 BKN090 18/17 Q1018=
2010052512 - SBKP 251200Z 10003KT 8000 NSC 20/17 Q1018=
2010052513 - SBKP 251300Z 03002KT CAVOK 24/17 Q1018=
2010052514 - SBKP 251400Z 35006KT CAVOK 25/17 Q1018=
2010052515 - SBKP 251500Z 34008KT CAVOK 25/17 Q1018=
2010052516 - SBKP 251600Z 31005KT 9999 FEW030 BKN080 26/17 Q1016=
2010052517 - SBKP 251700Z 30006KT 9999 FEW030 BKN080 26/15 Q1016=
2010052518 - SBKP 251800Z 27008KT 9999 FEW035 BKN090 27/17 Q1015=
2010052519 - SBKP 251900Z 23007KT 9999 SCT040 SCT080 26/16 Q1016=
2010052520 - SBKP 252000Z 22005KT 9999 SCT040 25/17 Q1016=
2010052521 - SBKP 252100Z 21004KT 9999 FEW045 23/16 Q1016=
2010052522 - SBKP 252200Z 21005KT CAVOK 22/16 Q1017=
2010052523 - SBKP 252300Z 21004KT CAVOK 21/16 Q1017=
2010052600 - SBKP 260000Z 19004KT CAVOK 19/16 Q1018=
2010052601 - SBKP 260100Z 18006KT CAVOK 18/16 Q1018=
2010052602 - SBKP 260200Z 15005KT CAVOK 17/16 Q1019=
2010052603 - SBKP 260300Z 11008KT 8000 NSC 17/17 Q1019=
2010052604 - SBKP 260400Z 12007KT 7000 3000E FEW020 17/16 Q1019=
2010052605 - SBKP 260500Z 12007KT 7000 3000E FEW030 17/16 Q1019=
2010052606 - SBKP 260600Z 11006KT 7000 3000E FEW035 16/16 Q1019=
2010052607 - SBKP 260700Z 12007KT 9000 FEW035 17/16 Q1019=
2010052608 - SBKP 260800Z 13007KT 9000 FEW035 16/15 Q1018=
2010052609 - SBKP 260900Z 14007KT 9000 3000E FEW040 16/15 Q1019=
2010052610 - SBKP 261000Z 11007KT 4000 BR SCT040 16/15 Q1020=
2010052611 - SBKP 261100Z 12010KT 7000 3000E FEW040 18/16 Q1021=
2010052612 - SBKP 261200Z 12011KT 5000 HZ FEW040 20/16 Q1021=
2010052613 - SBKP 261300Z 13017KT 5000 HZ FEW040 22/16 Q1022=
2010052614 - SBKP 261400Z 14016KT 6000 FEW040 24/16 Q1021=
2010052615 - SBKP 261500Z 12013KT 6000 FEW040 24/16 Q1021=
2010052616 - SBKP 261600Z 14013KT 7000 FEW040 24/15 Q1020=
2010052617 - SBKP 261700Z 13011KT 9999 FEW040 25/15 Q1019=
2010052618 - SBKP 261800Z 13008KT 9999 SCT040 25/15 Q1019=
2010052619 - SBKP 261900Z 15009KT 9999 SCT040 23/14 Q1019=
2010052620 - SBKP 262000Z 15009KT 9999 FEW040 22/14 Q1019=
2010052621 - SBKP 262100Z 14012KT CAVOK 20/14 Q1020=
2010052622 - SBKP 262200Z 14012KT CAVOK 18/14 Q1021=
2010052623 - SBKP 262300Z 12012KT CAVOK 17/14 Q1022=
2010052700 - SBKP 270000Z 14012KT CAVOK 17/14 Q1022=
2010052701 - SBKP 270100Z 15010KT CAVOK 17/14 Q1022=
2010052702 - SBKP 270200Z 13009KT 9999 FEW015 17/15 Q1022=
2010052703 - SBKP 270300Z 13009KT 9999 FEW015 16/15 Q1023=
2010052704 - SBKP 270400Z 14008KT 9999 BKN020 16/15 Q1023=
2010052705 - SBKP 270500Z 14007KT 9999 FEW015 BKN025 17/15 Q1023=
2010052706 - SBKP 270600Z 13006KT 9999 FEW015 SCT025 16/14 Q1022=
2010052707 - SBKP 270700Z 15008KT 9999 FEW015 SCT025 16/14 Q1022=
2010052708 - SBKP 270800Z 14015KT 9999 FEW025 16/14 Q1022=
2010052709 - SBKP 270900Z 14015KT 9999 FEW025 16/13 Q1022=
2010052710 - SBKP 271000Z 14012KT 9999 FEW020 15/13 Q1023=
2010052711 - SBKP 271100Z 13016KT 9999 FEW030 17/13 Q1023=
2010052712 - SBKP 271200Z 14018KT 9999 FEW030 18/12 Q1024=
2010052713 - SBKP 271300Z 14022KT 9999 FEW030 20/12 Q1025=
2010052714 - SBKP 271400Z 12017KT 9999 FEW030 22/11 Q1025=
2010052715 - SBKP 271500Z 14017KT 9999 FEW030 22/12 Q1025=
2010052716 - SBKP 271600Z 12016KT 9999 FEW030 23/11 Q1024=
2010052717 - SBKP 271700Z 14017KT 9999 FEW030 23/12 Q1023=
2010052718 - SBKP 271800Z 13018KT 9999 FEW030 22/13 Q1022=
2010052719 - SBKP 271900Z 13014KT 9999 FEW030 21/13 Q1022=
2010052720 - SBKP 272000Z 13018KT 9999 FEW020 19/12 Q1022=
2010052721 - SBKP 272100Z 13014KT 9999 FEW030 17/12 Q1023=
2010052722 - SBKP 272200Z 14010KT CAVOK 16/12 Q1023=
2010052723 - SBKP 272300Z 14013KT CAVOK 16/12 Q1023=
2010052800 - SBKP 280000Z 15010KT CAVOK 15/12 Q1024=
2010052801 - SBKP 280100Z 15012KT CAVOK 15/12 Q1024=
2010052802 - SBKP 280200Z 14009KT CAVOK 14/12 Q1023=
2010052803 - SBKP 280300Z 14010KT 9999 FEW025 14/12 Q1023=
2010052804 - SBKP 280400Z 15009KT 9999 BKN017 14/12 Q1023=
2010052805 - SBKP 280500Z 16009KT 9999 BKN017 15/13 Q1023=
2010052806 - SBKP 280600Z 15009KT 9999 SCT017 14/13 Q1022=
2010052807 - SBKP 280700Z 14010KT 9999 SCT017 14/13 Q1022=
2010052808 - SBKP 280800Z 16005KT 9999 SCT022 14/12 Q1021=
2010052809 - SBKP 280900Z 15005KT 9999 FEW022 14/12 Q1022=
2010052810 - SBKP 281000Z 12005KT 9999 FEW020 13/12 Q1022=
2010052811 - SBKP 281100Z 15007KT 9999 FEW013 BKN020 16/14 Q1023=
2010052812 - SBKP 281200Z 13011KT 9999 FEW017 BKN020 18/14 Q1023=
2010052813 - SBKP 281300Z 13012KT 9999 SCT020 20/14 Q1023=
2010052814 - SBKP 281400Z 13012KT 9999 FEW020 21/13 Q1023=
2010052815 - SBKP 281500Z 12010KT 9999 FEW030 22/13 Q1022=
2010052816 - SBKP 281600Z 13009KT 9999 FEW030 23/14 Q1021=
2010052817 - SBKP 281700Z 14008KT 9999 FEW030 23/13 Q1020=
2010052818 - SBKP 281800Z 12009KT 9999 FEW030 23/13 Q1020=
2010052819 - SBKP 281900Z 12010KT CAVOK 22/13 Q1020=
2010052820 - SBKP 282000Z 12007KT CAVOK 20/13 Q1020=
2010052821 - SBKP 282100Z 13010KT CAVOK 18/13 Q1020=
2010052822 - SBKP 282200Z 12009KT CAVOK 16/13 Q1020=
2010052823 - SBKP 282300Z 12009KT CAVOK 16/13 Q1020=
2010052900 - SBKP 290000Z 12011KT CAVOK 16/13 Q1020=
2010052901 - SBKP 290100Z 12012KT CAVOK 16/13 Q1020=
2010052902 - SBKP 290200Z 11012KT CAVOK 15/13 Q1020=
2010052903 - SBKP 290300Z 11013KT CAVOK 15/13 Q1020=
2010052904 - SBKP 290400Z 11011KT CAVOK 14/13 Q1020=
2010052905 - SBKP 290500Z 11010KT CAVOK 14/13 Q1020=
2010052906 - SBKP 290600Z 12012KT CAVOK 14/13 Q1019=
2010052907 - SBKP 290700Z 12011KT CAVOK 14/13 Q1019=
2010052908 - SBKP 290800Z 12009KT CAVOK 13/13 Q1019=
2010052909 - SBKP 290900Z 12009KT CAVOK 13/13 Q1019=
2010052910 - SBKP 291000Z 11010KT 6000 NSC 13/13 Q1019=
2010052911 - SBKP 291100Z 10008KT 8000 NSC 15/14 Q1020=
2010052912 - SBKP 291200Z 10005KT CAVOK 18/14 Q1021=
2010052913 - SBKP 291300Z 05003KT CAVOK 21/15 Q1021=
2010052914 - SBKP 291400Z 02004KT CAVOK 23/14 Q1020=
2010052915 - SBKP 291500Z 36004KT CAVOK 24/13 Q1019=
2010052916 - SBKP 291600Z 34006KT CAVOK 25/14 Q1018=
2010052917 - SBKP 291700Z 32005KT 9999 FEW030 26/13 Q1017=
2010052918 - SBKP 291800Z 30003KT 9999 SCT040 26/13 Q1017=
2010052919 - SBKP 291900Z 23004KT 9999 SCT040 25/13 Q1017=
2010052920 - SBKP 292000Z 23004KT 9999 FEW045 SCT080 24/13 Q1017=
2010052921 - SBKP 292100Z 18003KT 9999 FEW040 22/13 Q1018=
2010052922 - SBKP 292200Z 12005KT CAVOK 18/14 Q1018=
2010052923 - SBKP 292300Z 12007KT CAVOK 17/13 Q1019=
2010053000 - SBKP 300000Z 12008KT CAVOK 17/14 Q1019=
2010053001 - SBKP 300100Z 10007KT CAVOK 16/13 Q1019=
2010053002 - SBKP 300200Z 10005KT CAVOK 15/14 Q1019=
2010053003 - SBKP 300300Z 11006KT CAVOK 15/14 Q1019=
2010053004 - SBKP 300400Z 10005KT CAVOK 15/14 Q1018=
2010053005 - SBKP 300500Z 08004KT CAVOK 14/14 Q1018=
2010053006 - SBKP 300600Z 00000KT CAVOK 15/14 Q1018=
2010053007 - SBKP 300700Z 07004KT CAVOK 14/13 Q1018=
2010053008 - SBKP 300800Z 09004KT CAVOK 13/13 Q1018=
2010053009 - SBKP 300900Z 08004KT CAVOK 13/13 Q1018=
2010053010 - SBKP 301000Z 03002KT CAVOK 14/13 Q1019=
2010053011 - SBKP 301100Z 08002KT CAVOK 15/14 Q1019=
2010053012 - SBKP 301200Z 35002KT CAVOK 18/14 Q1020=
2010053013 - SBKP 301300Z 36006KT CAVOK 21/14 Q1020=
2010053014 - SBKP 301400Z 01007KT CAVOK 23/14 Q1018=
2010053015 - SBKP 301500Z 35013KT CAVOK 25/14 Q1017=
2010053016 - SBKP 301600Z 33012G22KT 9999 FEW040 27/12 Q1016=
2010053017 - SBKP 301700Z 33013KT 9999 SCT045 27/12 Q1016=
2010053018 - SBKP 301800Z 30011KT 9999 FEW045 28/12 Q1015=
2010053019 - SBKP 301900Z 31011KT 9999 FEW045 SCT100 26/11 Q1015=
2010053020 - SBKP 302000Z 31006KT 9999 FEW045 BKN100 25/12 Q1015=
2010053021 - SBKP 302100Z 33006KT CAVOK 24/12 Q1016=
2010053022 - SBKP 302200Z 34006KT 9999 FEW045 SCT070 BKN090 23/13 Q1016=
2010053023 - SBKP 302300Z 35006KT 9999 FEW045 SCT070 BKN080 23/13 Q1016=
2010053000 - SBKP 300000Z 12008KT CAVOK 17/14 Q1019=
2010053001 - SBKP 300100Z 10007KT CAVOK 16/13 Q1019=
2010053002 - SBKP 300200Z 10005KT CAVOK 15/14 Q1019=
2010053003 - SBKP 300300Z 11006KT CAVOK 15/14 Q1019=
2010053004 - SBKP 300400Z 10005KT CAVOK 15/14 Q1018=
2010053005 - SBKP 300500Z 08004KT CAVOK 14/14 Q1018=
2010053006 - SBKP 300600Z 00000KT CAVOK 15/14 Q1018=
2010053007 - SBKP 300700Z 07004KT CAVOK 14/13 Q1018=
2010053008 - SBKP 300800Z 09004KT CAVOK 13/13 Q1018=
2010053009 - SBKP 300900Z 08004KT CAVOK 13/13 Q1018=
2010053010 - SBKP 301000Z 03002KT CAVOK 14/13 Q1019=
2010053011 - SBKP 301100Z 08002KT CAVOK 15/14 Q1019=
2010053012 - SBKP 301200Z 35002KT CAVOK 18/14 Q1020=
2010053013 - SBKP 301300Z 36006KT CAVOK 21/14 Q1020=
2010053014 - SBKP 301400Z 01007KT CAVOK 23/14 Q1018=
2010053015 - SBKP 301500Z 35013KT CAVOK 25/14 Q1017=
2010053016 - SBKP 301600Z 33012G22KT 9999 FEW040 27/12 Q1016=
2010053017 - SBKP 301700Z 33013KT 9999 SCT045 27/12 Q1016=
2010053018 - SBKP 301800Z 30011KT 9999 FEW045 28/12 Q1015=
2010053019 - SBKP 301900Z 31011KT 9999 FEW045 SCT100 26/11 Q1015=
2010053020 - SBKP 302000Z 31006KT 9999 FEW045 BKN100 25/12 Q1015=
2010053021 - SBKP 302100Z 33006KT CAVOK 24/12 Q1016=
2010053022 - SBKP 302200Z 34006KT 9999 FEW045 SCT070 BKN090 23/13 Q1016=
2010053023 - SBKP 302300Z 35006KT 9999 FEW045 SCT070 BKN080 23/13 Q1016=
2010053100 - SBKP 310000Z 36004KT 9999 FEW045 SCT070 BKN100 22/13 Q1016=
2010060101 - SBKP 010100Z 14013KT 9999 BKN035 SCT090 14/11 Q1023=
2010060102 - SBKP 010200Z 12008KT 9999 BKN030 SCT090 14/11 Q1023=
2010060103 - SBKP 010300Z 11008KT 9999 BKN030 14/11 Q1023=
2010060104 - SBKP 010400Z 12010KT 9999 SCT033 13/10 Q1023=
2010060105 - SBKP 010500Z 13012KT 9999 FEW033 13/09 Q1023=
2010060106 - SBKP 010600Z 13007KT CAVOK 11/09 Q1023=
2010060107 - SBKP 010700Z 14009KT CAVOK 11/09 Q1023=
2010060108 - SBKP 010800Z 14011KT CAVOK 11/09 Q1024=
2010060109 - SBKP 010900Z 13005KT CAVOK 10/09 Q1024=
2010060110 - SBKP 011000Z 12005KT 5000 BR NSC 10/09 Q1024=
2010060111 - SBKP 011100Z 12008KT 5000 BR FEW020 13/11 Q1025=
2010060112 - SBKP 011200Z 12014KT 7000 FEW020 15/11 Q1025=
2010060113 - SBKP 011300Z 12017KT 9999 FEW020 17/10 Q1025=
2010060114 - SBKP 011400Z 12017KT 9999 FEW020 19/12 Q1024=
2010060115 - SBKP 011500Z 12017KT 9999 SCT025 19/11 Q1024=
2010060116 - SBKP 011600Z 12014KT 9999 SCT025 20/11 Q1023=
2010060117 - SBKP 011700Z 12014KT 9999 FEW030 20/11 Q1022=
2010060118 - SBKP 011800Z 12015KT 9999 FEW030 20/11 Q1021=
2010060119 - SBKP 011900Z 13018KT 9999 FEW030 18/11 Q1021=
2010060120 - SBKP 012000Z 13018KT 9999 FEW030 17/11 Q1021=
2010060121 - SBKP 012100Z 14018KT 9999 FEW030 15/11 Q1022=
2010060122 - SBKP 012200Z 13018G29KT CAVOK 14/11 Q1022=
2010060123 - SBKP 012300Z 12015G25KT CAVOK 14/10 Q1022=
2010060200 - SBKP 020000Z 12020KT 9999 FEW040 13/10 Q1023=
2010060201 - SBKP 020100Z 12013KT 9999 FEW040 13/10 Q1022=
2010060202 - SBKP 020200Z 12017KT 9999 FEW040 13/10 Q1022=
2010060203 - SBKP 020300Z 11015KT CAVOK 13/10 Q1022=
2010060204 - SBKP 020400Z 11014KT CAVOK 13/10 Q1023=
2010060205 - SBKP 020500Z 11013KT CAVOK 12/10 Q1022=
2010060206 - SBKP 020600Z 12012KT CAVOK 12/10 Q1022=
2010060207 - SBKP 020700Z 11011KT CAVOK 12/10 Q1021=
2010060208 - SBKP 020800Z 11011KT CAVOK 12/10 Q1021=
2010060209 - SBKP 020900Z 11010KT CAVOK 12/10 Q1021=
2010060210 - SBKP 021000Z 12010KT CAVOK 12/10 Q1022=
2010060211 - SBKP 021100Z 12010KT 9999 FEW040 SCT070 13/11 Q1023=
2010060212 - SBKP 021200Z 11010KT 9999 FEW040 BKN070 16/11 Q1024=
2010060213 - SBKP 021300Z 11008KT 9999 FEW040 BKN070 17/12 Q1024=
2010060214 - SBKP 021400Z 09009KT 9999 FEW045 SCT080 20/12 Q1023=
2010060215 - SBKP 021500Z 10004KT 9999 FEW045 BKN070 20/12 Q1023=
2010060216 - SBKP 021600Z 10004KT 9999 SCT040 BKN070 22/13 Q1022=
2010060217 - SBKP 021700Z 08004KT 9999 SCT040 SCT070 21/12 Q1021=
2010060218 - SBKP 021800Z 10005KT 9999 BKN040 BKN070 21/12 Q1021=
2010060219 - SBKP 021900Z 11006KT 9999 SCT040 BKN070 21/13 Q1020=
2010060220 - SBKP 022000Z 11004KT 9999 BKN040 SCT070 20/13 Q1021=
2010060221 - SBKP 022100Z 12010KT 9999 BKN035 SCT070 18/12 Q1021=
2010060222 - SBKP 022200Z 11006KT 9999 SCT040 BKN080 16/12 Q1022=
2010060223 - SBKP 022300Z 12012KT 9999 SCT040 SCT090 16/13 Q1023=
2010060300 - SBKP 030000Z 12011KT 9999 FEW040 SCT100 15/13 Q1023=
2010060301 - SBKP 030100Z 11011KT 9999 FEW040 15/12 Q1023=
2010060302 - SBKP 030200Z 12012KT 9999 FEW040 15/12 Q1023=
2010060303 - SBKP 030300Z 12013KT 9999 SCT045 15/12 Q1023=
2010060304 - SBKP 030400Z 11011KT 9999 SCT045 BKN070 15/12 Q1023=
2010060305 - SBKP 030500Z 11011KT 9999 FEW045 BKN070 14/12 Q1023=
2010060306 - SBKP 030600Z 11014KT 9999 FEW045 BKN070 15/12 Q1023=
2010060307 - SBKP 030700Z 11010KT 9999 FEW045 BKN070 14/12 Q1023=
2010060308 - SBKP 030800Z 11010KT 9999 FEW045 BKN070 14/12 Q1023=
2010060309 - SBKP 030900Z 11009KT 9999 FEW045 BKN070 14/12 Q1023=
2010060310 - SBKP 031000Z 11008KT CAVOK 14/12 Q1024=
2010060311 - SBKP 031100Z 10008KT 8000 NSC 16/12 Q1024=
2010060312 - SBKP 031200Z 10009KT CAVOK 18/13 Q1025=
2010060313 - SBKP 031300Z 10007KT 9999 FEW020 20/13 Q1025=
2010060314 - SBKP 031400Z 10006KT 9999 FEW020 21/13 Q1025=
2010060315 - SBKP 031500Z 08007KT 9999 SCT030 22/13 Q1024=
2010060316 - SBKP 031600Z 13007KT 9999 SCT035 23/13 Q1023=
2010060317 - SBKP 031700Z 12006KT 9999 SCT035 22/13 Q1022=
2010060318 - SBKP 031800Z 12008KT 9999 FEW035 23/13 Q1022=
2010060319 - SBKP 031900Z 12008KT 9999 FEW035 22/13 Q1022=
2010060320 - SBKP 032000Z 13011KT 9999 FEW040 21/13 Q1023=
2010060321 - SBKP 032100Z 13007KT 9999 FEW045 18/13 Q1023=
2010060322 - SBKP 032200Z 11009KT CAVOK 17/13 Q1023=
2010060323 - SBKP 032300Z 11012KT CAVOK 17/13 Q1024=
2010060400 - SBKP 040000Z 11011KT CAVOK 16/13 Q1024=
2010060401 - SBKP 040100Z 11012KT CAVOK 15/13 Q1024=
2010060402 - SBKP 040200Z 11011KT CAVOK 15/13 Q1024=
2010060403 - SBKP 040300Z 11008KT CAVOK 14/13 Q1024=
2010060404 - SBKP 040400Z 12010KT CAVOK 14/13 Q1023=
2010060405 - SBKP 040500Z 11010KT CAVOK 14/13 Q1022=
2010060406 - SBKP 040600Z 11008KT CAVOK 13/12 Q1022=
2010060407 - SBKP 040700Z 11006KT CAVOK 13/12 Q1021=
2010060408 - SBKP 040800Z 11005KT CAVOK 13/12 Q1022=
2010060409 - SBKP 040900Z 10006KT CAVOK 13/12 Q1022=
2010060410 - SBKP 041000Z 10005KT CAVOK 12/11 Q1022=
2010060411 - SBKP 041100Z 11005KT 5000 BR NSC 14/13 Q1023=
2010060412 - SBKP 041200Z 07005KT 5000 HZ NSC 18/13 Q1023=
2010060413 - SBKP 041300Z 03007KT CAVOK 20/13 Q1023=
2010060414 - SBKP 041400Z 02009KT CAVOK 22/13 Q1023=
2010060415 - SBKP 041500Z 02009KT CAVOK 23/13 Q1022=
2010060416 - SBKP 041600Z 01009KT 9999 FEW030 SCT100 24/14 Q1021=
2010060417 - SBKP 041700Z 02010KT 9999 FEW030 SCT100 25/14 Q1020=
2010060418 - SBKP 041800Z 36009KT 9999 SCT030 SCT100 25/13 Q1019=
2010060419 - SBKP 041900Z 01009KT 9999 SCT035 BKN080 23/13 Q1019=
2010060420 - SBKP 042000Z 03007KT 9999 SCT040 BKN080 22/13 Q1019=
2010060421 - SBKP 042100Z 05008KT 9999 SCT040 BKN080 21/13 Q1018=
2010060422 - SBKP 042200Z 06007KT 9999 SCT040 BKN080 20/13 Q1018=
2010060423 - SBKP 042300Z 06007KT 9999 SCT040 BKN070 20/13 Q1018=
2010060500 - SBKP 050000Z 03006KT 9999 -RA BKN040 OVC080 20/13 Q1019=
2010060501 - SBKP 050100Z 15001KT 9999 -RA BKN045 OVC080 18/14 Q1019=
2010060502 - SBKP 050200Z 02001KT 9999 -RA BKN040 OVC080 17/15 Q1018=
2010060502 - SBKP 050210Z 28010KT 5000 RA BR BKN035 OVC080 16/15 Q1018=
2010060502 - SBKP 050225Z 29009KT 9000 -RA FEW012 BKN035 OVC080 16/16 Q1019 RERA=
2010060502 - SBKP 050240Z 29008KT 4000 RA BR FEW012 BKN035 OVC080 16/15 Q1019=
2010060503 - SBKP 050300Z 31006KT 4000 RA BR FEW012 BKN030 OVC080 16/15 Q1019=
2010060503 - SBKP 050330Z 36008KT 7000 -RA SCT007 BKN030 OVC080 16/16 Q1018 RERA=
2010060503 - SBKP 050340Z 34005KT 4500 RA BR SCT007 BKN030 OVC080 16/15 Q1018=
2010060504 - SBKP 050400Z 36007KT 9999 FEW008 BKN030 OVC080 16/16 Q1017 RERA=
2010060504 - SBKP 050430Z 36008KT 4500 RA BR FEW008 BKN028 OVC080 16/16 Q1018=
2010060505 - SBKP 050500Z 35011KT 4500 RA BR SCT008 BKN028 OVC080 16/16 Q1017=
2010060506 - SBKP 050600Z 01012KT 9000 -RA FEW006 BKN028 OVC080 16/16 Q1017 RERA=
2010060506 - SBKP 050630Z 01011KT 4000 RA BR BKN004 SCT025 OVC080 16/16 Q1017=
2010060507 - SBKP 050700Z 01010KT 5000 -RA BR BKN004 SCT025 OVC080 16/16 Q1016 RERA=
2010060508 - SBKP 050800Z 35008KT 4000 -RA BR BKN004 SCT025 OVC080 16/16 Q1016=
2010060509 - SBKP 050900Z 35007KT 5000 BR BKN005 SCT025 OVC080 16/16 Q1016=
2010060510 - SBKP 051000Z 34007KT 4500 BR BKN005 SCT025 OVC080 17/17 Q1016=
2010060511 - SBKP 051100Z 32006KT 5000 BR BKN006 SCT025 OVC080 17/17 Q1017=
2010060512 - SBKP 051200Z 28008KT 9999 SCT008 BKN025 BKN100 18/17 Q1018=
2010060513 - SBKP 051300Z 27011KT 9999 BKN013 BKN100 18/17 Q1018=
2010060514 - SBKP 051400Z 26013KT 9999 BKN020 BKN100 21/16 Q1018=
2010060515 - SBKP 051500Z 26012KT 9999 BKN025 21/15 Q1018=
2010060516 - SBKP 051600Z 28013KT 9999 SCT030 23/14 Q1017=
2010060517 - SBKP 051700Z 27014KT 9999 SCT035 23/12 Q1016=
2010060518 - SBKP 051800Z 27012KT 9999 SCT040 23/13 Q1016=
2010060519 - SBKP 051900Z 27013KT 9999 SCT040 22/11 Q1017=
2010060520 - SBKP 052000Z 25011KT 9999 FEW040 21/10 Q1017=
2010060521 - SBKP 052100Z 26009KT 9999 FEW040 18/09 Q1018=
2010060522 - SBKP 052200Z 23011KT 9999 FEW040 17/08 Q1019=
2010060523 - SBKP 052300Z 24010KT CAVOK 16/07 Q1020=
2010060600 - SBKP 060000Z 24006KT CAVOK 14/07 Q1020=
2010060601 - SBKP 060100Z 21008KT CAVOK 12/07 Q1021=
2010060602 - SBKP 060200Z 19005KT CAVOK 11/08 Q1021=
2010060603 - SBKP 060300Z 20004KT CAVOK 11/08 Q1021=
2010060604 - SBKP 060400Z 27002KT CAVOK 10/08 Q1020=
2010060605 - SBKP 060500Z 35002KT CAVOK 09/08 Q1020=
2010060606 - SBKP 060600Z 30001KT CAVOK 09/08 Q1020=
2010060607 - SBKP 060700Z 02001KT CAVOK 07/07 Q1020=
2010060608 - SBKP 060800Z 05003KT CAVOK 07/07 Q1020=
2010060609 - SBKP 060900Z 02004KT CAVOK 07/07 Q1020=
2010060610 - SBKP 061000Z 02002KT CAVOK 06/06 Q1022=
2010060611 - SBKP 061100Z 06002KT 9000 4000NE NSC 10/08 Q1022=
2010060612 - SBKP 061200Z 02002KT 9000 NSC 14/09 Q1022=
2010060613 - SBKP 061300Z 01002KT 9000 NSC 15/07 Q1023=
2010060614 - SBKP 061400Z 24003KT CAVOK 17/06 Q1022=
2010060615 - SBKP 061500Z 26005KT CAVOK 18/06 Q1022=
2010060616 - SBKP 061600Z 22004KT CAVOK 18/06 Q1021=
2010060617 - SBKP 061700Z 20003KT CAVOK 20/05 Q1020=
2010060618 - SBKP 061800Z 22005KT CAVOK 19/04 Q1020=
2010060619 - SBKP 061900Z 23004KT CAVOK 19/04 Q1020=
2010060620 - SBKP 062000Z 27004KT CAVOK 18/05 Q1021=
2010060621 - SBKP 062100Z 25003KT CAVOK 16/06 Q1021=
2010060622 - SBKP 062200Z 25003KT CAVOK 15/05 Q1021=
2010060623 - SBKP 062300Z 05001KT CAVOK 12/06 Q1022=
2010060700 - SBKP 070000Z 17003KT CAVOK 10/06 Q1022=
2010060701 - SBKP 070100Z 13006KT CAVOK 09/07 Q1022=
2010060702 - SBKP 070200Z 11007KT CAVOK 09/07 Q1022=
2010060703 - SBKP 070300Z 11008KT CAVOK 08/07 Q1022=
2010060704 - SBKP 070400Z 11009KT CAVOK 08/07 Q1022=
2010060705 - SBKP 070500Z 09007KT CAVOK 08/07 Q1022=
2010060706 - SBKP 070600Z 09007KT CAVOK 07/06 Q1022=
2010060707 - SBKP 070700Z 10007KT CAVOK 08/07 Q1022=
2010060708 - SBKP 070800Z 12010KT CAVOK 08/07 Q1022=
2010060709 - SBKP 070900Z 12011KT CAVOK 08/07 Q1021=
2010060710 - SBKP 071000Z 11011KT 7000 NSC 08/07 Q1022=
2010060711 - SBKP 071100Z 08005KT 7000 NSC 10/07 Q1023=
2010060712 - SBKP 071200Z 10004KT 7000 NSC 13/08 Q1023=
2010060713 - SBKP 071300Z 10006KT CAVOK 17/08 Q1024=
2010060714 - SBKP 071400Z 12008KT CAVOK 20/03 Q1024=
2010060715 - SBKP 071500Z 10005KT CAVOK 21/04 Q1023=
2010060716 - SBKP 071600Z 03002KT CAVOK 22/06 Q1022=
2010060717 - SBKP 071700Z 30002KT CAVOK 23/06 Q1021=
2010060718 - SBKP 071800Z 28002KT CAVOK 24/06 Q1021=
2010060719 - SBKP 071900Z 27001KT CAVOK 23/04 Q1021=
2010060720 - SBKP 072000Z 20005KT CAVOK 21/06 Q1021=
2010060721 - SBKP 072100Z 20004KT CAVOK 19/06 Q1021=
2010060722 - SBKP 072200Z 18006KT CAVOK 16/07 Q1022=
2010060723 - SBKP 072300Z 11006KT CAVOK 12/07 Q1022=
2010060800 - SBKP 080000Z 12009KT CAVOK 12/07 Q1022=
2010060801 - SBKP 080100Z 11011KT CAVOK 12/07 Q1023=
2010060802 - SBKP 080200Z 11011KT CAVOK 12/07 Q1023=
2010060803 - SBKP 080300Z 11012KT CAVOK 12/07 Q1023=
2010060804 - SBKP 080400Z 13004KT CAVOK 10/07 Q1023=
2010060805 - SBKP 080500Z 10007KT CAVOK 09/06 Q1022=
2010060806 - SBKP 080600Z 09008KT CAVOK 10/06 Q1022=
2010060807 - SBKP 080700Z 11009KT CAVOK 10/06 Q1022=
2010060808 - SBKP 080800Z 11012KT CAVOK 10/06 Q1022=
2010060809 - SBKP 080900Z 10011KT CAVOK 09/06 Q1022=
2010060810 - SBKP 081000Z 10009KT 5000 BR NSC 09/06 Q1022=
2010060811 - SBKP 081100Z 12010KT 9999 4500E NSC 12/07 Q1023=
2010060812 - SBKP 081200Z 09007KT 9999 4500E NSC 15/08 Q1024=
2010060813 - SBKP 081300Z 11002KT CAVOK 18/09 Q1024=
2010060814 - SBKP 081400Z 06004KT CAVOK 21/09 Q1024=
2010060815 - SBKP 081500Z 10002KT CAVOK 22/09 Q1024=
2010060816 - SBKP 081600Z 23002KT CAVOK 23/09 Q1023=
2010060817 - SBKP 081700Z 21003KT CAVOK 24/09 Q1022=
2010060818 - SBKP 081800Z 14003KT CAVOK 24/08 Q1021=
2010060819 - SBKP 081900Z 24004KT CAVOK 23/08 Q1021=
2010060820 - SBKP 082000Z 22005KT CAVOK 22/08 Q1022=
2010060821 - SBKP 082100Z 14010KT 6000 NSC 18/10 Q1022=
2010060822 - SBKP 082200Z 11010KT 9000 NSC 15/11 Q1023=
2010060823 - SBKP 082300Z 11013KT CAVOK 14/11 Q1023=
2010060900 - SBKP 090000Z 12014KT 9000 NSC 14/11 Q1023=
2010060901 - SBKP 090100Z 12015KT 9000 NSC 13/10 Q1024=
2010060902 - SBKP 090200Z 12015KT 9000 NSC 12/10 Q1024=
2010060903 - SBKP 090300Z 12015KT 9000 NSC 12/10 Q1024=
2010060904 - SBKP 090400Z 12016KT CAVOK 12/10 Q1024=
2010060905 - SBKP 090500Z 12015KT CAVOK 12/10 Q1023=
2010060906 - SBKP 090600Z 12015KT CAVOK 12/09 Q1023=
2010060907 - SBKP 090700Z 12014KT CAVOK 11/09 Q1023=
2010060908 - SBKP 090800Z 14011KT 8000 FEW025 11/09 Q1023=
2010060909 - SBKP 090900Z 13010KT 8000 FEW025 SCT090 10/09 Q1024=
2010060910 - SBKP 091000Z 11009KT 5000 BR NSC 11/09 Q1024=
2010060910 - SBKP 091034Z 11012KT 9000 NSC 12/10 Q1024=
2010060911 - SBKP 091100Z 11014KT 9000 NSC 13/10 Q1024=
2010060912 - SBKP 091200Z 11016KT 9000 NSC 15/10 Q1025=
2010060913 - SBKP 091300Z 11015KT CAVOK 17/11 Q1025=
2010060914 - SBKP 091400Z 10010KT CAVOK 19/12 Q1025=
2010060915 - SBKP 091500Z 12007KT CAVOK 20/11 Q1024=
2010060916 - SBKP 091600Z 13005KT CAVOK 21/12 Q1023=
2010060917 - SBKP 091700Z 12006KT CAVOK 22/12 Q1022=
2010060918 - SBKP 091800Z 14006KT CAVOK 23/11 Q1021=
2010060919 - SBKP 091900Z 15008KT CAVOK 21/11 Q1021=
2010060920 - SBKP 092000Z 12009KT CAVOK 19/11 Q1021=
2010060921 - SBKP 092100Z 13011KT 9000 NSC 17/11 Q1022=
2010060922 - SBKP 092200Z 14013KT CAVOK 16/12 Q1023=
2010060923 - SBKP 092300Z 13014KT CAVOK 15/12 Q1023=
2010061000 - SBKP 100000Z 13014KT CAVOK 14/11 Q1023=
2010061001 - SBKP 100100Z 11015KT CAVOK 14/11 Q1023=
2010061002 - SBKP 100200Z 11013G23KT CAVOK 14/12 Q1023=
2010061003 - SBKP 100300Z 11013KT CAVOK 13/11 Q1022=
2010061004 - SBKP 100400Z 12014KT CAVOK 14/11 Q1023=
2010061005 - SBKP 100500Z 11014KT CAVOK 14/11 Q1022=
2010061006 - SBKP 100600Z 11013KT CAVOK 14/12 Q1022=
2010061007 - SBKP 100700Z 11013KT CAVOK 14/12 Q1021=
2010061008 - SBKP 100800Z 11013KT CAVOK 14/12 Q1022=
2010061009 - SBKP 100900Z 11013KT CAVOK 14/12 Q1022=
2010061010 - SBKP 101000Z 17003KT 7000 SCT044 14/12 Q1024=
2010061011 - SBKP 101100Z 11009KT 5000 BR SCT044 BKN100 14/13 Q1023=
2010061012 - SBKP 101200Z 11009KT 6000 FEW044 SCT100 16/13 Q1024=
2010061013 - SBKP 101300Z 11008KT 8000 FEW045 BKN100 17/13 Q1024=
2010061014 - SBKP 101400Z 10007KT 8000 FEW045 SCT100 19/13 Q1023=
2010061015 - SBKP 101500Z 05004KT CAVOK 20/13 Q1023=
2010061016 - SBKP 101600Z 10002KT 9999 FEW030 22/13 Q1022=
2010061017 - SBKP 101700Z 21004KT 9999 SCT035 SCT070 22/13 Q1021=
2010061018 - SBKP 101800Z 22008KT 9999 BKN040 BKN070 21/13 Q1022=
2010061019 - SBKP 101900Z 18010KT 9999 -RA BKN035 BKN070 OVC100 19/14 Q1022=
2010061020 - SBKP 102000Z 17006KT 8000 BKN035 BKN070 BKN100 18/14 Q1022=
2010061021 - SBKP 102100Z 18004KT 8000 BKN035 BKN080 17/14 Q1022=
2010061022 - SBKP 102200Z 14010KT 9000 SCT035 BKN080 17/13 Q1022=
2010061023 - SBKP 102300Z 13009KT 9999 SCT035 BKN080 16/13 Q1023=
2010061100 - SBKP 110000Z 13012KT 9999 FEW035 BKN100 15/13 Q1024=
2010061101 - SBKP 110100Z 12011KT CAVOK 14/12 Q1024=
2010061102 - SBKP 110200Z 12011KT CAVOK 14/12 Q1024=
2010061103 - SBKP 110300Z 12009KT CAVOK 14/12 Q1024=
2010061104 - SBKP 110400Z 13008KT CAVOK 13/12 Q1024=
2010061105 - SBKP 110500Z 14008KT CAVOK 13/12 Q1023=
2010061106 - SBKP 110600Z 16008KT 9999 FEW045 SCT090 13/12 Q1024=
2010061107 - SBKP 110700Z 14010KT CAVOK 13/12 Q1023=
2010061108 - SBKP 110800Z 15007KT CAVOK 13/12 Q1023=
2010061109 - SBKP 110900Z 17005KT CAVOK 12/11 Q1023=
2010061110 - SBKP 111000Z 14007KT 6000 NSC 12/11 Q1024=
2010061111 - SBKP 111100Z 13010KT 9999 FEW035 14/11 Q1025=
2010061112 - SBKP 111200Z 13011KT CAVOK 16/11 Q1025=
2010061113 - SBKP 111300Z 13010KT 9999 FEW035 18/11 Q1026=
2010061114 - SBKP 111400Z 14011KT 9999 SCT030 18/10 Q1026=
2010061115 - SBKP 111500Z 15008KT 9999 SCT035 20/11 Q1026=
2010061116 - SBKP 111600Z 15012KT 9999 SCT040 19/10 Q1025=
2010061117 - SBKP 111700Z 14012KT 9999 SCT045 19/10 Q1025=
2010061118 - SBKP 111800Z 13012KT 9999 SCT045 19/09 Q1024=
2010061119 - SBKP 111900Z 14009KT 9999 BKN045 19/09 Q1025=
2010061120 - SBKP 112000Z 16009KT 9999 BKN045 18/10 Q1025=
2010061121 - SBKP 112100Z 16009KT 9999 FEW045 15/10 Q1025=
2010061122 - SBKP 112200Z 15008KT 9999 FEW045 14/10 Q1026=
2010061123 - SBKP 112300Z 13007KT CAVOK 12/09 Q1026=
2010061200 - SBKP 120000Z 13010KT CAVOK 12/09 Q1027=
2010061201 - SBKP 120100Z 13009KT CAVOK 12/09 Q1027=
2010061202 - SBKP 120200Z 14008KT CAVOK 11/09 Q1027=
2010061203 - SBKP 120300Z 13013KT 9999 SCT017 12/11 Q1027=
2010061204 - SBKP 120400Z 12010KT 9999 SCT020 12/11 Q1026=
2010061205 - SBKP 120500Z 13016KT 9999 FEW020 12/10 Q1026=
2010061206 - SBKP 120600Z 13019KT CAVOK 12/10 Q1025=
2010061207 - SBKP 120700Z 13013KT CAVOK 11/10 Q1025=
2010061208 - SBKP 120800Z 13012KT CAVOK 11/10 Q1025=
2010061209 - SBKP 120900Z 12011KT CAVOK 12/10 Q1025=
2010061210 - SBKP 121000Z 12013KT CAVOK 12/09 Q1026=
2010061211 - SBKP 121100Z 12013KT 9999 FEW025 13/10 Q1027=
2010061211 - SBKP 121121Z 12018G28KT 9999 FEW020 14/10 Q1027=
2010061212 - SBKP 121200Z 12017KT 9999 FEW020 16/10 Q1027=
2010061213 - SBKP 121300Z 11023KT 9999 SCT025 16/09 Q1028=
2010061214 - SBKP 121400Z 11020G30KT 9999 SCT030 18/09 Q1027=
2010061215 - SBKP 121500Z 12018G28KT 9999 SCT030 19/09 Q1026=
2010061216 - SBKP 121600Z 12018KT 9999 SCT030 18/10 Q1026=
2010061217 - SBKP 121700Z 11020KT 9999 FEW030 18/09 Q1025=
2010061218 - SBKP 121800Z 12018G28KT 9999 FEW030 18/09 Q1025=
2010061219 - SBKP 121900Z 11015KT 9999 FEW030 17/09 Q1024=
2010061220 - SBKP 122000Z 13014KT CAVOK 16/08 Q1024=
2010061221 - SBKP 122100Z 14014KT CAVOK 14/08 Q1025=
2010061222 - SBKP 122200Z 13018KT CAVOK 13/08 Q1025=
2010061223 - SBKP 122300Z 12015KT CAVOK 12/08 Q1025=
2010061300 - SBKP 130000Z 12017G27KT CAVOK 12/08 Q1025=
2010061301 - SBKP 130100Z 11016KT CAVOK 11/08 Q1025=
2010061302 - SBKP 130200Z 11015G25KT CAVOK 11/08 Q1025=
2010061303 - SBKP 130300Z 11016KT CAVOK 10/08 Q1025=
2010061304 - SBKP 130400Z 11016KT CAVOK 10/08 Q1024=
2010061305 - SBKP 130500Z 11014KT CAVOK 10/08 Q1024=
2010061306 - SBKP 130600Z 11012KT CAVOK 09/07 Q1024=
2010061307 - SBKP 130700Z 11013KT CAVOK 09/07 Q1023=
2010061308 - SBKP 130800Z 12014KT CAVOK 09/07 Q1023=
2010061309 - SBKP 130900Z 12014KT CAVOK 09/07 Q1023=
2010061310 - SBKP 131000Z 11011KT CAVOK 09/07 Q1024=
2010061311 - SBKP 131100Z 10008KT CAVOK 11/08 Q1024=
2010061312 - SBKP 131200Z 10006KT CAVOK 14/08 Q1025=
2010061313 - SBKP 131300Z 11007KT CAVOK 17/08 Q1025=
2010061314 - SBKP 131400Z 11009KT CAVOK 19/09 Q1025=
2010061315 - SBKP 131500Z 09005KT 9999 FEW030 20/09 Q1023=
2010061316 - SBKP 131600Z 13006KT 9999 FEW035 21/09 Q1023=
2010061317 - SBKP 131700Z 09001KT 9999 FEW035 21/09 Q1022=
2010061318 - SBKP 131800Z 16005KT 9999 FEW040 21/09 Q1021=
2010061319 - SBKP 131900Z 18006KT CAVOK 21/08 Q1021=
2010061320 - SBKP 132000Z 17007KT CAVOK 19/07 Q1021=
2010061321 - SBKP 132100Z 12006KT CAVOK 15/08 Q1021=
2010061322 - SBKP 132200Z 12010KT CAVOK 14/08 Q1021=
2010061323 - SBKP 132300Z 12012KT CAVOK 13/09 Q1022=
2010061400 - SBKP 140000Z 12013KT CAVOK 12/09 Q1022=
2010061401 - SBKP 140100Z 12012KT CAVOK 12/10 Q1023=
2010061402 - SBKP 140200Z 11014KT CAVOK 12/10 Q1023=
2010061403 - SBKP 140300Z 11013KT CAVOK 11/09 Q1023=
2010061404 - SBKP 140400Z 12014KT CAVOK 11/09 Q1023=
2010061405 - SBKP 140500Z 12013KT CAVOK 10/09 Q1022=
2010061406 - SBKP 140600Z 12013KT CAVOK 10/09 Q1022=
2010061407 - SBKP 140700Z 12010KT CAVOK 10/09 Q1021=
2010061408 - SBKP 140800Z 11008KT CAVOK 09/09 Q1021=
2010061409 - SBKP 140900Z 10008KT CAVOK 09/08 Q1021=
2010061410 - SBKP 141000Z 11009KT 7000 NSC 09/08 Q1022=
2010061411 - SBKP 141100Z 12009KT 9000 NSC 11/09 Q1022=
2010061412 - SBKP 141200Z 10009KT CAVOK 14/09 Q1023=
2010061413 - SBKP 141300Z 11005KT CAVOK 17/10 Q1023=
2010061414 - SBKP 141400Z 06004KT CAVOK 19/10 Q1023=
2010061415 - SBKP 141500Z 03005KT CAVOK 21/08 Q1022=
2010061416 - SBKP 141600Z 08004KT CAVOK 22/09 Q1021=
2010061417 - SBKP 141700Z 33002KT CAVOK 22/09 Q1021=
2010061418 - SBKP 141800Z 31004KT CAVOK 22/08 Q1020=
2010061419 - SBKP 141900Z 32002KT CAVOK 23/08 Q1020=
2010061420 - SBKP 142000Z 25003KT CAVOK 21/08 Q1020=
2010061421 - SBKP 142100Z 22003KT CAVOK 19/09 Q1020=
2010061422 - SBKP 142200Z 20004KT CAVOK 18/09 Q1021=
2010061423 - SBKP 142300Z 15005KT CAVOK 15/09 Q1021=
2010061500 - SBKP 150000Z 12006KT CAVOK 12/09 Q1021=
2010061501 - SBKP 150100Z 11009KT CAVOK 12/09 Q1021=
2010061502 - SBKP 150200Z 11008KT CAVOK 11/09 Q1021=
2010061503 - SBKP 150300Z 11007KT CAVOK 11/09 Q1021=
2010061504 - SBKP 150400Z 10008KT CAVOK 11/09 Q1021=
2010061505 - SBKP 150500Z 11007KT CAVOK 10/09 Q1021=
2010061506 - SBKP 150600Z 11006KT CAVOK 10/09 Q1021=
2010061507 - SBKP 150700Z 11008KT CAVOK 09/08 Q1021=
2010061508 - SBKP 150800Z 11008KT CAVOK 09/08 Q1021=
2010061509 - SBKP 150900Z 10009KT CAVOK 09/08 Q1021=
2010061510 - SBKP 151000Z 13007KT 6000 NSC 09/07 Q1022=
2010061511 - SBKP 151100Z 11007KT 7000 NSC 12/09 Q1023=
2010061512 - SBKP 151200Z 11004KT 8000 NSC 15/10 Q1023=
2010061513 - SBKP 151300Z 06002KT 8000 NSC 19/10 Q1024=
2010061514 - SBKP 151400Z 03003KT 9000 NSC 21/10 Q1023=
2010061515 - SBKP 151500Z 35004KT CAVOK 22/10 Q1023=
2010061516 - SBKP 151600Z 33005KT CAVOK 24/09 Q1022=
2010061517 - SBKP 151700Z 32004KT CAVOK 23/09 Q1020=
2010061518 - SBKP 151800Z 32005KT CAVOK 24/09 Q1020=
2010061519 - SBKP 151900Z 35005KT CAVOK 24/10 Q1020=
2010061520 - SBKP 152000Z 25003KT CAVOK 22/09 Q1020=
2010061521 - SBKP 152100Z 18003KT CAVOK 20/09 Q1020=
2010061522 - SBKP 152200Z 16003KT CAVOK 16/09 Q1020=
2010061523 - SBKP 152300Z 15005KT CAVOK 16/10 Q1021=
2010061600 - SBKP 160000Z 11008KT CAVOK 12/10 Q1021=
2010061601 - SBKP 160100Z 11008KT CAVOK 13/10 Q1021=
2010061602 - SBKP 160200Z 10007KT CAVOK 12/10 Q1021=
2010061603 - SBKP 160300Z 10007KT CAVOK 12/10 Q1021=
2010061604 - SBKP 160400Z 10007KT CAVOK 11/09 Q1021=
2010061605 - SBKP 160500Z 10007KT CAVOK 11/09 Q1021=
2010061606 - SBKP 160600Z 11008KT CAVOK 10/09 Q1021=
2010061607 - SBKP 160700Z 11007KT 9999 SCT040 10/09 Q1020=
2010061608 - SBKP 160800Z 11007KT 8000 FEW040 09/08 Q1020=
2010061609 - SBKP 160900Z 10008KT 8000 NSC 09/08 Q1021=
2010061609 - SBKP 160935Z 10007KT 4000 BR NSC 09/08 Q1021=
2010061610 - SBKP 161000Z 10007KT 3000 BR NSC 09/08 Q1021=
2010061611 - SBKP 161100Z 10007KT 4000 BR NSC 11/09 Q1022=
2010061612 - SBKP 161200Z 09003KT 4000 HZ NSC 15/11 Q1023=
2010061613 - SBKP 161300Z 03004KT 5000 HZ NSC 19/11 Q1022=
2010061614 - SBKP 161400Z 35006KT 7000 NSC 22/11 Q1022=
2010061615 - SBKP 161500Z 35006KT 8000 NSC 23/10 Q1021=
2010061616 - SBKP 161600Z 34007KT 9000 NSC 25/10 Q1020=
2010061617 - SBKP 161700Z 34007KT 9000 NSC 25/09 Q1019=
2010061618 - SBKP 161800Z 33008KT 9000 NSC 25/08 Q1019=
2010061619 - SBKP 161900Z 35007KT CAVOK 24/07 Q1018=
2010061620 - SBKP 162000Z 35004KT CAVOK 23/07 Q1018=
2010061621 - SBKP 162100Z 36005KT 6000 NSC 20/07 Q1018=
2010061622 - SBKP 162200Z 03003KT CAVOK 18/08 Q1018=
2010061623 - SBKP 162300Z 07004KT CAVOK 15/08 Q1019=
2010061700 - SBKP 170000Z 08004KT CAVOK 13/09 Q1019=
2010061701 - SBKP 170100Z 08006KT CAVOK 13/09 Q1019=
2010061702 - SBKP 170200Z 07005KT CAVOK 12/09 Q1019=
2010061703 - SBKP 170300Z 07006KT CAVOK 11/08 Q1019=
2010061704 - SBKP 170400Z 07005KT CAVOK 11/08 Q1019=
2010061705 - SBKP 170500Z 06004KT CAVOK 11/09 Q1018=
2010061706 - SBKP 170600Z 07004KT CAVOK 12/09 Q1018=
2010061707 - SBKP 170700Z 04004KT CAVOK 11/08 Q1018=
2010061708 - SBKP 170800Z 03001KT CAVOK 11/08 Q1018=
2010061709 - SBKP 170900Z 05002KT CAVOK 11/08 Q1018=
2010061710 - SBKP 171000Z 05006KT 9999 3000E NSC 09/08 Q1019=
2010061711 - SBKP 171100Z 07005KT 9999 3000E NSC 12/10 Q1019=
2010061712 - SBKP 171200Z 03003KT 9999 3000E NSC 18/11 Q1020=
2010061713 - SBKP 171300Z 01004KT 6000 NSC 21/11 Q1021=
2010061714 - SBKP 171400Z 02008KT CAVOK 23/10 Q1021=
2010061715 - SBKP 171500Z 01007KT 9000 NSC 24/11 Q1020=
2010061716 - SBKP 171600Z 32004KT 9000 NSC 26/10 Q1020=
2010061717 - SBKP 171700Z 29004KT 9000 NSC 27/09 Q1019=
2010061718 - SBKP 171800Z 31004KT 9000 NSC 27/10 Q1018=
2010061719 - SBKP 171900Z 33003KT 9000 NSC 27/10 Q1018=
2010061720 - SBKP 172000Z 28003KT 9000 NSC 26/10 Q1018=
2010061721 - SBKP 172100Z 17003KT 9000 NSC 24/09 Q1018=
2010061722 - SBKP 172200Z 14004KT CAVOK 20/10 Q1019=
2010061723 - SBKP 172300Z 11006KT CAVOK 17/11 Q1019=
2010061800 - SBKP 180000Z 11008KT CAVOK 16/11 Q1019=
2010061801 - SBKP 180100Z 11008KT CAVOK 16/11 Q1019=
2010061802 - SBKP 180200Z 11010KT CAVOK 15/11 Q1019=
2010061803 - SBKP 180300Z 11008KT CAVOK 15/11 Q1019=
2010061804 - SBKP 180400Z 11010KT CAVOK 14/10 Q1019=
2010061805 - SBKP 180500Z 10008KT 9000 NSC 13/10 Q1019=
2010061806 - SBKP 180600Z 11012KT 9000 NSC 13/10 Q1019=
2010061807 - SBKP 180700Z 11007KT 9000 NSC 13/10 Q1018=
2010061808 - SBKP 180800Z 10009KT CAVOK 14/10 Q1018=
2010061809 - SBKP 180900Z 10010KT CAVOK 14/10 Q1018=
2010061810 - SBKP 181000Z 10007KT 6000 2000NW NSC 12/10 Q1019=
2010061811 - SBKP 181100Z 10007KT 5000 2000E HZ NSC 15/11 Q1019=
2010061812 - SBKP 181200Z 10006KT 5000 2000E HZ NSC 18/11 Q1020=
2010061813 - SBKP 181300Z 05005KT 6000 2500E NSC 22/12 Q1020=
2010061814 - SBKP 181400Z 34004KT 7000 NSC 25/10 Q1020=
2010061815 - SBKP 181500Z 34005KT 9000 NSC 26/10 Q1019=
2010061816 - SBKP 181600Z 33003KT 9000 NSC 26/10 Q1018=
2010061817 - SBKP 181700Z 33006KT CAVOK 27/09 Q1017=
2010061818 - SBKP 181800Z 36006KT CAVOK 27/10 Q1016=
2010061819 - SBKP 181900Z 35005KT CAVOK 27/10 Q1016=
2010061820 - SBKP 182000Z 36006KT CAVOK 25/10 Q1016=
2010061821 - SBKP 182100Z 01004KT 6000 NSC 23/09 Q1016=
2010061822 - SBKP 182200Z 01004KT CAVOK 21/09 Q1017=
2010061823 - SBKP 182300Z 14003KT 9000 NSC 19/10 Q1017=
2010061900 - SBKP 190000Z 10005KT CAVOK 16/10 Q1017=
2010061901 - SBKP 190100Z 11007KT CAVOK 14/11 Q1017=
2010061902 - SBKP 190200Z 10008KT CAVOK 14/11 Q1017=
2010061903 - SBKP 190300Z 10008KT CAVOK 13/10 Q1017=
2010061904 - SBKP 190400Z 10007KT CAVOK 13/10 Q1017=
2010061905 - SBKP 190500Z 10006KT CAVOK 12/09 Q1017=
2010061906 - SBKP 190600Z 09006KT CAVOK 12/09 Q1016=
2010061907 - SBKP 190700Z 09004KT CAVOK 11/09 Q1016=
2010061908 - SBKP 190800Z 10005KT CAVOK 11/09 Q1016=
2010061909 - SBKP 190900Z 05004KT CAVOK 11/09 Q1016=
2010061910 - SBKP 191000Z 02007KT CAVOK 11/09 Q1016=
2010061911 - SBKP 191100Z 35007KT 6000 NSC 15/10 Q1017=
2010061912 - SBKP 191200Z 35008KT 6000 NSC 18/10 Q1018=
2010061913 - SBKP 191300Z 35008KT 7000 NSC 21/11 Q1017=
2010061914 - SBKP 191400Z 36012KT CAVOK 24/10 Q1017=
2010061915 - SBKP 191500Z 33012KT CAVOK 26/10 Q1016=
2010061916 - SBKP 191600Z 33017KT CAVOK 27/09 Q1015=
2010061917 - SBKP 191700Z 32011KT CAVOK 28/09 Q1015=
2010061918 - SBKP 191800Z 32010KT CAVOK 28/09 Q1014=
2010061919 - SBKP 191900Z 33008KT 9000 NSC 28/09 Q1014=
2010061920 - SBKP 192000Z 32006KT 7000 NSC 26/08 Q1014=
2010061921 - SBKP 192100Z 33005KT 6000 NSC 23/08 Q1014=
2010061922 - SBKP 192200Z 02005KT 6000 NSC 22/08 Q1015=
2010061923 - SBKP 192300Z 01006KT CAVOK 21/09 Q1015=
2010062000 - SBKP 200000Z 02004KT CAVOK 19/09 Q1015=
2010062001 - SBKP 200100Z 05005KT CAVOK 15/09 Q1015=
2010062002 - SBKP 200200Z 04006KT CAVOK 15/09 Q1016=
2010062003 - SBKP 200300Z 07006KT CAVOK 14/09 Q1016=
2010062004 - SBKP 200400Z 08006KT CAVOK 13/09 Q1016=
2010062005 - SBKP 200500Z 09005KT CAVOK 12/08 Q1015=
2010062006 - SBKP 200600Z 10007KT CAVOK 12/08 Q1015=
2010062007 - SBKP 200700Z 12005KT CAVOK 12/08 Q1015=
2010062008 - SBKP 200800Z 09005KT CAVOK 12/08 Q1015=
2010062009 - SBKP 200900Z 09006KT CAVOK 11/08 Q1015=
2010062010 - SBKP 201000Z 08007KT 8000 NSC 11/08 Q1016=
2010062011 - SBKP 201100Z 06007KT 6000 NSC 17/10 Q1016=
2010062012 - SBKP 201200Z 02006KT 7000 NSC 21/10 Q1017=
2010062013 - SBKP 201300Z 36010KT 9000 NSC 24/09 Q1017=
2010062014 - SBKP 201400Z 34009KT 9000 NSC 25/10 Q1017=
2010062015 - SBKP 201500Z 36009KT CAVOK 27/11 Q1016=
2010062016 - SBKP 201600Z 33011KT CAVOK 29/11 Q1015=
2010062017 - SBKP 201700Z 33009KT CAVOK 29/10 Q1014=
2010062018 - SBKP 201800Z 32013KT CAVOK 29/10 Q1013=
2010062019 - SBKP 201900Z 30012KT CAVOK 29/10 Q1013=
2010062020 - SBKP 202000Z 31007KT 9000 NSC 26/10 Q1013=
2010062021 - SBKP 202100Z 33007KT 7000 NSC 24/10 Q1014=
2010062022 - SBKP 202200Z 32005KT CAVOK 22/10 Q1014=
2010062023 - SBKP 202300Z 03003KT CAVOK 21/10 Q1015=
2010062100 - SBKP 210000Z 05003KT CAVOK 21/10 Q1015=
2010062101 - SBKP 210100Z 05004KT CAVOK 17/10 Q1016=
2010062102 - SBKP 210200Z 10002KT CAVOK 17/10 Q1015=
2010062103 - SBKP 210300Z 07005KT CAVOK 16/11 Q1016=
2010062104 - SBKP 210400Z 07006KT CAVOK 14/11 Q1016=
2010062105 - SBKP 210500Z 05006KT CAVOK 15/10 Q1015=
2010062106 - SBKP 210600Z 07005KT CAVOK 14/10 Q1015=
2010062107 - SBKP 210700Z 09005KT CAVOK 13/10 Q1015=
2010062108 - SBKP 210800Z 11007KT CAVOK 13/10 Q1015=
2010062109 - SBKP 210900Z 10006KT CAVOK 12/10 Q1015=
2010062110 - SBKP 211000Z 09006KT 5000 BR NSC 12/10 Q1015=
2010062111 - SBKP 211100Z 14005KT 5000 HZ NSC 16/11 Q1016=
2010062112 - SBKP 211200Z 09004KT 5000 HZ NSC 19/12 Q1017=
2010062113 - SBKP 211300Z 01008KT 7000 NSC 24/11 Q1017=
2010062114 - SBKP 211400Z 34006KT 9000 NSC 25/11 Q1017=
2010062115 - SBKP 211500Z 29005KT 9000 NSC 27/11 Q1017=
2010062116 - SBKP 211600Z 32004KT CAVOK 28/11 Q1015=
2010062117 - SBKP 211700Z 29004KT CAVOK 28/11 Q1015=
2010062118 - SBKP 211800Z 29009KT CAVOK 28/12 Q1014=
2010062119 - SBKP 211900Z 28005KT 8000 NSC 28/12 Q1014=
2010062120 - SBKP 212000Z 20005KT 8000 NSC 26/12 Q1015=
2010062121 - SBKP 212100Z 17006KT 6000 NSC 23/12 Q1015=
2010062122 - SBKP 212200Z 17003KT CAVOK 22/12 Q1016=
2010062123 - SBKP 212300Z 11008KT CAVOK 18/14 Q1016=
2010062200 - SBKP 220000Z 12008KT CAVOK 17/14 Q1016=
2010062201 - SBKP 220100Z 10008KT 5000 2400NW FU NSC 17/14 Q1016=
2010062202 - SBKP 220200Z 09007KT 4000 FU NSC 16/14 Q1016=
2010062203 - SBKP 220300Z 10007KT 4000 FU NSC 15/14 Q1016=
2010062204 - SBKP 220400Z 10005KT 4000 FU NSC 15/13 Q1016=
2010062205 - SBKP 220500Z 12005KT 4000 BR NSC 14/13 Q1017=
2010062206 - SBKP 220600Z 08007KT 5000 BR NSC 15/13 Q1016=
2010062207 - SBKP 220700Z 06006KT 6000 NSC 14/13 Q1015=
2010062208 - SBKP 220800Z 19005KT 6000 NSC 14/12 Q1016=
2010062209 - SBKP 220900Z 13009KT 6000 NSC 14/13 Q1017=
2010062209 - SBKP 220930Z 13012KT 3000 BR NSC 14/13 Q1017=
2010062210 - SBKP 221000Z 13012KT 2500 BR NSC 15/14 Q1018=
2010062211 - SBKP 221100Z 12014KT 2500 BR NSC 16/14 Q1018=
2010062212 - SBKP 221200Z 11012KT 4500 2200E BR NSC 17/14 Q1019=
2010062213 - SBKP 221300Z 11011KT 5000 2400E HZ NSC 20/15 Q1019=
2010062214 - SBKP 221400Z 14010KT 5000 2400E HZ NSC 19/14 Q1020=
2010062215 - SBKP 221500Z 14010KT 6000 2900E NSC 19/14 Q1020=
2010062215 - SBKP 221543Z 11008KT 2500 -RA HZ NSC 18/14 Q1019=
2010062216 - SBKP 221600Z 11007KT 2500 -RA BR FEW010 OVC080 17/15 Q1020=
2010062217 - SBKP 221700Z 09006KT 3000 -RA BR NSC 17/16 Q1019=
2010062218 - SBKP 221800Z 09003KT 3000 -RA BR NSC 19/16 Q1018=
2010062219 - SBKP 221900Z 18004KT 4000 BR SCT025 SCT045 19/16 Q1019=
2010062220 - SBKP 222000Z 16007KT 3000 BR BKN020 SCT045 18/16 Q1020=
2010062221 - SBKP 222100Z 14007KT 5000 BR BKN020 17/15 Q1020=
2010062222 - SBKP 222200Z 12009KT 7000 BKN020 16/15 Q1020=
2010062223 - SBKP 222300Z 12010KT 9999 FEW020 15/14 Q1021=
2010062300 - SBKP 230000Z 12010KT 9999 SCT030 14/13 Q1021=
2010062301 - SBKP 230100Z 12016KT 9999 SCT010 14/13 Q1022=
2010062302 - SBKP 230200Z 12013G23KT 9999 FEW015 15/12 Q1022=
2010062303 - SBKP 230300Z 12014KT 9999 SCT015 14/12 Q1022=
2010062304 - SBKP 230400Z 12010KT 9999 BKN016 14/12 Q1022=
2010062305 - SBKP 230500Z 12010KT 9999 SCT015 14/11 Q1021=
2010062306 - SBKP 230600Z 12015KT 9999 FEW020 14/11 Q1021=
2010062307 - SBKP 230700Z 12011KT 9999 FEW020 13/11 Q1021=
2010062308 - SBKP 230800Z 11009KT 9999 FEW020 13/11 Q1021=
2010062309 - SBKP 230900Z 12011KT 9999 FEW020 13/11 Q1021=
2010062310 - SBKP 231000Z 11011KT CAVOK 13/11 Q1012=
2010062311 - SBKP 231100Z 12012KT 9999 FEW035 15/12 Q1022=
2010062312 - SBKP 231200Z 11013KT 9999 FEW010 17/12 Q1023=
2010062313 - SBKP 231300Z 11012KT 9999 FEW030 18/13 Q1023=
2010062314 - SBKP 231400Z 13011KT 9999 FEW030 20/13 Q1023=
2010062315 - SBKP 231500Z 13012KT CAVOK 22/12 Q1023=
2010062316 - SBKP 231600Z 12009KT CAVOK 22/12 Q1021=
2010062317 - SBKP 231700Z 14007KT CAVOK 23/13 Q1021=
2010062318 - SBKP 231800Z 11007KT CAVOK 23/12 Q1020=
2010062319 - SBKP 231900Z 11006KT CAVOK 22/11 Q1020=
2010062320 - SBKP 232000Z 11006KT CAVOK 20/12 Q1020=
2010062321 - SBKP 232100Z 12006KT CAVOK 17/12 Q1021=
2010062322 - SBKP 232200Z 11009KT CAVOK 17/13 Q1021=
2010062323 - SBKP 232300Z 11011KT CAVOK 16/13 Q1021=
2010062400 - SBKP 240000Z 12011KT CAVOK 15/13 Q1021=
2010062401 - SBKP 240100Z 12010KT CAVOK 15/13 Q1021=
2010062402 - SBKP 240200Z 11009KT CAVOK 15/13 Q1021=
2010062403 - SBKP 240300Z 11008KT CAVOK 14/13 Q1021=
2010062404 - SBKP 240400Z 11007KT CAVOK 14/12 Q1022=
2010062405 - SBKP 240500Z 12008KT CAVOK 14/12 Q1021=
2010062406 - SBKP 240600Z 11009KT CAVOK 14/12 Q1021=
2010062407 - SBKP 240700Z 11008KT CAVOK 14/12 Q1021=
2010062408 - SBKP 240800Z 11008KT CAVOK 14/12 Q1021=
2010062409 - SBKP 240900Z 11006KT CAVOK 13/12 Q1021=
2010062410 - SBKP 241000Z 11007KT 8000 NSC 13/12 Q1021=
2010062411 - SBKP 241100Z 12006KT 6000 NSC 15/13 Q1022=
2010062412 - SBKP 241200Z 10004KT 6000 NSC 18/13 Q1023=
2010062413 - SBKP 241300Z 04003KT 6000 NSC 22/15 Q1023=
2010062414 - SBKP 241400Z 03008KT 7000 NSC 23/15 Q1023=
2010062415 - SBKP 241500Z 03009KT 9000 NSC 25/15 Q1022=
2010062416 - SBKP 241600Z 36009KT CAVOK 26/15 Q1021=
2010062417 - SBKP 241700Z 03007KT CAVOK 27/15 Q1020=
2010062418 - SBKP 241800Z 03006KT CAVOK 27/15 Q1021=
2010062419 - SBKP 241900Z 36004KT 9999 FEW030 27/15 Q1021=
2010062420 - SBKP 242000Z 01005KT 9999 FEW040 25/15 Q1021=
2010062421 - SBKP 242100Z 05004KT 9000 FEW040 24/15 Q1021=
2010062422 - SBKP 242200Z 06004KT 9999 FEW040 22/15 Q1022=
2010062423 - SBKP 242300Z 07005KT CAVOK 20/14 Q1023=
2010062400 - SBKP 240000Z 12011KT CAVOK 15/13 Q1021=
2010062401 - SBKP 240100Z 12010KT CAVOK 15/13 Q1021=
2010062402 - SBKP 240200Z 11009KT CAVOK 15/13 Q1021=
2010062403 - SBKP 240300Z 11008KT CAVOK 14/13 Q1021=
2010062404 - SBKP 240400Z 11007KT CAVOK 14/12 Q1022=
2010062405 - SBKP 240500Z 12008KT CAVOK 14/12 Q1021=
2010062406 - SBKP 240600Z 11009KT CAVOK 14/12 Q1021=
2010062407 - SBKP 240700Z 11008KT CAVOK 14/12 Q1021=
2010062408 - SBKP 240800Z 11008KT CAVOK 14/12 Q1021=
2010062409 - SBKP 240900Z 11006KT CAVOK 13/12 Q1021=
2010062410 - SBKP 241000Z 11007KT 8000 NSC 13/12 Q1021=
2010062411 - SBKP 241100Z 12006KT 6000 NSC 15/13 Q1022=
2010062412 - SBKP 241200Z 10004KT 6000 NSC 18/13 Q1023=
2010062413 - SBKP 241300Z 04003KT 6000 NSC 22/15 Q1023=
2010062414 - SBKP 241400Z 03008KT 7000 NSC 23/15 Q1023=
2010062415 - SBKP 241500Z 03009KT 9000 NSC 25/15 Q1022=
2010062416 - SBKP 241600Z 36009KT CAVOK 26/15 Q1021=
2010062417 - SBKP 241700Z 03007KT CAVOK 27/15 Q1020=
2010062418 - SBKP 241800Z 03006KT CAVOK 27/15 Q1021=
2010062419 - SBKP 241900Z 36004KT 9999 FEW030 27/15 Q1021=
2010062420 - SBKP 242000Z 01005KT 9999 FEW040 25/15 Q1021=
2010062421 - SBKP 242100Z 05004KT 9000 FEW040 24/15 Q1021=
2010062422 - SBKP 242200Z 06004KT 9999 FEW040 22/15 Q1022=
2010062423 - SBKP 242300Z 07005KT CAVOK 20/14 Q1023=
2010062500 - SBKP 250000Z 36002KT CAVOK 19/14 Q1023=
2010062601 - SBKP 260100Z 12010KT CAVOK 17/14 Q1024=
2010062602 - SBKP 260200Z 11009KT CAVOK 17/14 Q1024=
2010062603 - SBKP 260300Z 12011KT CAVOK 16/13 Q1024=
2010062604 - SBKP 260400Z 12011KT CAVOK 16/13 Q1024=
2010062605 - SBKP 260500Z 12010KT CAVOK 16/13 Q1023=
2010062606 - SBKP 260600Z 12010KT CAVOK 16/12 Q1023=
2010062607 - SBKP 260700Z 12011KT CAVOK 15/12 Q1022=
2010062608 - SBKP 260800Z 12010KT CAVOK 15/12 Q1023=
2010062609 - SBKP 260900Z 12012KT CAVOK 15/12 Q1023=
2010062610 - SBKP 261000Z 12011KT 6000 NSC 15/12 Q1023=
2010062611 - SBKP 261100Z 12012KT 6000 NSC 17/12 Q1024=
2010062612 - SBKP 261200Z 12011KT 6000 NSC 19/13 Q1024=
2010062613 - SBKP 261300Z 11010KT 6000 NSC 22/13 Q1024=
2010062614 - SBKP 261400Z 10007KT CAVOK 26/11 Q1025=
2010062615 - SBKP 261500Z 11009KT CAVOK 26/10 Q1023=
2010062616 - SBKP 261600Z 11012KT CAVOK 27/09 Q1022=
2010062617 - SBKP 261700Z 10009KT CAVOK 27/08 Q1021=
2010062618 - SBKP 261800Z 11009KT CAVOK 27/07 Q1021=
2010062619 - SBKP 261900Z 12010KT CAVOK 26/07 Q1020=
2010062620 - SBKP 262000Z 12010KT CAVOK 23/07 Q1020=
2010062621 - SBKP 262100Z 12009KT CAVOK 19/06 Q1020=
2010062622 - SBKP 262200Z 12013KT CAVOK 19/14 Q1021=
2010062623 - SBKP 262300Z 11013KT CAVOK 17/13 Q1021=
2010062700 - SBKP 270000Z 11013KT CAVOK 17/13 Q1021=
2010062701 - SBKP 270100Z 12014KT CAVOK 16/13 Q1022=
2010062702 - SBKP 270200Z 11013KT CAVOK 15/12 Q1022=
2010062703 - SBKP 270300Z 12013KT CAVOK 14/12 Q1022=
2010062704 - SBKP 270400Z 11010KT CAVOK 13/11 Q1022=
2010062705 - SBKP 270500Z 11009KT CAVOK 13/11 Q1022=
2010062706 - SBKP 270600Z 11008KT CAVOK 13/11 Q1022=
2010062707 - SBKP 270700Z 11007KT CAVOK 12/10 Q1022=
2010062708 - SBKP 270800Z 09006KT CAVOK 11/09 Q1022=
2010062709 - SBKP 270900Z 11006KT 9000 NSC 10/09 Q1022=
2010062710 - SBKP 271000Z 11006KT 4000 BR NSC 10/09 Q1023=
2010062711 - SBKP 271100Z 11007KT 4000 BR NSC 13/10 Q1024=
2010062712 - SBKP 271200Z 10006KT 7000 3000E NSC 16/10 Q1025=
2010062713 - SBKP 271300Z 02010KT 9000 NSC 21/11 Q1025=
2010062714 - SBKP 271400Z 01010KT CAVOK 22/10 Q1025=
2010062715 - SBKP 271500Z 02009KT CAVOK 23/10 Q1024=
2010062716 - SBKP 271600Z 35010KT CAVOK 23/09 Q1023=
2010062717 - SBKP 271700Z 36008KT CAVOK 24/09 Q1022=
2010062718 - SBKP 271800Z 01008KT CAVOK 24/10 Q1021=
2010062719 - SBKP 271900Z 34007KT CAVOK 24/10 Q1021=
2010062720 - SBKP 272000Z 33005KT CAVOK 22/09 Q1021=
2010062721 - SBKP 272100Z 32004KT CAVOK 20/09 Q1022=
2010062722 - SBKP 272200Z 32003KT CAVOK 18/09 Q1022=
2010062723 - SBKP 272300Z 33003KT CAVOK 17/09 Q1023=
2010062800 - SBKP 280000Z 11003KT CAVOK 14/09 Q1023=
2010062801 - SBKP 280100Z 11007KT CAVOK 13/10 Q1023=
2010062802 - SBKP 280200Z 11008KT CAVOK 12/10 Q1023=
2010062803 - SBKP 280300Z 12007KT CAVOK 12/10 Q1024=
2010062804 - SBKP 280400Z 10008KT CAVOK 11/09 Q1023=
2010062805 - SBKP 280500Z 12006KT CAVOK 11/09 Q1023=
2010062806 - SBKP 280600Z 12004KT CAVOK 10/09 Q1023=
2010062807 - SBKP 280700Z 12006KT CAVOK 10/09 Q1023=
2010062808 - SBKP 280800Z 11007KT CAVOK 10/09 Q1023=
2010062809 - SBKP 280900Z 11008KT CAVOK 10/09 Q1023=
2010062810 - SBKP 281000Z 11008KT CAVOK 10/09 Q1023=
2010062811 - SBKP 281100Z 10008KT 8000 NSC 12/10 Q1024=
2010062812 - SBKP 281200Z 10005KT 6000 NSC 16/11 Q1025=
2010062813 - SBKP 281300Z 05002KT 6000 NSC 21/11 Q1025=
2010062814 - SBKP 281400Z 34002KT 7000 NSC 23/11 Q1025=
2010062815 - SBKP 281500Z 25001KT CAVOK 24/09 Q1025=
2010062816 - SBKP 281600Z 24007KT CAVOK 24/09 Q1024=
2010062817 - SBKP 281700Z 15004KT CAVOK 25/09 Q1023=
2010062818 - SBKP 281800Z 21006KT CAVOK 24/09 Q1022=
2010062819 - SBKP 281900Z 22006KT CAVOK 24/08 Q1022=
2010062820 - SBKP 282000Z 17005KT CAVOK 23/08 Q1023=
2010062821 - SBKP 282100Z 17003KT 9000 4000NW NSC 21/07 Q1023=
2010062822 - SBKP 282200Z 15004KT 9000 4000NW NSC 17/09 Q1023=
2010062823 - SBKP 282300Z 11007KT 9000 3500NW NSC 15/09 Q1024=
2010062900 - SBKP 290000Z 12007KT 9000 3500NW NSC 14/09 Q1024=
2010062901 - SBKP 290100Z 12011KT 7000 NSC 14/10 Q1024=
2010062902 - SBKP 290200Z 12010KT 7000 NSC 14/10 Q1024=
2010062903 - SBKP 290300Z 14008KT CAVOK 13/10 Q1025=
2010062904 - SBKP 290400Z 13006KT 9000 NSC 13/11 Q1024=
2010062905 - SBKP 290500Z 11006KT CAVOK 12/11 Q1024=
2010062906 - SBKP 290600Z 13011KT CAVOK 12/11 Q1024=
2010062907 - SBKP 290700Z 12010KT CAVOK 13/12 Q1023=
2010062908 - SBKP 290800Z 12013KT CAVOK 13/12 Q1023=
2010062909 - SBKP 290900Z 12014KT 9000 NSC 13/12 Q1023=
2010062910 - SBKP 291000Z 12015KT 4000 BR NSC 13/12 Q1023=
2010062911 - SBKP 291100Z 12016KT 4000 BR NSC 14/12 Q1024=
2010062912 - SBKP 291200Z 12016G26KT 5000 HZ NSC 17/13 Q1025=
2010062913 - SBKP 291300Z 11016KT 9000 FEW025 19/12 Q1025=
2010062914 - SBKP 291400Z 11014KT CAVOK 21/12 Q1025=
2010062915 - SBKP 291500Z 12011KT CAVOK 22/12 Q1024=
2010062916 - SBKP 291600Z 14007KT CAVOK 23/11 Q1023=
2010062917 - SBKP 291700Z 12007KT CAVOK 23/11 Q1022=
2010062918 - SBKP 291800Z 13005KT CAVOK 24/11 Q1021=
2010062919 - SBKP 291900Z 16002KT CAVOK 24/11 Q1021=
2010062920 - SBKP 292000Z 12007KT CAVOK 22/11 Q1021=
2010062921 - SBKP 292100Z 12006KT 7000 NSC 19/10 Q1022=
2010062922 - SBKP 292200Z 14008KT 9000 NSC 17/11 Q1022=
2010062923 - SBKP 292300Z 12010KT CAVOK 15/12 Q1022=
2010063000 - SBKP 300000Z 11013KT CAVOK 16/13 Q1022=
2010063001 - SBKP 300100Z 12013KT CAVOK 15/13 Q1023=
2010063002 - SBKP 300200Z 12014KT CAVOK 15/13 Q1023=
2010063003 - SBKP 300300Z 12013KT CAVOK 14/12 Q1023=
2010063004 - SBKP 300400Z 12013KT CAVOK 14/12 Q1022=
2010063005 - SBKP 300500Z 11014KT CAVOK 13/12 Q1022=
2010063006 - SBKP 300600Z 12011KT CAVOK 13/12 Q1022=
2010063007 - SBKP 300700Z 11009KT CAVOK 13/11 Q1022=
2010063008 - SBKP 300800Z 11007KT 9000 NSC 12/11 Q1022=
2010063009 - SBKP 300900Z 10007KT CAVOK 12/11 Q1023=
2010063010 - SBKP 301000Z 10007KT 8000 NSC 11/10 Q1023=
2010063011 - SBKP 301100Z 11006KT 6000 NSC 13/11 Q1024=
2010063012 - SBKP 301200Z 10006KT 8000 NSC 16/12 Q1025=
2010063013 - SBKP 301300Z 00000KT 8000 NSC 22/11 Q1026=
2010063014 - SBKP 301400Z 08002KT 8000 NSC 22/10 Q1026=
2010063015 - SBKP 301500Z 30003KT 9000 NSC 23/10 Q1025=
2010063016 - SBKP 301600Z 19002KT CAVOK 25/09 Q1024=
2010063017 - SBKP 301700Z 29002KT CAVOK 26/10 Q1023=
2010063018 - SBKP 301800Z 18005KT CAVOK 25/10 Q1023=
2010063019 - SBKP 301900Z 24004KT CAVOK 24/09 Q1023=
2010063020 - SBKP 302000Z 20005KT CAVOK 23/09 Q1023=
2010063021 - SBKP 302100Z 21005KT CAVOK 21/09 Q1023=
2010063022 - SBKP 302200Z 21005KT CAVOK 20/10 Q1023=
2010063023 - SBKP 302300Z 18005KT CAVOK 17/10 Q1024=
2010070100 - SBKP 010000Z 13005KT CAVOK 15/10 Q1024=
2010070101 - SBKP 010100Z 12007KT CAVOK 14/10 Q1024=
2010070102 - SBKP 010200Z 11007KT CAVOK 13/10 Q1024=
2010070103 - SBKP 010300Z 11010KT 9000 NSC 13/10 Q1024=
2010070104 - SBKP 010400Z 12010KT 6000 NSC 12/10 Q1024=
2010070105 - SBKP 010500Z 12010KT 8000 NSC 12/10 Q1022=
2010070106 - SBKP 010600Z 11007KT 7000 NSC 12/10 Q1022=
2010070107 - SBKP 010700Z 08005KT 8000 NSC 12/09 Q1022=
2010070108 - SBKP 010800Z 09007KT 8000 NSC 11/09 Q1022=
2010070109 - SBKP 010900Z 12004KT 9000 NSC 11/09 Q1023=
2010070109 - SBKP 010930Z 10005KT 4000 BR NSC 11/09 Q1023=
2010070110 - SBKP 011000Z 11007KT 4000 BR NSC 10/09 Q1023=
2010070111 - SBKP 011100Z 10009KT 5000 BR NSC 13/10 Q1024=
2010070112 - SBKP 011200Z 09005KT 6000 NSC 17/11 Q1025=
2010070113 - SBKP 011300Z 07005KT 7000 NSC 21/11 Q1025=
2010070114 - SBKP 011400Z 00000KT 7000 NSC 23/10 Q1025=
2010070115 - SBKP 011500Z 11005KT 8000 NSC 25/11 Q1024=
2010070116 - SBKP 011600Z 35005KT 9000 NSC 24/10 Q1023=
2010070117 - SBKP 011700Z 09003KT CAVOK 26/10 Q1022=
2010070118 - SBKP 011800Z 22003KT CAVOK 25/09 Q1021=
2010070119 - SBKP 011900Z 13004KT CAVOK 26/08 Q1021=
2010070120 - SBKP 012000Z 14005KT CAVOK 23/08 Q1021=
2010070121 - SBKP 012100Z 14007KT CAVOK 21/08 Q1021=
2010070122 - SBKP 012200Z 12007KT CAVOK 17/09 Q1022=
2010070123 - SBKP 012300Z 11009KT CAVOK 16/10 Q1022=
2010070200 - SBKP 020000Z 12014KT 7000 NSC 15/10 Q1022=
2010070201 - SBKP 020100Z 12011KT 9000 NSC 15/10 Q1022=
2010070202 - SBKP 020200Z 11013KT CAVOK 15/11 Q1022=
2010070203 - SBKP 020300Z 12012KT CAVOK 14/11 Q1022=
2010070204 - SBKP 020400Z 12010KT CAVOK 13/11 Q1022=
2010070205 - SBKP 020500Z 11009KT 9000 NSC 13/10 Q1022=
2010070206 - SBKP 020600Z 12011KT CAVOK 13/10 Q1022=
2010070207 - SBKP 020700Z 12011KT CAVOK 12/10 Q1022=
2010070208 - SBKP 020800Z 11008KT 9000 NSC 12/10 Q1022=
2010070209 - SBKP 020900Z 12011KT CAVOK 11/10 Q1023=
2010070210 - SBKP 021000Z 10008KT 6000 NSC 11/09 Q1023=
2010070211 - SBKP 021100Z 11006KT 6000 NSC 14/10 Q1024=
2010070212 - SBKP 021200Z 10006KT 6000 NSC 17/11 Q1025=
2010070213 - SBKP 021300Z 08003KT 9000 NSC 20/11 Q1025=
2010070214 - SBKP 021400Z 36003KT 9000 NSC 21/10 Q1025=
2010070215 - SBKP 021500Z 34004KT 9000 NSC 23/10 Q1024=
2010070216 - SBKP 021600Z 01003KT CAVOK 24/09 Q1023=
2010070217 - SBKP 021700Z 08003KT CAVOK 25/09 Q1022=
2010070218 - SBKP 021800Z 04002KT CAVOK 26/09 Q1022=
2010070219 - SBKP 021900Z 16004KT CAVOK 25/09 Q1021=
2010070220 - SBKP 022000Z 21005KT CAVOK 23/09 Q1021=
2010070221 - SBKP 022100Z 17004KT CAVOK 21/09 Q1021=
2010070222 - SBKP 022200Z 19006KT CAVOK 19/10 Q1022=
2010070223 - SBKP 022300Z 10002KT CAVOK 17/10 Q1022=
2010070300 - SBKP 030000Z 13005KT CAVOK 14/10 Q1023=
2010070301 - SBKP 030100Z 12009KT CAVOK 14/10 Q1023=
2010070302 - SBKP 030200Z 12013KT CAVOK 14/12 Q1023=
2010070303 - SBKP 030300Z 12013KT 4000 BR NSC 14/12 Q1023=
2010070304 - SBKP 030400Z 12013KT 3500 BR NSC 13/12 Q1023=
2010070305 - SBKP 030500Z 12012KT 1800 R15///// R33///// BR NSC 13/12 Q1023=
2010070306 - SBKP 030600Z 12011KT 1800 R15///// R33///// BR NSC 13/12 Q1023=
2010070307 - SBKP 030700Z 12011KT 2500 BR NSC 13/11 Q1022=
2010070308 - SBKP 030800Z 12011KT 6000 2500SE NSC 12/11 Q1022=
2010070309 - SBKP 030900Z 11010KT 9000 NSC 12/11 Q1023=
2010070309 - SBKP 030935Z 11009KT 4000 BR NSC 12/10 Q1023=
2010070310 - SBKP 031000Z 11009KT 4000 BR NSC 12/10 Q1023=
2010070311 - SBKP 031100Z 10007KT 4500 2000E BR NSC 13/11 Q1024=
2010070312 - SBKP 031200Z 10005KT 5000 2000E HZ NSC 16/11 Q1025=
2010070313 - SBKP 031300Z 09004KT 7000 3000E NSC 20/12 Q1025=
2010070314 - SBKP 031400Z 07002KT 7000 NSC 22/11 Q1024=
2010070315 - SBKP 031500Z 33003KT 9000 NSC 23/09 Q1024=
2010070316 - SBKP 031600Z 31003KT 9000 NSC 25/09 Q1023=
2010070317 - SBKP 031700Z 17001KT 9000 NSC 25/08 Q1022=
2010070318 - SBKP 031800Z 27003KT 9000 NSC 25/08 Q1021=
2010070319 - SBKP 031900Z 26004KT CAVOK 25/08 Q1021=
2010070320 - SBKP 032000Z 26004KT CAVOK 23/08 Q1021=
2010070321 - SBKP 032100Z 21005KT 9000 NSC 20/08 Q1022=
2010070322 - SBKP 032200Z 19005KT CAVOK 18/08 Q1022=
2010070323 - SBKP 032300Z 17005KT CAVOK 18/07 Q1022=
2010070400 - SBKP 040000Z 12007KT CAVOK 14/08 Q1022=
2010070401 - SBKP 040100Z 11012KT 8000 NSC 14/12 Q1022=
2010070402 - SBKP 040200Z 12013KT 5000 BR NSC 14/12 Q1023=
2010070403 - SBKP 040300Z 11013KT 5000 BR NSC 13/12 Q1023=
2010070404 - SBKP 040400Z 12014KT 5000 BR NSC 13/12 Q1023=
2010070405 - SBKP 040500Z 12013KT 5000 BR NSC 13/12 Q1022=
2010070406 - SBKP 040600Z 12010KT 5000 BR NSC 12/11 Q1022=
2010070407 - SBKP 040700Z 11009KT 7000 NSC 12/10 Q1022=
2010070408 - SBKP 040800Z 13007KT 7000 NSC 12/10 Q1022=
2010070409 - SBKP 040900Z 13008KT 7000 NSC 11/10 Q1022=
2010070410 - SBKP 041000Z 10008KT 4000 BR NSC 11/10 Q1022=
2010070411 - SBKP 041100Z 10008KT 4000 BR NSC 13/11 Q1023=
2010070412 - SBKP 041200Z 11008KT 5000 HZ NSC 15/12 Q1024=
2010070413 - SBKP 041300Z 12008KT 5000 HZ NSC 17/12 Q1024=
2010070414 - SBKP 041400Z 14005KT 8000 NSC 21/12 Q1024=
2010070415 - SBKP 041500Z 04003KT 8000 NSC 23/12 Q1023=
2010070416 - SBKP 041600Z 07002KT CAVOK 24/09 Q1022=
2010070417 - SBKP 041700Z 19004KT CAVOK 25/09 Q1021=
2010070418 - SBKP 041800Z 34001KT CAVOK 25/09 Q1020=
2010070419 - SBKP 041900Z 13002KT CAVOK 25/08 Q1020=
2010070420 - SBKP 042000Z 12004KT CAVOK 23/08 Q1020=
2010070421 - SBKP 042100Z 14006KT CAVOK 20/09 Q1020=
2010070422 - SBKP 042200Z 12008KT CAVOK 17/10 Q1021=
2010070423 - SBKP 042300Z 12009KT CAVOK 16/11 Q1021=
2010070500 - SBKP 050000Z 12010KT CAVOK 15/10 Q1021=
2010070501 - SBKP 050100Z 11012KT CAVOK 15/12 Q1022=
2010070502 - SBKP 050200Z 12013KT 7000 NSC 14/12 Q1022=
2010070503 - SBKP 050300Z 12011KT 8000 NSC 14/12 Q1022=
2010070504 - SBKP 050400Z 12012KT CAVOK 13/12 Q1022=
2010070505 - SBKP 050500Z 12010KT CAVOK 13/12 Q1022=
2010070506 - SBKP 050600Z 12008KT 9000 NSC 13/12 Q1022=
2010070507 - SBKP 050700Z 11005KT 9000 NSC 12/11 Q1022=
2010070508 - SBKP 050800Z 11006KT 9000 NSC 11/10 Q1022=
2010070509 - SBKP 050900Z 11006KT 9000 NSC 11/10 Q1022=
2010070510 - SBKP 051000Z 11006KT 7000 NSC 10/10 Q1022=
2010070511 - SBKP 051100Z 10007KT 7000 NSC 14/11 Q1023=
2010070512 - SBKP 051200Z 10005KT 7000 NSC 17/12 Q1024=
2010070513 - SBKP 051300Z 06004KT 9000 NSC 20/11 Q1024=
2010070514 - SBKP 051400Z 03006KT CAVOK 23/11 Q1024=
2010070515 - SBKP 051500Z 01007KT CAVOK 24/09 Q1023=
2010070516 - SBKP 051600Z 35007KT CAVOK 25/09 Q1022=
2010070517 - SBKP 051700Z 36005KT CAVOK 26/08 Q1021=
2010070518 - SBKP 051800Z 36007KT CAVOK 26/07 Q1020=
2010070519 - SBKP 051900Z 02003KT CAVOK 26/07 Q1020=
2010070520 - SBKP 052000Z 34002KT CAVOK 24/07 Q1021=
2010070521 - SBKP 052100Z 12005KT CAVOK 21/06 Q1021=
2010070522 - SBKP 052200Z 12006KT CAVOK 18/08 Q1021=
2010070523 - SBKP 052300Z 11008KT CAVOK 16/08 Q1021=
2010070600 - SBKP 060000Z 11008KT CAVOK 15/09 Q1022=
2010070601 - SBKP 060100Z 11005KT CAVOK 14/10 Q1022=
2010070602 - SBKP 060200Z 12008KT CAVOK 14/10 Q1022=
2010070603 - SBKP 060300Z 12010KT CAVOK 14/10 Q1022=
2010070604 - SBKP 060400Z 11006KT CAVOK 13/10 Q1022=
2010070605 - SBKP 060500Z 11007KT CAVOK 13/10 Q1021=
2010070606 - SBKP 060600Z 11008KT CAVOK 13/10 Q1021=
2010070607 - SBKP 060700Z 11008KT CAVOK 13/10 Q1021=
2010070608 - SBKP 060800Z 11007KT CAVOK 12/10 Q1021=
2010070609 - SBKP 060900Z 11008KT CAVOK 11/10 Q1022=
2010070610 - SBKP 061000Z 10006KT CAVOK 11/09 Q1023=
2010070611 - SBKP 061100Z 10004KT CAVOK 15/11 Q1024=
2010070612 - SBKP 061200Z 09003KT 9999 4000NW NSC 18/12 Q1024=
2010070613 - SBKP 061300Z 04003KT CAVOK 21/12 Q1024=
2010070614 - SBKP 061400Z 36008KT CAVOK 24/13 Q1024=
2010070615 - SBKP 061500Z 01006KT CAVOK 25/12 Q1023=
2010070616 - SBKP 061600Z 34004KT CAVOK 26/12 Q1022=
2010070617 - SBKP 061700Z 34006KT CAVOK 27/11 Q1021=
2010070618 - SBKP 061800Z 32007KT CAVOK 27/11 Q1020=
2010070619 - SBKP 061900Z 36006KT CAVOK 26/11 Q1019=
2010070620 - SBKP 062000Z 32005KT CAVOK 25/10 Q1020=
2010070621 - SBKP 062100Z 32003KT CAVOK 22/10 Q1020=
2010070622 - SBKP 062200Z 24002KT CAVOK 21/10 Q1020=
2010070623 - SBKP 062300Z 11006KT CAVOK 17/11 Q1020=
2010070700 - SBKP 070000Z 11005KT CAVOK 16/11 Q1020=
2010070701 - SBKP 070100Z 10006KT CAVOK 15/11 Q1021=
2010070702 - SBKP 070200Z 11006KT CAVOK 14/11 Q1020=
2010070703 - SBKP 070300Z 11006KT CAVOK 14/11 Q1020=
2010070704 - SBKP 070400Z 09006KT CAVOK 13/10 Q1020=
2010070705 - SBKP 070500Z 11007KT CAVOK 13/10 Q1019=
2010070706 - SBKP 070600Z 11007KT CAVOK 12/10 Q1018=
2010070707 - SBKP 070700Z 09006KT CAVOK 12/10 Q1018=
2010070708 - SBKP 070800Z 10008KT CAVOK 11/10 Q1018=
2010070709 - SBKP 070900Z 10004KT CAVOK 11/09 Q1019=
2010070710 - SBKP 071000Z 10005KT CAVOK 12/09 Q1020=
2010070711 - SBKP 071100Z 06003KT 7000 NSC 14/11 Q1021=
2010070712 - SBKP 071200Z 03002KT 7000 NSC 18/12 Q1022=
2010070713 - SBKP 071300Z 02006KT 8000 NSC 21/10 Q1023=
2010070714 - SBKP 071400Z 36005KT 9000 NSC 23/09 Q1023=
2010070715 - SBKP 071500Z 35009KT CAVOK 24/09 Q1022=
2010070716 - SBKP 071600Z 35008KT CAVOK 24/09 Q1020=
2010070717 - SBKP 071700Z 33008KT CAVOK 24/08 Q1020=
2010070718 - SBKP 071800Z 34004KT CAVOK 25/08 Q1019=
2010070719 - SBKP 071900Z 34005KT CAVOK 25/08 Q1019=
2010070720 - SBKP 072000Z 33004KT CAVOK 23/08 Q1019=
2010070721 - SBKP 072100Z 36002KT 7000 NSC 21/07 Q1020=
2010070722 - SBKP 072200Z 06004KT CAVOK 17/08 Q1020=
2010070723 - SBKP 072300Z 08004KT CAVOK 16/09 Q1021=
2010070800 - SBKP 080000Z 10006KT CAVOK 14/09 Q1021=
2010070801 - SBKP 080100Z 11008KT CAVOK 14/09 Q1021=
2010070802 - SBKP 080200Z 11008KT CAVOK 13/09 Q1022=
2010070803 - SBKP 080300Z 11008KT CAVOK 13/09 Q1021=
2010070804 - SBKP 080400Z 10007KT CAVOK 12/09 Q1021=
2010070805 - SBKP 080500Z 10009KT CAVOK 12/09 Q1021=
2010070806 - SBKP 080600Z 10008KT CAVOK 12/09 Q1020=
2010070807 - SBKP 080700Z 10008KT CAVOK 12/09 Q1020=
2010070808 - SBKP 080800Z 08005KT CAVOK 11/08 Q1020=
2010070809 - SBKP 080900Z 08003KT CAVOK 10/08 Q1020=
2010070810 - SBKP 081000Z 09005KT 8000 NSC 10/08 Q1021=
2010070811 - SBKP 081100Z 04002KT 6000 NSC 13/10 Q1021=
2010070812 - SBKP 081200Z 09003KT 8000 NSC 17/10 Q1022=
2010070813 - SBKP 081300Z 01004KT 8000 NSC 21/09 Q1022=
2010070814 - SBKP 081400Z 02005KT 9000 NSC 23/09 Q1022=
2010070815 - SBKP 081500Z 29003KT CAVOK 25/08 Q1021=
2010070816 - SBKP 081600Z 31008KT CAVOK 26/07 Q1020=
2010070817 - SBKP 081700Z 27005KT CAVOK 25/06 Q1019=
2010070818 - SBKP 081800Z 31003KT CAVOK 26/06 Q1018=
2010070819 - SBKP 081900Z 34004KT CAVOK 25/06 Q1018=
2010070820 - SBKP 082000Z 21004KT CAVOK 24/06 Q1019=
2010070821 - SBKP 082100Z 15005KT CAVOK 22/09 Q1019=
2010070822 - SBKP 082200Z 11007KT CAVOK 16/07 Q1019=
2010070823 - SBKP 082300Z 13010KT CAVOK 16/07 Q1020=
2010070900 - SBKP 090000Z 12008KT CAVOK 15/08 Q1020=
2010070901 - SBKP 090100Z 11011KT CAVOK 14/08 Q1020=
2010070902 - SBKP 090200Z 12012KT CAVOK 15/08 Q1020=
2010070903 - SBKP 090300Z 12011KT CAVOK 15/09 Q1020=
2010070904 - SBKP 090400Z 11011KT CAVOK 16/09 Q1020=
2010070905 - SBKP 090500Z 11011KT CAVOK 15/10 Q1020=
2010070906 - SBKP 090600Z 12010KT 9000 NSC 14/11 Q1020=
2010070907 - SBKP 090700Z 13011KT 9000 NSC 14/12 Q1021=
2010070908 - SBKP 090800Z 11012KT 9000 NSC 14/12 Q1020=
2010070909 - SBKP 090900Z 11013KT 9000 NSC 14/13 Q1021=
2010070909 - SBKP 090930Z 11013KT 3000 BR NSC 14/13 Q1021=
2010070910 - SBKP 091000Z 12014KT 3000 BR NSC 14/12 Q1021=
2010070911 - SBKP 091100Z 11013KT 4000 BR NSC 15/13 Q1021=
2010070911 - SBKP 091130Z 10008KT 5000 HZ NSC 17/13 Q1022=
2010070912 - SBKP 091200Z 10008KT 5000 HZ NSC 18/13 Q1022=
2010070913 - SBKP 091300Z 10006KT 9000 NSC 21/13 Q1022=
2010070914 - SBKP 091400Z 08004KT 9000 NSC 23/12 Q1021=
2010070915 - SBKP 091500Z 01005KT CAVOK 26/09 Q1021=
2010070916 - SBKP 091600Z 30006KT 9999 FEW040 27/09 Q1020=
2010070917 - SBKP 091700Z 36004KT 9999 FEW040 SCT100 27/08 Q1019=
2010070918 - SBKP 091800Z 35004KT 9999 FEW040 BKN080 26/09 Q1019=
2010070919 - SBKP 091900Z 28005KT CAVOK 26/09 Q1018=
2010070920 - SBKP 092000Z 22004KT CAVOK 25/09 Q1019=
2010070921 - SBKP 092100Z 16004KT CAVOK 22/09 Q1019=
2010070922 - SBKP 092200Z 15005KT CAVOK 20/10 Q1019=
2010070923 - SBKP 092300Z 12011KT CAVOK 18/11 Q1020=
2010071000 - SBKP 100000Z 12012KT CAVOK 18/14 Q1021=
2010071001 - SBKP 100100Z 12011KT 9000 NSC 17/14 Q1021=
2010071002 - SBKP 100200Z 11013KT 7000 NSC 17/14 Q1021=
2010071003 - SBKP 100300Z 11015KT 5000 BR NSC 17/14 Q1021=
2010071004 - SBKP 100400Z 12013KT 4000 BR NSC 16/14 Q1021=
2010071005 - SBKP 100500Z 13010KT 4000 BR NSC 15/14 Q1021=
2010071006 - SBKP 100600Z 12012KT 4000 BR NSC 15/13 Q1020=
2010071007 - SBKP 100700Z 14010KT 4000 BR NSC 15/13 Q1020=
2010071008 - SBKP 100800Z 12012KT 4000 BR NSC 15/13 Q1020=
2010071009 - SBKP 100900Z 14008KT 4000 BR NSC 14/13 Q1020=
2010071009 - SBKP 100927Z 13006KT 3000 BR NSC 14/13 Q1021=
2010071010 - SBKP 101000Z 11009KT 2500 BR NSC 15/13 Q1021=
2010071011 - SBKP 101100Z 12014KT 5000 BR NSC 16/13 Q1021=
2010071012 - SBKP 101200Z 12014KT 8000 NSC 18/13 Q1022=
2010071013 - SBKP 101300Z 12014KT 9000 NSC 20/14 Q1022=
2010071014 - SBKP 101400Z 12015KT 9000 NSC 22/14 Q1022=
2010071015 - SBKP 101500Z 11012KT CAVOK 23/14 Q1021=
2010071016 - SBKP 101600Z 12013KT CAVOK 24/14 Q1020=
2010071017 - SBKP 101700Z 13011KT CAVOK 25/14 Q1020=
2010071018 - SBKP 101800Z 13011KT CAVOK 25/13 Q1019=
2010071019 - SBKP 101900Z 13015KT CAVOK 23/13 Q1019=
2010071020 - SBKP 102000Z 12014KT 8000 NSC 22/13 Q1019=
2010071021 - SBKP 102100Z 14018KT 5000 HZ NSC 19/13 Q1019=
2010071022 - SBKP 102200Z 13017KT 8000 NSC 18/13 Q1019=
2010071023 - SBKP 102300Z 12017KT 8000 NSC 17/13 Q1020=
2010071100 - SBKP 110000Z 12015KT 9000 NSC 17/13 Q1020=
2010071101 - SBKP 110100Z 11014KT 9000 NSC 16/13 Q1020=
2010071102 - SBKP 110200Z 11016KT CAVOK 16/13 Q1020=
2010071103 - SBKP 110300Z 11017KT CAVOK 16/13 Q1020=
2010071104 - SBKP 110400Z 11015KT CAVOK 16/13 Q1019=
2010071105 - SBKP 110500Z 11016KT CAVOK 16/13 Q1019=
2010071106 - SBKP 110600Z 11010KT CAVOK 16/13 Q1018=
2010071107 - SBKP 110700Z 11008KT CAVOK 16/13 Q1018=
2010071108 - SBKP 110800Z 11009KT CAVOK 16/13 Q1018=
2010071109 - SBKP 110900Z 11009KT CAVOK 15/13 Q1018=
2010071110 - SBKP 111000Z 11009KT 5000 BR NSC 15/13 Q1019=
2010071111 - SBKP 111100Z 11009KT 5000 BR NSC 16/14 Q1019=
2010071112 - SBKP 111200Z 10006KT 9000 NSC 19/14 Q1020=
2010071113 - SBKP 111300Z 08004KT 9000 NSC 22/14 Q1020=
2010071114 - SBKP 111400Z 06003KT CAVOK 23/13 Q1019=
2010071115 - SBKP 111500Z 34003KT 9999 FEW020 25/14 Q1018=
2010071116 - SBKP 111600Z 33006KT 9999 FEW020 26/13 Q1017=
2010071117 - SBKP 111700Z 36005KT 9999 FEW020 26/13 Q1016=
2010071118 - SBKP 111800Z 02005KT 9999 FEW025 26/13 Q1015=
2010071119 - SBKP 111900Z 31005KT 9999 FEW025 26/12 Q1015=
2010071120 - SBKP 112000Z 31004KT 9999 FEW040 25/12 Q1015=
2010071121 - SBKP 112100Z 26002KT CAVOK 23/12 Q1015=
2010071122 - SBKP 112200Z 14003KT CAVOK 20/12 Q1015=
2010071123 - SBKP 112300Z 10005KT CAVOK 18/13 Q1016=
2010071200 - SBKP 120000Z 11007KT CAVOK 18/13 Q1016=
2010071201 - SBKP 120100Z 11008KT CAVOK 17/13 Q1017=
2010071202 - SBKP 120200Z 12008KT CAVOK 17/13 Q1017=
2010071203 - SBKP 120300Z 12009KT CAVOK 16/13 Q1017=
2010071204 - SBKP 120400Z 11006KT CAVOK 15/13 Q1017=
2010071205 - SBKP 120500Z 11006KT CAVOK 15/13 Q1016=
2010071206 - SBKP 120600Z 10006KT CAVOK 15/13 Q1016=
2010071207 - SBKP 120700Z 12006KT CAVOK 15/13 Q1015=
2010071208 - SBKP 120800Z 10006KT CAVOK 15/13 Q1015=
2010071209 - SBKP 120900Z 10005KT CAVOK 15/13 Q1016=
2010071210 - SBKP 121000Z 09006KT 9000 NSC 14/12 Q1016=
2010071211 - SBKP 121100Z 07004KT CAVOK 18/13 Q1016=
2010071212 - SBKP 121200Z 02008KT CAVOK 22/14 Q1016=
2010071213 - SBKP 121300Z 02010KT CAVOK 24/14 Q1016=
2010071214 - SBKP 121400Z 36015KT CAVOK 25/14 Q1016=
2010071215 - SBKP 121500Z 36012KT 9999 FEW020 27/13 Q1015=
2010071216 - SBKP 121600Z 33012KT 9999 FEW025 28/13 Q1014=
2010071217 - SBKP 121700Z 34015KT 9999 SCT030 FEW040TCU 29/13 Q1013=
2010071218 - SBKP 121800Z 31013KT 9999 FEW030 FEW040TCU 27/13 Q1012=
2010071219 - SBKP 121900Z 36015G25KT 9999 FEW030 FEW040TCU 27/13 Q1012 WS R33=
2010071220 - SBKP 122000Z 01007KT 9999 FEW030 FEW040TCU 26/12 Q1012=
2010071221 - SBKP 122100Z 01006KT 9999 FEW040 23/13 Q1012=
2010071222 - SBKP 122200Z 05006KT CAVOK 23/14 Q1012=
2010071223 - SBKP 122300Z 03009KT CAVOK 22/12 Q1013=
2010071300 - SBKP 130000Z 03008KT CAVOK 21/12 Q1013=
2010071301 - SBKP 130100Z 03008KT CAVOK 21/12 Q1013=
2010071302 - SBKP 130200Z 01006KT CAVOK 21/12 Q1013=
2010071303 - SBKP 130300Z 03006KT CAVOK 21/11 Q1013=
2010071304 - SBKP 130400Z 01007KT CAVOK 20/12 Q1013=
2010071305 - SBKP 130500Z 36007KT CAVOK 18/12 Q1013=
2010071306 - SBKP 130600Z 27004KT CAVOK 17/13 Q1013=
2010071307 - SBKP 130700Z 01003KT CAVOK 16/12 Q1013=
2010071308 - SBKP 130800Z 36003KT CAVOK 17/13 Q1013=
2010071309 - SBKP 130900Z 33004KT CAVOK 16/13 Q1014=
2010071310 - SBKP 131000Z 01008KT 9999 VCSH BKN023 BKN070 17/14 Q1015=
2010071311 - SBKP 131100Z 01008KT 9999 FEW020 BKN050 19/15 Q1016=
2010071312 - SBKP 131200Z 35008KT 9999 VCSH BKN040 21/15 Q1016=
2010071313 - SBKP 131300Z 33006KT 9999 3500NW -RA BKN035 SCT045 19/15 Q1016=
2010071313 - SBKP 131310Z 30008KT 2500 TSRA BR BKN035 FEW045CB 18/15 Q1017=
2010071313 - SBKP 131330Z 30010KT 1600 R15///// R33///// +TSRA BR BKN030 FEW045CB 17/16 Q1017=
2010071314 - SBKP 131400Z 31008KT 3500 -RA BR BKN030 FEW045TCU OVC100 17/16 Q1017 RETSRA=
2010071315 - SBKP 131500Z 01004KT 4000 -RA BR FEW005 SCT025 OVC100 17/17 Q1017=
2010071316 - SBKP 131600Z 35007KT 3000 RA BR FEW005 SCT040 OVC070 17/17 Q1016=
2010071316 - SBKP 131615Z 01006KT 5000 -RA BR SCT005 BKN070 18/17 Q1015 RERA=
2010071317 - SBKP 131700Z 04002KT 6000 FEW006 SCT045 OVC070 17/17 Q1015 RERA=
2010071317 - SBKP 131740Z 24005KT 1500 R15///// R33///// RA BR BKN030 OVC070 17/17 Q1016=
2010071318 - SBKP 131800Z 22005KT 1000 R15///// R33///// +RA BR BKN030 OVC070 17/17 Q1016=
2010071318 - SBKP 131820Z 08004KT 2000 -RA BR BKN030 OVC070 17/17 Q1015 RERA=
2010071319 - SBKP 131900Z 04003KT 1500 R15///// R33///// -RA BR BKN030 OVC070 17/17 Q1015 RERA=
2010071320 - SBKP 132000Z 03003KT 1500 R15///// R33///// -RA BR FEW008 BKN030 OVC070 17/17 Q1015=
2010071320 - SBKP 132040Z 36004KT 1300 R15///// R33///// RA BR BKN010 BKN030 OVC070 17/17 Q1015=
2010071321 - SBKP 132100Z 36005KT 1300 R15///// R33///// RA BR BKN010 BKN030 OVC070 17/17 Q1015=
2010071321 - SBKP 132140Z 32005KT 2000 -RA BR BKN007 BKN030 OVC070 17/17 Q1016 RERA=
2010071322 - SBKP 132200Z 31005KT 3000 RA BR BKN007 BKN030 OVC070 17/17 Q1016=
2010071323 - SBKP 132300Z 34004KT 5000 -RA BR BKN007 SCT030 OVC070 17/17 Q1016 RERA=
2010071400 - SBKP 140000Z 35004KT 4000 -RA BR BKN007 SCT030 OVC070 17/17 Q1017=
2010071401 - SBKP 140100Z 30003KT 5000 -RA SCT009 SCT040 OVC090 17/17 Q1018=
2010071402 - SBKP 140200Z 32006KT 4000 -RA BR BKN009 SCT040 OVC090 17/17 Q1018=
2010071402 - SBKP 140235Z 01002KT 7000 BKN006 SCT040 OVC090 17/17 Q1018=
2010071403 - SBKP 140300Z 31001KT 9999 BKN006 SCT040 OVC090 15/15 Q1018=
2010071404 - SBKP 140400Z 11012KT 9999 BKN013 SCT040 OVC090 14/14 Q1018=
2010071405 - SBKP 140500Z 11011KT 9999 BKN015 SCT040 OVC100 14/14 Q1017=
2010071406 - SBKP 140600Z 11011KT 9999 -RA BKN015 BKN040 OVC100 14/14 Q1017=
2010071407 - SBKP 140700Z 10012KT 9999 -RA SCT020 BKN040 BKN100 14/13 Q1017=
2010071408 - SBKP 140800Z 15007KT 9999 -RA SCT020 BKN035 BKN100 14/14 Q1017=
2010071409 - SBKP 140900Z 10011KT 9999 -RA FEW020 SCT035 OVC090 14/13 Q1017=
2010071409 - SBKP 140940Z 10008KT 4000 RA BR BKN017 SCT035 OVC090 14/13 Q1018=
2010071410 - SBKP 141000Z 11013KT 4000 RA BR FEW017 SCT035 OVC100 14/13 Q1018=
2010071411 - SBKP 141100Z 11010KT 4000 -RA BR SCT012 BKN035 OVC100 14/13 Q1019 RERA=
2010071412 - SBKP 141200Z 11013KT 6000 -RA FEW010 SCT022 OVC100 14/14 Q1019=
2010071412 - SBKP 141230Z 11013KT 3000 RA BR FEW010 SCT022 OVC100 14/13 Q1020=
2010071413 - SBKP 141300Z 11011KT 4000 -RA BR FEW010 SCT022 OVC100 14/13 Q1021 RERA=
2010071414 - SBKP 141400Z 11011KT 6000 -RA FEW010 SCT016 OVC080 ///// Q1020=
2010071415 - SBKP 141500Z 12011KT 9999 FEW010 BKN015 OVC080 ///// Q1020=
2010071416 - SBKP 141600Z 12011KT 9999 BKN018 OVC080 16/14 Q1019=
2010071417 - SBKP 141700Z 14011KT 9999 -RA BKN018 OVC080 15/13 Q1019=
2010071417 - SBKP 141745Z 21009KT 2000 RA BR BKN010 OVC080 15/14 Q1019=
2010071418 - SBKP 141800Z 24008KT 4000 -RA BR BKN010 OVC080 14/14 Q1019 RERA=
2010071418 - SBKP 141815Z 22008KT 2000 -RA BR BKN004 BKN010 OVC023 14/14 Q1019=
2010071419 - SBKP 141900Z 17008KT 2000 -RA BR BKN004 BKN010 OVC030 14/14 Q1019=
2010071419 - SBKP 141925Z 13008KT 5000 -RA BR BKN005 BKN010 OVC030 14/14 Q1019=
2010071420 - SBKP 142000Z 13011KT 7000 -RA SCT005 SCT010 OVC030 14/13 Q1020=
2010071420 - SBKP 142010Z 14014G24KT 4000 RA BR SCT005 BKN010 OVC030 13/12 Q1020=
2010071421 - SBKP 142100Z 12016KT 4000 RA BR SCT005 BKN010 BKN022 13/12 Q1020=
2010071421 - SBKP 142115Z 12015KT 9999 -RA FEW005 SCT010 OVC022 13/12 Q1020 RERA=
2010071422 - SBKP 142200Z 12017KT 9999 FEW005 SCT010 OVC025 13/12 Q1020 RERA=
2010071423 - SBKP 142300Z 11015KT 9999 FEW010 OVC025 13/12 Q1021=
2010071500 - SBKP 150000Z 12014KT 9999 SCT025 OVC030 13/12 Q1021=
2010071501 - SBKP 150100Z 12015KT 9999 -RA FEW010 SCT025 BKN030 13/12 Q1021=
2010071502 - SBKP 150200Z 13016KT 9000 -RA FEW010 BKN030 13/12 Q1021=
2010071503 - SBKP 150300Z 12013KT 9000 -RA BKN030 13/12 Q1021=
2010071504 - SBKP 150400Z 12013KT 9999 -RA BKN035 13/12 Q1021=
2010071505 - SBKP 150500Z 11015KT 9999 SCT045 OVC100 13/12 Q1021=
2010071506 - SBKP 150600Z 11016KT 9999 BKN040 OVC090 13/12 Q1021=
2010071507 - SBKP 150700Z 12015KT 9999 FEW029 BKN040 OVC090 13/12 Q1020=
2010071508 - SBKP 150800Z 12014KT 9999 BKN030 BKN090 13/12 Q1021=
2010071509 - SBKP 150900Z 13017KT 9999 OVC025 13/12 Q1021=
2010071510 - SBKP 151000Z 13013KT 9999 SCT013 SCT025 OVC100 14/12 Q1022=
2010071511 - SBKP 151100Z 12015KT 9999 VCSH FEW010 BKN025 OVC100 14/12 Q1023=
2010071511 - SBKP 151130Z 12016KT 9999 4500W -TSRA BKN025 FEW040CB OVC100 14/12 Q1023=
2010071512 - SBKP 151200Z 11018KT 9999 3000SW -TSRA BKN030 FEW040CB OVC100 14/13 Q1022=
2010071513 - SBKP 151300Z 15011KT 1000 R15///// R33///// +TSRA SCT010 SCT040CB OVC100 14/13 Q1025=
2010071513 - SBKP 151310Z 11018KT 2500 TSRA SCT010 FEW040CB OVC100 13/13 Q1024 RERA=
2010071514 - SBKP 151400Z 10013KT 9999 FEW004 SCT040 BKN090 14/14Q1023 RETSRA=
2010071515 - SBKP 151500Z 11016KT 9999 BKN035 BKN090 16/14 Q1022=
2010071516 - SBKP 151600Z 12011KT 9999 4000N -RA FEW010 BKN035 OVC090 16/14 Q1022=
2010071517 - SBKP 151700Z 12013KT 9999 FEW010 BKN035 OVC090 18/15 Q1021=
2010071518 - SBKP 151800Z 13015KT 9999 SCT040 BKN090 18/15 Q1021=
2010071519 - SBKP 151900Z 12017KT 9999 FEW015 SCT040 18/15 Q1020=
2010071520 - SBKP 152000Z 12017KT 9999 FEW015 SCT040 BKN090 17/14 Q1021=
2010071520 - SBKP 152020Z 12018G29KT 9999 FEW015 SCT040 BKN090 16/14 Q1021=
2010071521 - SBKP 152100Z 12019KT 9999 FEW040 SCT070 BKN090 16/14 Q1021=
2010071522 - SBKP 152200Z 12018G28KT 9999 FEW040 SCT080 16/14 Q1022=
2010071523 - SBKP 152300Z 12018KT 9999 FEW040 SCT080 16/14 Q1022=
2010071600 - SBKP 160000Z 14015KT 9999 SCT043 BKN080 16/14 Q1023=
2010071601 - SBKP 160100Z 14015KT 9999 SCT043 BKN080 16/14 Q1024=
2010071601 - SBKP 160125Z 13013KT 9999 TS SCT015 FEW040CB BKN080 16/14 Q1025=
2010071602 - SBKP 160200Z 12020KT 9000 -TSRA SCT010 SCT040 FEW045CB OVC080 15/14 Q1024=
2010071603 - SBKP 160300Z 13015KT 9999 SCT010 SCT030 BKN060 15/14 Q1025 RETS=
2010071604 - SBKP 160400Z 12015KT 9999 FEW010 BKN090 15/14 Q1024=
2010071605 - SBKP 160500Z 12018KT 9999 FEW010 SCT090 15/13 Q1024=
2010071606 - SBKP 160600Z 12018KT 9999 FEW010 SCT090 15/13 Q1024=
2010071607 - SBKP 160700Z 12018KT 9999 FEW010 BKN035 15/13 Q1024=
2010071608 - SBKP 160800Z 14017KT 9999 FEW010 BKN035 15/13 Q1025=
2010071609 - SBKP 160900Z 12021KT 9999 SCT035 SCT090 14/12 Q1024=
2010071610 - SBKP 161000Z 12017G27KT 9999 FEW010 SCT040 BKN100 15/12 Q1026=
2010071611 - SBKP 161100Z 11022G32KT 9999 FEW010 SCT040 15/12 Q1025=
2010071612 - SBKP 161200Z 12022KT 9999 FEW015 SCT100 17/13 Q1027=
2010071613 - SBKP 161300Z 12021KT 9999 FEW015 SCT044 17/13 Q1028=
2010071614 - SBKP 161400Z 13023KT 9999 FEW020 SCT044 BKN100 17/13 Q1028=
2010071615 - SBKP 161500Z 13023KT 9999 SCT020 BKN045 BKN100 17/13 Q1028=
2010071616 - SBKP 161600Z 12017KT 9999 SCT025 BKN045 BKN100 17/13 Q1027=
2010071617 - SBKP 161700Z 12022KT 9999 SCT025 SCT045 BKN100 17/12 Q1027=
2010071618 - SBKP 161800Z 12022KT 9999 SCT025 SCT045 BKN100 17/12 Q1027=
2010071618 - SBKP 161830Z 12020G31KT 9999 SCT025 BKN060 BKN100 17/12 Q1026=
2010071619 - SBKP 161900Z 12023G33KT 9999 SCT015 BKN060 BKN100 17/12 Q1025=
2010071620 - SBKP 162000Z 12023G34KT 9999 FEW015 SCT060 BKN100 16/12 Q1026=
2010071621 - SBKP 162100Z 13018G28KT 9999 SCT020 BKN100 15/12 Q1026=
2010071622 - SBKP 162200Z 12025G35KT 9999 FEW020 BKN100 15/12 Q1026 WS R15=
2010071623 - SBKP 162300Z 12025G35KT 9999 FEW020 BKN080 15/12 Q1027 WS R15=
2010071700 - SBKP 170000Z 12023G33KT 9999 FEW020 SCT045 BKN100 15/12 Q1027=
2010071701 - SBKP 170100Z 12019KT 9999 FEW045 BKN090 15/12 Q1027 WS R15=
2010071702 - SBKP 170200Z 11021G31KT 9999 FEW020 BKN090 15/12 Q1022 WS R15=
2010071703 - SBKP 170300Z 13012KT 9999 FEW020 BKN090 15/12 Q1028=
2010071704 - SBKP 170400Z 13014KT 9999 FEW020 BKN090 15/12 Q1028=
2010071705 - SBKP 170500Z 12013KT 9999 FEW020 SCT090 14/12 Q1027=
2010071706 - SBKP 170600Z 12013KT 9999 FEW020 BKN100 15/12 Q1027=
2010071707 - SBKP 170700Z 11011KT 9999 FEW020 BKN100 15/12 Q1027=
2010071708 - SBKP 170800Z 12012KT 9999 FEW020 BKN100 15/12 Q1026=
2010071709 - SBKP 170900Z 12012KT 9999 FEW020 SCT100 15/12 Q1027=
2010071710 - SBKP 171000Z 12012KT 9999 FEW020 BKN100 15/13 Q1027=
2010071711 - SBKP 171100Z 12011KT 9999 FEW020 BKN100 16/13 Q1028=
2010071712 - SBKP 171200Z 12015KT 9999 FEW020 SCT100 19/14 Q1028=
2010071713 - SBKP 171300Z 12014KT 9999 FEW020 19/14 Q1029=
2010071714 - SBKP 171400Z 12013KT 9999 SCT020 SCT080 22/14 Q1029=
2010071715 - SBKP 171500Z 12013KT 9999 SCT020 SCT080 22/14 Q1028=
2010071716 - SBKP 171600Z 12014KT 9999 SCT020 SCT080 23/15 Q1027=
2010071717 - SBKP 171700Z 12017KT 9999 FEW025 SCT080 23/15 Q1026=
2010071718 - SBKP 171800Z 12017KT 9999 FEW025 SCT100 23/14 Q1026=
2010071719 - SBKP 171900Z 12015KT 9999 FEW025 22/14 Q1025=
2010071720 - SBKP 172000Z 13019KT 9999 FEW023 20/15 Q1026=
2010071721 - SBKP 172100Z 12018KT 9999 FEW023 18/14 Q1025=
2010071722 - SBKP 172200Z 12018KT 9999 FEW023 17/14 Q1026=
2010071723 - SBKP 172300Z 12018KT CAVOK 17/14 Q1026=
2010071800 - SBKP 180000Z 11014KT 9999 FEW035 17/14 Q1026=
2010071801 - SBKP 180100Z 10014KT CAVOK 16/14 Q1027=
2010071802 - SBKP 180200Z 11016KT CAVOK 16/14 Q1027=
2010071803 - SBKP 180300Z 11014KT CAVOK 16/14 Q1026=
2010071804 - SBKP 180400Z 11014KT CAVOK 16/14 Q1026=
2010071805 - SBKP 180500Z 11013KT CAVOK 16/14 Q1026=
2010071806 - SBKP 180600Z 11011KT CAVOK 16/14 Q1025=
2010071807 - SBKP 180700Z 11009KT CAVOK 16/14 Q1025=
2010071808 - SBKP 180800Z 11007KT CAVOK 15/14 Q1025=
2010071809 - SBKP 180900Z 11004KT CAVOK 15/14 Q1026=
2010071810 - SBKP 181000Z 10006KT 9999 FEW020 15/14 Q1026=
2010071811 - SBKP 181100Z 11008KT 9999 FEW020 17/15 Q1027=
2010071812 - SBKP 181200Z 11010KT 9999 FEW020 19/15 Q1027=
2010071813 - SBKP 181300Z 10008KT 9999 SCT020 21/16 Q1028=
2010071814 - SBKP 181400Z 08007KT 9999 SCT020 23/15 Q1027=
2010071815 - SBKP 181500Z 05010KT 9999 SCT020 24/15 Q1025=
2010071816 - SBKP 181600Z 04005KT 9999 SCT035 24/14 Q1024=
2010071817 - SBKP 181700Z 05005KT 9999 SCT035 26/14 Q1023=
2010071818 - SBKP 181800Z 05004KT 9999 SCT040 26/15 Q1022=
2010071819 - SBKP 181900Z 14005KT 9999 SCT040 25/15 Q1022=
2010071820 - SBKP 182000Z 12012KT 9999 FEW035 23/15 Q1022=
2010071821 - SBKP 182100Z 12007KT 9999 FEW035 20/15 Q1022=
2010071822 - SBKP 182200Z 11010KT CAVOK 20/15 Q1022=
2010071823 - SBKP 182300Z 11012KT CAVOK 18/16 Q1023=
2010071900 - SBKP 190000Z 11012KT CAVOK 18/16 Q1023=
2010071901 - SBKP 190100Z 11012KT 9999 SCT045 18/16 Q1023=
2010071902 - SBKP 190200Z 11013KT 9999 FEW045 17/15 Q1023=
2010071903 - SBKP 190300Z 11010KT CAVOK 16/15 Q1023=
2010071904 - SBKP 190400Z 12012KT CAVOK 16/15 Q1023=
2010071905 - SBKP 190500Z 11010KT CAVOK 15/14 Q1022=
2010071906 - SBKP 190600Z 11009KT CAVOK 15/14 Q1022=
2010071907 - SBKP 190700Z 11009KT CAVOK 15/14 Q1021=
2010071908 - SBKP 190800Z 11008KT CAVOK 15/14 Q1021=
2010071909 - SBKP 190900Z 11008KT CAVOK 15/14 Q1022=
2010071910 - SBKP 191000Z 10005KT CAVOK 15/14 Q1023=
2010071911 - SBKP 191100Z 11006KT CAVOK 16/14 Q1023=
2010071912 - SBKP 191200Z 10004KT CAVOK 19/15 Q1024=
2010071913 - SBKP 191300Z 03005KT CAVOK 22/15 Q1024=
2010071914 - SBKP 191400Z 04008KT CAVOK 23/14 Q1023=
2010071915 - SBKP 191500Z 02012KT CAVOK 24/14 Q0121=
2010071916 - SBKP 191600Z 01013KT CAVOK 26/14 Q1020=
2010071917 - SBKP 191700Z 01012KT 9999 FEW040 26/14 Q1020=
2010071918 - SBKP 191800Z 35011KT 9999 FEW040 26/13 Q1019=
2010071919 - SBKP 191900Z 36012KT 9999 FEW040 26/14 Q1019=
2010071920 - SBKP 192000Z 34009KT 9999 FEW040 25/13 Q1020=
2010071921 - SBKP 192100Z 34004KT 9999 FEW040 23/13 Q1020=
2010071922 - SBKP 192200Z 02002KT 9999 FEW047 BKN070 22/14 Q1021=
2010071923 - SBKP 192300Z 10005KT 9999 FEW047 SCT070 20/14 Q1021=
2010071900 - SBKP 190000Z 11012KT CAVOK 18/16 Q1023=
2010071901 - SBKP 190100Z 11012KT 9999 SCT045 18/16 Q1023=
2010071902 - SBKP 190200Z 11013KT 9999 FEW045 17/15 Q1023=
2010071903 - SBKP 190300Z 11010KT CAVOK 16/15 Q1023=
2010071904 - SBKP 190400Z 12012KT CAVOK 16/15 Q1023=
2010071905 - SBKP 190500Z 11010KT CAVOK 15/14 Q1022=
2010071906 - SBKP 190600Z 11009KT CAVOK 15/14 Q1022=
2010071907 - SBKP 190700Z 11009KT CAVOK 15/14 Q1021=
2010071908 - SBKP 190800Z 11008KT CAVOK 15/14 Q1021=
2010071909 - SBKP 190900Z 11008KT CAVOK 15/14 Q1022=
2010071910 - SBKP 191000Z 10005KT CAVOK 15/14 Q1023=
2010071911 - SBKP 191100Z 11006KT CAVOK 16/14 Q1023=
2010071912 - SBKP 191200Z 10004KT CAVOK 19/15 Q1024=
2010071913 - SBKP 191300Z 03005KT CAVOK 22/15 Q1024=
2010071914 - SBKP 191400Z 04008KT CAVOK 23/14 Q1023=
2010071915 - SBKP 191500Z 02012KT CAVOK 24/14 Q0121=
2010071916 - SBKP 191600Z 01013KT CAVOK 26/14 Q1020=
2010071917 - SBKP 191700Z 01012KT 9999 FEW040 26/14 Q1020=
2010071918 - SBKP 191800Z 35011KT 9999 FEW040 26/13 Q1019=
2010071919 - SBKP 191900Z 36012KT 9999 FEW040 26/14 Q1019=
2010071920 - SBKP 192000Z 34009KT 9999 FEW040 25/13 Q1020=
2010071921 - SBKP 192100Z 34004KT 9999 FEW040 23/13 Q1020=
2010071922 - SBKP 192200Z 02002KT 9999 FEW047 BKN070 22/14 Q1021=
2010071923 - SBKP 192300Z 10005KT 9999 FEW047 SCT070 20/14 Q1021=
2010072000 - SBKP 200000Z 10005KT CAVOK 17/14 Q1021=
2010072101 - SBKP 210100Z 12011KT CAVOK 18/15 Q1021=
2010072102 - SBKP 210200Z 12011KT CAVOK 18/15 Q1021=
2010072103 - SBKP 210300Z 12010KT CAVOK 17/15 Q1021=
2010072104 - SBKP 210400Z 12008KT CAVOK 17/15 Q1021=
2010072105 - SBKP 210500Z 13010KT CAVOK 17/15 Q1021=
2010072106 - SBKP 210600Z 11007KT CAVOK 16/15 Q1021=
2010072107 - SBKP 210700Z 11006KT CAVOK 16/15 Q1021=
2010072108 - SBKP 210800Z 11005KT CAVOK 16/14 Q1021=
2010072109 - SBKP 210900Z 12007KT CAVOK 15/14 Q1022=
2010072110 - SBKP 211000Z 10007KT 9999 FEW040 18/15 Q1023=
2010072111 - SBKP 211100Z 10007KT 9999 FEW040 18/15 Q1023=
2010072112 - SBKP 211200Z 07007KT CAVOK 21/15 Q1024=
2010072113 - SBKP 211300Z 03011KT CAVOK 24/13 Q1024=
2010072114 - SBKP 211400Z 03009KT CAVOK 26/13 Q1023=
2010072115 - SBKP 211500Z 01007KT 9999 FEW020 27/13 Q1022=
2010072116 - SBKP 211600Z 01010KT 9999 FEW035 28/12 Q1020=
2010072117 - SBKP 211700Z 03009KT 9999 FEW035 28/10 Q1019=
2010072118 - SBKP 211800Z 01008KT 9999 FEW035 28/09 Q1019=
2010072119 - SBKP 211900Z 02006KT 9999 FEW040 28/10 Q1018=
2010072120 - SBKP 212000Z 36006KT 9999 FEW040 27/09 Q1018=
2010072121 - SBKP 212100Z 01004KT CAVOK 24/09 Q1019=
2010072122 - SBKP 212200Z 06004KT CAVOK 21/11 Q1019=
2010072123 - SBKP 212300Z 05003KT CAVOK 21/11 Q1020=
2010072200 - SBKP 220000Z 06005KT CAVOK 19/11 Q1020=
2010072201 - SBKP 220100Z 08005KT CAVOK 17/11 Q1020=
2010072202 - SBKP 220200Z 08006KT CAVOK 18/11 Q1020=
2010072203 - SBKP 220300Z 05005KT CAVOK 18/11 Q1020=
2010072204 - SBKP 220400Z 05005KT CAVOK 19/10 Q1020=
2010072205 - SBKP 220500Z 33005KT CAVOK 18/11 Q1020=
2010072206 - SBKP 220600Z 01005KT CAVOK 16/11 Q1019=
2010072207 - SBKP 220700Z 01006KT CAVOK 15/11 Q1019=
2010072208 - SBKP 220800Z 02007KT CAVOK 15/11 Q1019=
2010072209 - SBKP 220900Z 02007KT CAVOK 16/11 Q1020=
2010072210 - SBKP 221000Z 03005KT CAVOK 17/11 Q1020=
2010072211 - SBKP 221100Z 02007KT 7000 NSC 19/12 Q1021=
2010072212 - SBKP 221200Z 36010KT 9000 NSC 22/13 Q1022=
2010072213 - SBKP 221300Z 01013KT 9000 NSC 24/13 Q1022=
2010072214 - SBKP 221400Z 01013KT 9000 NSC 25/13 Q1021=
2010072215 - SBKP 221500Z 36011KT CAVOK 27/12 Q1020=
2010072216 - SBKP 221600Z 33011KT CAVOK 28/13 Q1020=
2010072217 - SBKP 221700Z 33013KT CAVOK 29/12 Q1019=
2010072218 - SBKP 221800Z 31012KT CAVOK 29/12 Q1019=
2010072219 - SBKP 221900Z 30012KT CAVOK 29/12 Q1018=
2010072220 - SBKP 222000Z 31009KT CAVOK 27/12 Q1019=
2010072221 - SBKP 222100Z 30004KT CAVOK 24/12 Q1019=
2010072222 - SBKP 222200Z 34003KT CAVOK 23/12 Q1019=
2010072223 - SBKP 222300Z 35003KT CAVOK 22/12 Q1020=
2010072300 - SBKP 230000Z 08003KT CAVOK 19/13 Q1020=
2010072301 - SBKP 230100Z 10004KT CAVOK 18/13 Q1021=
2010072302 - SBKP 230200Z 10004KT CAVOK 17/13 Q1021=
2010072303 - SBKP 230300Z 08005KT CAVOK 16/13 Q1021=
2010072304 - SBKP 230400Z 08004KT CAVOK 16/13 Q1021=
2010072305 - SBKP 230500Z 11006KT CAVOK 15/13 Q1021=
2010072306 - SBKP 230600Z 10007KT CAVOK 15/13 Q1021=
2010072307 - SBKP 230700Z 09005KT CAVOK 14/12 Q1020=
2010072308 - SBKP 230800Z 10006KT CAVOK 14/12 Q1021=
2010072309 - SBKP 230900Z 09006KT CAVOK 14/12 Q1021=
2010072310 - SBKP 231000Z 10005KT CAVOK 14/12 Q1022=
2010072311 - SBKP 231100Z 09003KT 8000 3500N NSC 18/14 Q1023=
2010072312 - SBKP 231200Z 11002KT 8000 3500NE NSC 21/14 Q1024=
2010072313 - SBKP 231300Z 23008KT 7000 NSC 22/14 Q1025=
2010072314 - SBKP 231400Z 28006KT 8000 NSC 25/14 Q1026=
2010072315 - SBKP 231500Z 31005KT CAVOK 26/13 Q1025=
2010072316 - SBKP 231600Z 25006KT CAVOK 28/13 Q1024=
2010072317 - SBKP 231700Z 27007KT CAVOK 28/13 Q1023=
2010072318 - SBKP 231800Z 29005KT 9999 FEW040 29/13 Q1022=
2010072319 - SBKP 231900Z 35004KT 9999 FEW040 27/13 Q1022=
2010072320 - SBKP 232000Z 23001KT 9999 FEW040 26/13 Q1022=
2010072321 - SBKP 232100Z 16004KT 9999 FEW045 24/13 Q1023=
2010072322 - SBKP 232200Z 15006KT 9999 FEW045 22/14 Q1023=
2010072323 - SBKP 232300Z 12017KT 7000 NSC 19/16 Q1024=
2010072323 - SBKP 232340Z 12018G28KT 5000 BR NSC 18/15 Q1024=
2010072400 - SBKP 240000Z 11017G28KT 5000 BR NSC 18/15 Q1024=
2010072401 - SBKP 240100Z 12019KT 6000 FEW010 17/15 Q1024=
2010072402 - SBKP 240200Z 12017G28KT 8000 NSC 17/15 Q1024=
2010072403 - SBKP 240300Z 12018G28KT CAVOK 17/14 Q1024=
2010072404 - SBKP 240400Z 11016KT CAVOK 17/14 Q1024=
2010072405 - SBKP 240500Z 12015KT CAVOK 17/14 Q1024=
2010072406 - SBKP 240600Z 12014KT CAVOK 17/14 Q1024=
2010072407 - SBKP 240700Z 12014KT CAVOK 17/15 Q1024=
2010072408 - SBKP 240800Z 12013KT CAVOK 17/14 Q1024=
2010072409 - SBKP 240900Z 12012KT CAVOK 16/14 Q1024=
2010072410 - SBKP 241000Z 12011KT 8000 NSC 16/14 Q1022=
2010072411 - SBKP 241100Z 11013KT CAVOK 18/15 Q1026=
2010072412 - SBKP 241200Z 11013KT CAVOK 20/15 Q1026=
2010072413 - SBKP 241300Z 11014KT 9999 FEW040 22/15 Q1027=
2010072414 - SBKP 241400Z 10011KT 9999 FEW040 24/15 Q1026=
2010072415 - SBKP 241500Z 13013KT 9999 FEW035 25/15 Q1025=
2010072416 - SBKP 241600Z 13011KT 9999 FEW035 25/15 Q1024=
2010072417 - SBKP 241700Z 10010KT 9999 FEW035 26/13 Q1023=
2010072418 - SBKP 241800Z 12010KT CAVOK 26/13 Q1022=
2010072419 - SBKP 241900Z 12010KT CAVOK 25/13 Q1022=
2010072420 - SBKP 242000Z 12012KT CAVOK 24/13 Q1022=
2010072421 - SBKP 242100Z 12008KT 9999 FEW030 21/13 Q1022=
2010072422 - SBKP 242200Z 11011KT CAVOK 20/14 Q1023=
2010072423 - SBKP 242300Z 11012KT CAVOK 19/15 Q1023=
2010072500 - SBKP 250000Z 11013KT CAVOK 18/15 Q1024=
2010072501 - SBKP 250100Z 11013KT CAVOK 18/15 Q1024=
2010072502 - SBKP 250200Z 11011KT CAVOK 17/15 Q1025=
2010072503 - SBKP 250300Z 11010KT CAVOK 16/15 Q1025=
2010072504 - SBKP 250400Z 11009KT CAVOK 16/14 Q1024=
2010072505 - SBKP 250500Z 12010KT CAVOK 15/14 Q1024=
2010072506 - SBKP 250600Z 10007KT CAVOK 15/14 Q1024=
2010072507 - SBKP 250700Z 10005KT CAVOK 14/13 Q1024=
2010072508 - SBKP 250800Z 10005KT CAVOK 13/13 Q1024=
2010072509 - SBKP 250900Z 11006KT CAVOK 13/12 Q1024=
2010072510 - SBKP 251000Z 10006KT CAVOK 13/12 Q1025=
2010072511 - SBKP 251100Z 09006KT CAVOK 15/13 Q1025=
2010072512 - SBKP 251200Z 06006KT CAVOK 19/13 Q1026=
2010072513 - SBKP 251300Z 03010KT CAVOK 22/10 Q1026=
2010072514 - SBKP 251400Z 02013KT CAVOK 23/10 Q1025=
2010072515 - SBKP 251500Z 36009KT 9999 FEW030 23/10 Q1025=
2010072516 - SBKP 251600Z 36007KT 9999 FEW030 24/09 Q1023=
2010072517 - SBKP 251700Z 33007KT 9999 FEW030 25/10 Q1022=
2010072518 - SBKP 251800Z 31006KT CAVOK 24/10 Q1021=
2010072519 - SBKP 251900Z 34007KT CAVOK 25/09 Q1021=
2010072520 - SBKP 252000Z 01006KT CAVOK 24/08 Q1021=
2010072521 - SBKP 252100Z 36004KT CAVOK 21/08 Q1021=
2010072522 - SBKP 252200Z 34004KT CAVOK 21/08 Q1021=
2010072523 - SBKP 252300Z 31006KT CAVOK 19/09 Q1022=
2010072600 - SBKP 260000Z 03002KT CAVOK 16/09 Q1022=
2010072601 - SBKP 260100Z 10006KT CAVOK 14/10 Q1023=
2010072602 - SBKP 260200Z 10006KT CAVOK 13/10 Q1023=
2010072603 - SBKP 260300Z 03002KT CAVOK 13/10 Q1023=
2010072604 - SBKP 260400Z 27002KT CAVOK 14/10 Q1022=
2010072605 - SBKP 260500Z 25001KT CAVOK 13/09 Q1022=
2010072606 - SBKP 260600Z 09003KT CAVOK 11/09 Q1022=
2010072607 - SBKP 260700Z 12007KT CAVOK 11/10 Q1022=
2010072608 - SBKP 260800Z 10008KT CAVOK 11/09 Q1021=
2010072609 - SBKP 260900Z 10006KT CAVOK 11/09 Q1022=
2010072610 - SBKP 261000Z 11007KT 9999 NSC 10/09 Q1022=
2010072611 - SBKP 261100Z 10005KT 9000 NSC 14/11 Q1023=
2010072612 - SBKP 261200Z 05003KT 9000 NSC 18/11 Q1023=
2010072613 - SBKP 261300Z 02005KT 6000 NSC 21/12 Q1024=
2010072614 - SBKP 261400Z 01008KT CAVOK 24/09 Q1024=
2010072615 - SBKP 261500Z 32006KT CAVOK 25/09 Q1023=
2010072616 - SBKP 261600Z 30005KT CAVOK 26/09 Q1022=
2010072617 - SBKP 261700Z VRB02KT CAVOK 26/10 Q1021=
2010072618 - SBKP 261800Z 34003KT CAVOK 26/10 Q1020=
2010072619 - SBKP 261900Z 22005KT CAVOK 26/09 Q1020=
2010072620 - SBKP 262000Z 22005KT 9999 FEW040 25/09 Q1020=
2010072621 - SBKP 262100Z 12008KT 9999 FEW040 21/14 Q1021=
2010072622 - SBKP 262200Z 12014KT CAVOK 18/14 Q1022=
2010072623 - SBKP 262300Z 12015KT CAVOK 17/13 Q1022=
2010072700 - SBKP 270000Z 12015KT CAVOK 16/13 Q1023=
2010072701 - SBKP 270100Z 12016KT CAVOK 16/13 Q1023=
2010072702 - SBKP 270200Z 11016KT CAVOK 16/13 Q1023=
2010072703 - SBKP 270300Z 11015KT 9000 NSC 15/13 Q1023=
2010072704 - SBKP 270400Z 12015KT 8000 NSC 15/13 Q1023=
2010072705 - SBKP 270500Z 09016KT 8000 NSC 15/13 Q1023=
2010072706 - SBKP 270600Z 09015KT 9000 NSC 15/13 Q1022=
2010072707 - SBKP 270700Z 12016KT 9000 NSC 15/13 Q1022=
2010072708 - SBKP 270800Z 11013KT CAVOK 14/13 Q1022=
2010072709 - SBKP 270900Z 11014KT CAVOK 14/13 Q1023=
2010072710 - SBKP 271000Z 12011KT 8000 NSC 14/13 Q1023=
2010072711 - SBKP 271100Z 11014KT 9000 NSC 16/14 Q1024=
2010072712 - SBKP 271200Z 11016KT 9999 FEW020 18/13 Q1024=
2010072713 - SBKP 271300Z 12016KT 9999 FEW020 20/13 Q1025=
2010072714 - SBKP 271400Z 12016KT 9999 FEW020 22/13 Q1025=
2010072715 - SBKP 271500Z 13016KT 9999 FEW030 23/13 Q1025=
2010072716 - SBKP 271600Z 11012KT 9999 FEW030 24/12 Q1024=
2010072717 - SBKP 271700Z 11012KT 9999 FEW030 23/13 Q1023=
2010072718 - SBKP 271800Z 13013KT 9999 FEW030 23/13 Q1022=
2010072719 - SBKP 271900Z 13017KT CAVOK 22/13 Q1022=
2010072720 - SBKP 272000Z 14018KT CAVOK 20/13 Q1023=
2010072721 - SBKP 272100Z 14014KT CAVOK 17/13 Q1023=
2010072722 - SBKP 272200Z 12018KT CAVOK 16/13 Q1023=
2010072723 - SBKP 272300Z 12018KT CAVOK 16/13 Q1024=
2010072800 - SBKP 280000Z 11017G27KT CAVOK 16/13 Q1024=
2010072801 - SBKP 280100Z 11019KT CAVOK 16/13 Q1024=
2010072802 - SBKP 280200Z 11018KT CAVOK 16/13 Q1024=
2010072803 - SBKP 280300Z 11014G25KT 9999 FEW025 BKN085 16/13 Q1024=
2010072804 - SBKP 280400Z 11017KT 9999 FEW025 SCT085 15/13 Q1025=
2010072805 - SBKP 280500Z 11015KT CAVOK 15/13 Q1024=
2010072806 - SBKP 280600Z 11014KT CAVOK 15/13 Q1024=
2010072807 - SBKP 280700Z 11015KT CAVOK 14/12 Q1024=
2010072808 - SBKP 280800Z 11013KT CAVOK 14/13 Q1024=
2010072809 - SBKP 280900Z 11014KT CAVOK 15/12 Q1024=
2010072810 - SBKP 281000Z 11013KT 8000 NSC 14/12 Q1025=
2010072811 - SBKP 281100Z 11015KT 8000 NSC 16/13 Q1026=
2010072812 - SBKP 281200Z 08006KT CAVOK 16/13 Q1027=
2010072813 - SBKP 281300Z 10006KT CAVOK 18/13 Q1027=
2010072814 - SBKP 281400Z 10006KT CAVOK 20/13 Q1027=
2010072815 - SBKP 281500Z 10007KT CAVOK 21/13 Q1026=
2010072816 - SBKP 281600Z 07008KT 9999 FEW030 SCT090 24/12 Q1025=
2010072817 - SBKP 281700Z 06005KT 9999 FEW030 25/12 Q1024=
2010072818 - SBKP 281800Z 05004KT 9999 SCT035 25/10 Q1023=
2010072819 - SBKP 281900Z 04006KT 9999 SCT040 SCT070 24/10 Q1022=
2010072820 - SBKP 282000Z 06005KT 9999 FEW040 BKN080 24/10 Q1023=
2010072821 - SBKP 282100Z 07004KT CAVOK 22/10 Q1023=
2010072822 - SBKP 282200Z 12008KT CAVOK 20/13 Q1024=
2010072823 - SBKP 282300Z 12009KT CAVOK 20/13 Q1024=
2010072900 - SBKP 290000Z 12010KT CAVOK 19/13 Q1024=
2010072901 - SBKP 290100Z 12009KT CAVOK 19/13 Q1024=
2010072902 - SBKP 290200Z 12008KT CAVOK 18/13 Q1024=
2010072903 - SBKP 290300Z 12008KT 9999 FEW030 BKN085 18/13 Q1024=
2010072904 - SBKP 290400Z 11005KT 9999 FEW030 BKN085 18/13 Q1024=
2010072905 - SBKP 290500Z 12006KT CAVOK 17/13 Q1023=
2010072906 - SBKP 290600Z 11005KT CAVOK 17/13 Q1023=
2010072907 - SBKP 290700Z 12008KT CAVOK 17/13 Q1023=
2010072908 - SBKP 290800Z 11006KT CAVOK 17/13 Q1023=
2010072909 - SBKP 290900Z 12007KT CAVOK 16/13 Q1024=
2010072910 - SBKP 291000Z 12007KT 7000 NSC 16/13 Q1024=
2010072911 - SBKP 291100Z 11007KT 8000 NSC 18/13 Q1024=
2010072912 - SBKP 291200Z 10005KT CAVOK 20/14 Q1025=
2010072913 - SBKP 291300Z 04006KT CAVOK 23/12 Q1025=
2010072914 - SBKP 291400Z 05005KT CAVOK 23/11 Q1025=
2010072915 - SBKP 291500Z 03006KT CAVOK 25/12 Q1024=
2010072916 - SBKP 291600Z 01004KT 9999 FEW040 BKN070 24/12 Q1023=
2010072917 - SBKP 291700Z 30002KT 9999 FEW040 BKN070 24/12 Q1021=
2010072918 - SBKP 291800Z 00000KT 9999 FEW045 BKN070 27/12 Q1021=
2010072919 - SBKP 291900Z 19003KT 9999 FEW045 BKN090 25/11 Q1020=
2010072920 - SBKP 292000Z 17005KT 9999 FEW045 SCT090 24/12 Q1020=
2010072921 - SBKP 292100Z 15007KT 9000 FEW045 BKN090 23/12 Q1021=
2010072922 - SBKP 292200Z 12006KT 9999 FEW045 BKN090 21/12 Q1021=
2010072923 - SBKP 292300Z 12007KT CAVOK 21/13 Q1021=
2010073000 - SBKP 300000Z 11008KT CAVOK 20/13 Q1021=
2010073001 - SBKP 300100Z 12009KT CAVOK 21/13 Q1021=
2010073002 - SBKP 300200Z 12008KT CAVOK 20/13 Q1021=
2010073003 - SBKP 300300Z 11009KT CAVOK 20/14 Q1021=
2010073004 - SBKP 300400Z 10006KT CAVOK 19/13 Q1021=
2010073005 - SBKP 300500Z 10005KT CAVOK 18/14 Q1021=
2010073006 - SBKP 300600Z 10003KT CAVOK 18/13 Q1020=
2010073007 - SBKP 300700Z 10004KT CAVOK 16/13 Q1020=
2010073008 - SBKP 300800Z 10004KT 9000 NSC 16/13 Q1020=
2010073009 - SBKP 300900Z 11005KT 9000 NSC 16/13 Q1021=
2010073010 - SBKP 301000Z 12006KT 7000 NSC 15/13 Q1021=
2010073011 - SBKP 301100Z 11005KT CAVOK 18/14 Q1022=
2010073012 - SBKP 301200Z 10003KT CAVOK 20/13 Q1022=
2010073013 - SBKP 301300Z 04006KT CAVOK 24/10 Q1023=
2010073014 - SBKP 301400Z 02007KT CAVOK 25/10 Q1022=
2010073015 - SBKP 301500Z 35008KT CAVOK 26/10 Q1021=
2010073016 - SBKP 301600Z 03008KT 9999 FEW040 26/10 Q1020=
2010073017 - SBKP 301700Z 06006KT 9999 FEW040 SCT080 26/09 Q1019=
2010073018 - SBKP 301800Z 06004KT 9999 FEW045 SCT070 26/09 Q1018=
2010073019 - SBKP 301900Z 12004KT 9999 SCT045 SCT070 27/10 Q1017=
2010073020 - SBKP 302000Z 09005KT 9999 FEW045 SCT085 24/10 Q1017=
2010073021 - SBKP 302100Z 11006KT 9999 FEW045 BKN080 22/11 Q1017=
2010073022 - SBKP 302200Z 09005KT CAVOK 19/11 Q1018=
2010073023 - SBKP 302300Z 04007KT CAVOK 22/09 Q1018=
2010073100 - SBKP 310000Z 03005KT CAVOK 21/09 Q1019=
2010073101 - SBKP 310100Z 04002KT CAVOK 20/09 Q1019=
2010073102 - SBKP 310200Z 04007KT CAVOK 19/09 Q1019=
2010073103 - SBKP 310300Z 04007KT CAVOK 19/09 Q1019=
2010073104 - SBKP 310400Z 06006KT CAVOK 18/09 Q1018=
2010073105 - SBKP 310500Z 07005KT CAVOK 16/09 Q1018=
2010073106 - SBKP 310600Z 07005KT CAVOK 16/09 Q1017=
2010073107 - SBKP 310700Z 08005KT CAVOK 14/09 Q1017=
2010073108 - SBKP 310800Z 07005KT CAVOK 15/09 Q1017=
2010073109 - SBKP 310900Z 02005KT CAVOK 15/09 Q1017=
2010073110 - SBKP 311000Z 01002KT CAVOK 14/09 Q1018=
2010073111 - SBKP 311100Z 35005KT CAVOK 16/10 Q1019=
2010073112 - SBKP 311200Z 36006KT CAVOK 19/10 Q1019=
2010073113 - SBKP 311300Z 02010KT CAVOK 22/10 Q1020=
2010073114 - SBKP 311400Z 35013KT CAVOK 24/10 Q1019=
2010073115 - SBKP 311500Z 36014KT CAVOK 26/10 Q1018=
2010073116 - SBKP 311600Z 36015KT CAVOK 27/10 Q1016=
2010073117 - SBKP 311700Z 34009KT CAVOK 27/09 Q1015=
2010073118 - SBKP 311800Z 34007KT CAVOK 27/09 Q1015=
2010073119 - SBKP 311900Z 30007KT CAVOK 28/10 Q1014=
2010073120 - SBKP 312000Z 34005KT CAVOK 26/10 Q1014=
2010073121 - SBKP 312100Z 34004KT CAVOK 24/09 Q1014=
2010073122 - SBKP 312200Z 02003KT CAVOK 23/09 Q1015=
2010073123 - SBKP 312300Z 07005KT CAVOK 19/10 Q1015=
2010080100 - SBKP 010000Z 07006KT CAVOK 17/10 Q1015=
2010080101 - SBKP 010100Z 05005KT CAVOK 17/10 Q1016=
2010080102 - SBKP 010200Z 05004KT CAVOK 18/10 Q1016=
2010080103 - SBKP 010300Z 03005KT CAVOK 17/10 Q1016=
2010080104 - SBKP 010400Z 02007KT CAVOK 18/10 Q1016=
2010080105 - SBKP 010500Z 01006KT CAVOK 17/10 Q1015=
2010080106 - SBKP 010600Z 02006KT CAVOK 17/09 Q1015=
2010080107 - SBKP 010700Z 02006KT CAVOK 16/09 Q1015=
2010080108 - SBKP 010800Z 02008KT CAVOK 15/09 Q1015=
2010080109 - SBKP 010900Z 02010KT CAVOK 18/09 Q1016=
2010080110 - SBKP 011000Z 03010KT CAVOK 17/09 Q1016=
2010080111 - SBKP 011100Z 04008KT CAVOK 20/10 Q1017=
2010080112 - SBKP 011200Z 03008KT CAVOK 23/08 Q1017=
2010080113 - SBKP 011300Z 36010KT CAVOK 24/09 Q1018=
2010080114 - SBKP 011400Z 01009KT CAVOK 26/10 Q1018=
2010080115 - SBKP 011500Z 34010KT CAVOK 28/10 Q1017=
2010080116 - SBKP 011600Z 34008KT CAVOK 28/10 Q1016=
2010080117 - SBKP 011700Z 33009KT CAVOK 29/11 Q1015=
2010080118 - SBKP 011800Z 33009KT 9999 FEW035 29/10 Q1015=
2010080119 - SBKP 011900Z 25009KT 9999 FEW035 29/11 Q1015=
2010080120 - SBKP 012000Z 22008KT 9999 FEW035 27/11 Q1016=
2010080121 - SBKP 012100Z 12014KT 9000 NSC 21/14 Q1017=
2010080122 - SBKP 012200Z 11016KT CAVOK 19/14 Q1017=
2010080123 - SBKP 012300Z 12020KT CAVOK 18/14 Q1018=
2010080200 - SBKP 020000Z 13017KT CAVOK 17/14 Q1019=
2010080201 - SBKP 020100Z 13016KT CAVOK 17/13 Q1020=
2010080202 - SBKP 020200Z 13016KT CAVOK 17/13 Q1020=
2010080203 - SBKP 020300Z 13014KT 9999 FEW020 17/14 Q1020=
2010080204 - SBKP 020400Z 12015KT CAVOK 17/14 Q1019=
2010080205 - SBKP 020500Z 13013KT 9999 FEW020 16/14 Q1020=
2010080206 - SBKP 020600Z 14012KT 9999 FEW020 16/14 Q1020=
2010080207 - SBKP 020700Z 13016KT 9999 FEW020 17/14 Q1019=
2010080208 - SBKP 020800Z 13018KT 9999 FEW020 BKN090 17/14 Q1020=
2010080209 - SBKP 020900Z 13017KT 9999 FEW020 BKN090 16/14 Q1020=
2010080210 - SBKP 021000Z 13020KT 9999 SCT015 17/14 Q1021=
2010080211 - SBKP 021100Z 12017G27KT 9999 SCT015 17/14 Q1021=
2010080212 - SBKP 021200Z 12020KT 9999 FEW015 SCT080 18/14 Q1022=
2010080213 - SBKP 021300Z 11017G27KT 9999 FEW015 BKN090 21/14 Q1022=
2010080214 - SBKP 021400Z 13014KT 9999 FEW020 SCT090 20/14 Q1023=
2010080215 - SBKP 021500Z 13014KT 9999 FEW020 BKN090 23/14 Q1022=
2010080216 - SBKP 021600Z 12015KT 9999 FEW020 BKN090 23/14 Q1021=
2010080217 - SBKP 021700Z 12018KT 9999 FEW020 SCT090 22/14 Q1020=
2010080218 - SBKP 021800Z 13019KT 9999 FEW020 BKN100 20/14 Q1020=
2010080219 - SBKP 021900Z 12018KT 9999 FEW020 BKN090 18/14 Q1020=
2010080220 - SBKP 022000Z 13018KT 9999 FEW020 BKN090 18/13 Q1021=
2010080221 - SBKP 022100Z 12020KT 9999 FEW020 BKN090 17/13 Q1020=
2010080222 - SBKP 022200Z 12020KT 9999 FEW020 BKN090 16/13 Q1021=
2010080223 - SBKP 022300Z 12018KT CAVOK 16/13 Q1021=
2010080300 - SBKP 030000Z 12018KT CAVOK 16/13 Q1021 WS R15=
2010080301 - SBKP 030100Z 12015KT CAVOK 16/13 Q1021=
2010080301 - SBKP 030130Z 11016G27KT CAVOK 16/13 Q1021=
2010080302 - SBKP 030200Z 11016KT CAVOK 16/13 Q1021=
2010080303 - SBKP 030300Z 12016KT CAVOK 16/13 Q1022 WS R15=
2010080304 - SBKP 030400Z 11015KT CAVOK 15/13 Q1021=
2010080305 - SBKP 030500Z 11015KT CAVOK 15/12 Q1021=
2010080306 - SBKP 030600Z 13014KT CAVOK 14/12 Q1021=
2010080307 - SBKP 030700Z 14012KT CAVOK 14/12 Q1021=
2010080308 - SBKP 030800Z 12014KT CAVOK 14/13 Q1021=
2010080309 - SBKP 030900Z 11012KT CAVOK 14/12 Q1021=
2010080310 - SBKP 031000Z 12015KT 9999 FEW030 14/12 Q1022=
2010080311 - SBKP 031100Z 13016KT 9999 FEW030 15/12 Q1023=
2010080312 - SBKP 031200Z 12015KT 9999 FEW030 17/12 Q1023=
2010080313 - SBKP 031300Z 13019KT 9999 FEW030 18/12 Q1024=
2010080314 - SBKP 031400Z 14020KT 9999 FEW030 19/12 Q1024=
2010080315 - SBKP 031500Z 13018KT 9999 FEW030 20/12 Q1023=
2010080316 - SBKP 031600Z 14018KT 9999 FEW030 20/12 Q1022=
2010080317 - SBKP 031700Z 14021KT 9999 FEW030 SCT093 19/12 Q1022=
2010080318 - SBKP 031800Z 14022KT 9999 FEW030 18/11 Q1021=
2010080319 - SBKP 031900Z 14020KT 9999 FEW030 BKN100 17/11 Q1022=
2010080319 - SBKP 031921Z 14021G31KT 9999 FEW030 BKN100 17/11 Q1022=
2010080320 - SBKP 032000Z 15020KT 9999 SCT020 BKN080 16/11 Q1023=
2010080320 - SBKP 032036Z 14020G30KT 9999 BKN020 BKN080 15/11 Q1023=
2010080321 - SBKP 032100Z 14020KT 9999 BKN020 BKN080 15/11 Q1023=
2010080322 - SBKP 032200Z 14017KT 9999 SCT020 BKN080 15/11 Q1024=
2010080323 - SBKP 032300Z 14020KT 9999 FEW025 BKN100 14/10 Q1024=
2010080400 - SBKP 040000Z 13020KT 9999 FEW025 SCT100 14/10 Q1024=
2010080401 - SBKP 040100Z 14016KT CAVOK 14/10 Q1024=
2010080402 - SBKP 040200Z 13016KT 9999 SCT020 14/10 Q1024=
2010080403 - SBKP 040300Z 14015KT 9999 SCT018 SCT090 14/11 Q1024=
2010080404 - SBKP 040400Z 14018G28KT 9999 SCT016 BKN090 14/11 Q1023=
2010080405 - SBKP 040500Z 14019KT 9999 SCT016 BKN090 14/11 Q1023=
2010080406 - SBKP 040600Z 13020KT 9999 BKN016 SCT090 13/11 Q1023=
2010080407 - SBKP 040700Z 13017KT 9999 SCT016 BKN100 13/10 Q1022=
2010080408 - SBKP 040800Z 12016KT 9999 SCT015 SCT100 13/10 Q1022=
2010080409 - SBKP 040900Z 13013KT 9999 FEW015 SCT100 13/10 Q1023=
2010080410 - SBKP 041000Z 13017KT 9999 FEW015 SCT100 13/11 Q1023=
2010080411 - SBKP 041100Z 12020KT 9999 FEW015 SCT100 14/11 Q1024=
2010080412 - SBKP 041200Z 12022KT 9999 FEW015 SCT100 15/11 Q1024=
2010080413 - SBKP 041300Z 12022KT 9999 FEW015 15/11 Q1024=
2010080414 - SBKP 041400Z 14021KT 9999 FEW015 18/11 Q1024=
2010080415 - SBKP 041500Z 12022KT 9999 FEW040 18/11 Q1023=
2010080416 - SBKP 041600Z 11018KT 9999 FEW040 19/11 Q1022=
2010080417 - SBKP 041700Z 11015KT 9999 FEW040 20/12 Q1022=
2010080418 - SBKP 041800Z 13016KT 9999 FEW040 19/12 Q1021=
2010080419 - SBKP 041900Z 13017KT CAVOK 18/11 Q1021=
2010080420 - SBKP 042000Z 12014KT 9999 FEW040 17/11 Q1021=
2010080421 - SBKP 042100Z 13016KT 8000 FEW040 15/11 Q1022=
2010080422 - SBKP 042200Z 13014KT CAVOK 14/11 Q1022=
2010080423 - SBKP 042300Z 14015KT CAVOK 14/11 Q1023=
2010080500 - SBKP 050000Z 15014KT 9999 SCT016 14/11 Q1024=
2010080501 - SBKP 050100Z 14018KT 9999 SCT016 BKN085 14/11 Q1024=
2010080502 - SBKP 050200Z 17007KT 9999 FEW016 BKN085 13/10 Q1024=
2010080503 - SBKP 050300Z 13011KT 9999 FEW010 BKN080 13/10 Q1024=
2010080504 - SBKP 050400Z 13013KT 9999 FEW010 BKN090 12/09 Q1024=
2010080505 - SBKP 050500Z 13013KT 9999 FEW010 BKN100 12/09 Q1023=
2010080506 - SBKP 050600Z 12016KT 9999 FEW010 BKN090 12/09 Q1023=
2010080507 - SBKP 050700Z 14014KT 9999 FEW010 BKN090 12/09 Q1023=
2010080508 - SBKP 050800Z 14013KT 9999 FEW010 BKN090 12/10 Q1023=
2010080509 - SBKP 050900Z 12012KT 9999 FEW015 12/10 Q1023=
2010080510 - SBKP 051000Z 12013KT 9999 FEW015 12/10 Q1023=
2010080511 - SBKP 051100Z 11012KT 9999 FEW015 14/11 Q1023=
2010080512 - SBKP 051200Z 12011KT 9999 FEW030 16/11 Q1024=
2010080513 - SBKP 051300Z 10010KT 9999 FEW030 18/12 Q1024=
2010080514 - SBKP 051400Z 12009KT 9999 FEW035 20/12 Q1023=
2010080515 - SBKP 051500Z 00000KT 9999 FEW040 21/12 Q1022=
2010080516 - SBKP 051600Z 22004KT 9999 FEW040 24/13 Q1021=
2010080517 - SBKP 051700Z 24007KT 9999 FEW040 24/13 Q1020=
2010080518 - SBKP 051800Z 20005KT 9999 FEW040 23/12 Q1020=
2010080519 - SBKP 051900Z 22009KT 9999 FEW045 22/13 Q1020=
2010080520 - SBKP 052000Z 15012KT 8000 FEW040 20/13 Q1021=
2010080521 - SBKP 052100Z 13011KT 6000 NSC 17/12 Q1021=
2010080522 - SBKP 052200Z 13013KT CAVOK 14/11 Q1022=
2010080523 - SBKP 052300Z 14013KT CAVOK 13/10 Q1022=
2010080600 - SBKP 060000Z 14013KT 9999 FEW015 13/10 Q1023=
2010080601 - SBKP 060100Z 14017KT CAVOK 13/10 Q1023=
2010080602 - SBKP 060200Z 13013KT CAVOK 12/10 Q1023=
2010080603 - SBKP 060300Z 13012KT CAVOK 12/10 Q1023=
2010080604 - SBKP 060400Z 12008KT CAVOK 12/10 Q1022=
2010080605 - SBKP 060500Z 15007KT 9999 FEW040 12/10 Q1022=
2010080606 - SBKP 060600Z 18006KT 9999 FEW040 10/09 Q1022=
2010080607 - SBKP 060700Z 20006KT 9999 FEW035 10/09 Q1021=
2010080608 - SBKP 060800Z 19006KT 9999 FEW015 SCT035 09/09 Q1021=
2010080609 - SBKP 060900Z 18006KT 9999 FEW015 SCT025 09/09 Q1022=
2010080610 - SBKP 061000Z 16005KT 8000 FEW015 SCT025 10/09 Q1022=
2010080611 - SBKP 061100Z 17005KT 7000 FEW020 11/10 Q1024=
2010080612 - SBKP 061200Z 16009KT 9999 FEW025 14/09 Q1024=
2010080613 - SBKP 061300Z 14013KT 9999 FEW025 16/07 Q1024=
2010080614 - SBKP 061400Z 13009KT 9999 FEW030 18/07 Q1024=
2010080615 - SBKP 061500Z 14008KT 9999 FEW030 19/07 Q1023=
2010080616 - SBKP 061600Z 14006KT 9999 FEW030 19/07 Q1022=
2010080617 - SBKP 061700Z 14004KT 9999 FEW040 20/07 Q1021=
2010080618 - SBKP 061800Z 12009KT CAVOK 20/07 Q1021=
2010080619 - SBKP 061900Z 14009KT CAVOK 19/07 Q1021=
2010080620 - SBKP 062000Z 12009KT CAVOK 18/07 Q1021=
2010080621 - SBKP 062100Z 13010KT CAVOK 16/07 Q1022=
2010080622 - SBKP 062200Z 14010KT CAVOK 14/08 Q1022=
2010080623 - SBKP 062300Z 13017KT CAVOK 13/08 Q1023=
2010080700 - SBKP 070000Z 12010KT CAVOK 11/08 Q1023=
2010080701 - SBKP 070100Z 11010KT CAVOK 11/07 Q1023=
2010080702 - SBKP 070200Z 12011KT CAVOK 10/07 Q1023=
2010080703 - SBKP 070300Z 13011KT CAVOK 10/08 Q1023=
2010080704 - SBKP 070400Z 14009KT CAVOK 09/08 Q1023=
2010080705 - SBKP 070500Z 13009KT CAVOK 09/08 Q1022=
2010080706 - SBKP 070600Z 12008KT CAVOK 09/08 Q1022=
2010080707 - SBKP 070700Z 15010KT CAVOK 09/08 Q1022=
2010080708 - SBKP 070800Z 12006KT CAVOK 08/08 Q1022=
2010080709 - SBKP 070900Z 12008KT CAVOK 09/08 Q1022=
2010080710 - SBKP 071000Z 11008KT 7000 NSC 09/08 Q1022=
2010080711 - SBKP 071100Z 11011KT 7000 NSC 11/09 Q1023=
2010080712 - SBKP 071200Z 11011KT 9000 NSC 13/09 Q1024=
2010080713 - SBKP 071300Z 12011KT CAVOK 16/09 Q1024=
2010080714 - SBKP 071400Z 11006KT CAVOK 19/09 Q1023=
2010080715 - SBKP 071500Z 08002KT 9000 FEW030 21/08 Q1022=
2010080716 - SBKP 071600Z 36002KT 9999 3000N FEW040 23/08 Q1021=
2010080717 - SBKP 071700Z 29003KT CAVOK 25/07 Q1020=
2010080718 - SBKP 071800Z 27004KT CAVOK 25/07 Q1019=
2010080719 - SBKP 071900Z 28003KT CAVOK 25/04 Q1019=
2010080720 - SBKP 072000Z 27004KT CAVOK 24/04 Q1019=
2010080721 - SBKP 072100Z 24003KT CAVOK 21/05 Q1019=
2010080722 - SBKP 072200Z 21004KT CAVOK 20/05 Q1019=
2010080723 - SBKP 072300Z 11003KT CAVOK 15/06 Q1020=
2010080800 - SBKP 080000Z 11006KT CAVOK 14/07 Q1020=
2010080801 - SBKP 080100Z 11006KT CAVOK 12/07 Q1020=
2010080802 - SBKP 080200Z 11008KT CAVOK 12/07 Q1020=
2010080803 - SBKP 080300Z 11007KT CAVOK 12/07 Q1020=
2010080804 - SBKP 080400Z 12008KT CAVOK 11/07 Q1020=
2010080805 - SBKP 080500Z 11008KT CAVOK 11/07 Q1020=
2010080806 - SBKP 080600Z 10009KT CAVOK 10/07 Q1019=
2010080807 - SBKP 080700Z 11009KT CAVOK 10/08 Q1019=
2010080808 - SBKP 080800Z 11007KT CAVOK 10/08 Q1019=
2010080809 - SBKP 080900Z 11007KT 8000 NSC 10/07 Q1020=
2010080810 - SBKP 081000Z 11007KT 6000 NSC 09/07 Q1021=
2010080811 - SBKP 081100Z 12005KT 8000 NSC 13/08 Q1021=
2010080812 - SBKP 081200Z 09005KT 6000 NSC 17/09 Q1022=
2010080813 - SBKP 081300Z 25002KT 9000 NSC 21/08 Q1023=
2010080814 - SBKP 081400Z 01003KT CAVOK 23/08 Q1022=
2010080815 - SBKP 081500Z 33003KT CAVOK 25/08 Q1022=
2010080816 - SBKP 081600Z 31006KT CAVOK 27/08 Q1021=
2010080817 - SBKP 081700Z 28011KT CAVOK 28/09 Q1020=
2010080818 - SBKP 081800Z 28017KT CAVOK 28/08 Q1019=
2010080819 - SBKP 081900Z 29015KT CAVOK 28/08 Q1018=
2010080820 - SBKP 082000Z 27011KT CAVOK 27/07 Q1019=
2010080821 - SBKP 082100Z 24004KT CAVOK 24/08 Q1019=
2010080822 - SBKP 082200Z 30004KT CAVOK 22/08 Q1019=
2010080823 - SBKP 082300Z 23006KT CAVOK 20/09 Q1020=
2010080900 - SBKP 090000Z 18006KT CAVOK 20/08 Q1021=
2010080901 - SBKP 090100Z 11006KT CAVOK 16/09 Q1021=
2010080902 - SBKP 090200Z 10005KT CAVOK 14/08 Q1021=
2010080903 - SBKP 090300Z 09004KT CAVOK 13/08 Q1020=
2010080904 - SBKP 090400Z 13005KT CAVOK 13/08 Q1020=
2010080905 - SBKP 090500Z 11005KT CAVOK 12/08 Q1020=
2010080906 - SBKP 090600Z 10007KT CAVOK 11/08 Q1020=
2010080907 - SBKP 090700Z 11008KT CAVOK 11/08 Q1020=
2010080908 - SBKP 090800Z 12006KT CAVOK 11/08 Q1020=
2010080909 - SBKP 090900Z 10008KT CAVOK 10/07 Q1020=
2010080910 - SBKP 091000Z 11008KT 8000 3500NW NSC 11/08 Q1021=
2010080911 - SBKP 091100Z 08005KT 8000 3000E NSC 15/09 Q1021=
2010080912 - SBKP 091200Z 10003KT 8000 3000E NSC 19/10 Q1022=
2010080913 - SBKP 091300Z 15006KT 9000 4000E NSC 22/10 Q1023=
2010080914 - SBKP 091400Z 16004KT 9000 NSC 25/09 Q1023=
2010080915 - SBKP 091500Z 18005KT 7000 NSC 26/10 Q1021=
2010080916 - SBKP 091600Z 17004KT 7000 NSC 26/10 Q1021=
2010080917 - SBKP 091700Z 21006KT 9000 NSC 27/11 Q1020=
2010080918 - SBKP 091800Z 10009KT 7000 NSC 25/12 Q1019=
2010080919 - SBKP 091900Z 13013KT 7000 NSC 23/12 Q1019=
2010080920 - SBKP 092000Z 13015KT 7000 NSC 20/12 Q1020=
2010080921 - SBKP 092100Z 12015KT 4500 HZ NSC 18/12 Q1021=
2010080922 - SBKP 092200Z 12016KT 6000 NSC 16/11 Q1021=
2010080923 - SBKP 092300Z 12016KT 6000 NSC 14/11 Q1022=
2010081000 - SBKP 100000Z 12017KT 7000 NSC 14/11 Q1023=
2010081001 - SBKP 100100Z 12018KT 6000 NSC 13/10 Q1023=
2010081001 - SBKP 100130Z 12018G28KT 8000 NSC 13/10 Q1023 WS R15=
2010081002 - SBKP 100200Z 12017G27KT 7000 NSC 13/10 Q1023 WS R15=
2010081003 - SBKP 100300Z 11017G27KT 9000 NSC 13/10 Q1023=
2010081004 - SBKP 100400Z 12017G27KT CAVOK 13/10 Q1023=
2010081005 - SBKP 100500Z 11018KT CAVOK 13/10 Q1022=
2010081006 - SBKP 100600Z 11017KT CAVOK 13/10 Q1022=
2010081007 - SBKP 100700Z 12017KT CAVOK 12/10 Q1022=
2010081008 - SBKP 100800Z 12016KT CAVOK 12/10 Q1022=
2010081009 - SBKP 100900Z 11016KT CAVOK 12/10 Q1023=
2010081010 - SBKP 101000Z 11014KT 7000 NSC 12/10 Q1024=
2010081011 - SBKP 101100Z 12009KT 7000 NSC 14/11 Q1025=
2010081012 - SBKP 101200Z 10011KT 9000 NSC 17/11 Q1025=
2010081013 - SBKP 101300Z 09010KT 9000 NSC 18/11 Q1025=
2010081014 - SBKP 101400Z 13007KT 9000 NSC 21/12 Q1025=
2010081015 - SBKP 101500Z 12008KT CAVOK 23/11 Q1024=
2010081016 - SBKP 101600Z 14006KT CAVOK 24/12 Q1024=
2010081017 - SBKP 101700Z 14007KT CAVOK 25/12 Q1023=
2010081018 - SBKP 101800Z 14007KT CAVOK 25/12 Q1022=
2010081019 - SBKP 101900Z 13009KT 8000 NSC 24/12 Q1022=
2010081020 - SBKP 102000Z 13015KT 7000 NSC 20/12 Q1023=
2010081021 - SBKP 102100Z 13016KT 5000 HZ NSC 18/12 Q1023=
2010081022 - SBKP 102200Z 13016KT 6000 NSC 16/12 Q1024=
2010081023 - SBKP 102300Z 12017KT CAVOK 15/12 Q1024=
2010081100 - SBKP 110000Z 14014KT CAVOK 15/12 Q1025=
2010081101 - SBKP 110100Z 13014KT CAVOK 14/12 Q1025=
2010081102 - SBKP 110200Z 13016KT CAVOK 14/11 Q1025=
2010081103 - SBKP 110300Z 12015KT CAVOK 14/11 Q1025=
2010081103 - SBKP 110345Z 12018G28KT CAVOK 14/11 Q1025=
2010081104 - SBKP 110400Z 12017G27KT CAVOK 14/11 Q1025=
2010081105 - SBKP 110500Z 12015KT CAVOK 14/11 Q1024=
2010081106 - SBKP 110600Z 12016KT 9999 FEW010 14/12 Q1024=
2010081107 - SBKP 110700Z 11017KT CAVOK 14/11 Q1024=
2010081108 - SBKP 110800Z 11012KT CAVOK 14/11 Q1024=
2010081109 - SBKP 110900Z 11013KT CAVOK 13/11 Q1024=
2010081110 - SBKP 111000Z 12015KT 7000 FEW015 13/11 Q1025=
2010081111 - SBKP 111100Z 11011KT 8000 NSC 15/12 Q1025=
2010081112 - SBKP 111200Z 11013KT 8000 NSC 17/12 Q1026=
2010081113 - SBKP 111300Z 11008KT CAVOK 19/12 Q1026=
2010081114 - SBKP 111400Z 10008KT CAVOK 22/12 Q1026=
2010081115 - SBKP 111500Z 10006KT CAVOK 23/12 Q1025=
2010081116 - SBKP 111600Z 10005KT CAVOK 24/13 Q1024=
2010081117 - SBKP 111700Z 12006KT CAVOK 24/13 Q1023=
2010081118 - SBKP 111800Z 12007KT CAVOK 24/13 Q1022=
2010081119 - SBKP 111900Z 14009KT 8000 NSC 24/13 Q1022=
2010081120 - SBKP 112000Z 14011KT CAVOK 22/13 Q1022=
2010081121 - SBKP 112100Z 13012KT CAVOK 20/12 Q1021=
2010081122 - SBKP 112200Z 11011KT CAVOK 18/12 Q1021=
2010081123 - SBKP 112300Z 11012KT CAVOK 17/13 Q1022=
2010081200 - SBKP 120000Z 11015KT CAVOK 16/13 Q1022=
2010081201 - SBKP 120100Z 12013KT CAVOK 15/13 Q1022=
2010081202 - SBKP 120200Z 11013KT CAVOK 15/12 Q1022=
2010081203 - SBKP 120300Z 12013KT CAVOK 14/12 Q1023=
2010081204 - SBKP 120400Z 12011KT CAVOK 14/12 Q1023=
2010081205 - SBKP 120500Z 12009KT CAVOK 13/11 Q1022=
2010081206 - SBKP 120600Z 12010KT CAVOK 13/11 Q1022=
2010081207 - SBKP 120700Z 11009KT CAVOK 13/11 Q1022=
2010081208 - SBKP 120800Z 11008KT CAVOK 12/11 Q1022=
2010081209 - SBKP 120900Z 11007KT CAVOK 12/11 Q1022=
2010081210 - SBKP 121000Z 12006KT 5000 BR NSC 12/11 Q1023=
2010081211 - SBKP 121100Z 11006KT 5000 BR NSC 15/12 Q1023=
2010081212 - SBKP 121200Z 09004KT 6000 NSC 18/12 Q1024=
2010081213 - SBKP 121300Z 03006KT 7000 NSC 21/12 Q1024=
2010081214 - SBKP 121400Z 02008KT CAVOK 23/12 Q1024=
2010081215 - SBKP 121500Z 36009KT CAVOK 24/12 Q1023=
2010081216 - SBKP 121600Z 01010KT CAVOK 26/11 Q1021=
2010081217 - SBKP 121700Z 01009KT 9999 FEW035 26/11 Q1021=
2010081218 - SBKP 121800Z 01011KT 9999 FEW035 27/11 Q1020=
2010081219 - SBKP 121900Z 35011KT 9999 FEW035 SCT070 27/10 Q1019=
2010081220 - SBKP 122000Z 34010KT 9999 FEW040 25/09 Q1019=
2010081221 - SBKP 122100Z 36006KT CAVOK 24/09 Q1019=
2010081222 - SBKP 122200Z 03005KT CAVOK 22/09 Q1020=
2010081223 - SBKP 122300Z 06006KT CAVOK 21/10 Q1020=
2010081300 - SBKP 130000Z 07007KT CAVOK 21/11 Q1021=
2010081301 - SBKP 130100Z 06009KT CAVOK 20/11 Q1021=
2010081302 - SBKP 130200Z 06008KT CAVOK 20/11 Q1021=
2010081303 - SBKP 130300Z 06006KT CAVOK 19/10 Q1021=
2010081304 - SBKP 130400Z 03005KT CAVOK 19/10 Q1021=
2010081305 - SBKP 130500Z 02008KT CAVOK 16/10 Q1021=
2010081306 - SBKP 130600Z 03006KT CAVOK 16/10 Q1020=
2010081307 - SBKP 130700Z 03009KT CAVOK 17/10 Q1020=
2010081308 - SBKP 130800Z 04009KT CAVOK 17/10 Q1019=
2010081309 - SBKP 130900Z 03010KT CAVOK 18/09 Q1019=
2010081310 - SBKP 131000Z 02008KT 7000 NSC 19/09 Q1019=
2010081311 - SBKP 131100Z 01012KT 9000 NSC 20/09 Q1019=
2010081312 - SBKP 131200Z 01014KT CAVOK 21/10 Q1020=
2010081313 - SBKP 131300Z 36014KT CAVOK 23/10 Q1020=
2010081314 - SBKP 131400Z 35013KT CAVOK 26/10 Q1020=
2010081315 - SBKP 131500Z 34016KT CAVOK 27/11 Q1020=
2010081316 - SBKP 131600Z 32013KT 9999 FEW035 28/10 Q1019=
2010081317 - SBKP 131700Z 30016KT 9999 FEW040 28/10 Q1018=
2010081318 - SBKP 131800Z 30014G24KT 9000 NSC 28/10 Q1017=
2010081319 - SBKP 131900Z 31016KT 9000 NSC 27/09 Q1017=
2010081320 - SBKP 132000Z 30012KT 9000 NSC 26/09 Q1017=
2010081321 - SBKP 132100Z 29009KT 5000 HZ NSC 24/09 Q1018=
2010081322 - SBKP 132200Z 27007KT CAVOK 24/08 Q1018=
2010081323 - SBKP 132300Z 28006KT CAVOK 22/09 Q1018=
2010081300 - SBKP 130000Z 07007KT CAVOK 21/11 Q1021=
2010081301 - SBKP 130100Z 06009KT CAVOK 20/11 Q1021=
2010081302 - SBKP 130200Z 06008KT CAVOK 20/11 Q1021=
2010081303 - SBKP 130300Z 06006KT CAVOK 19/10 Q1021=
2010081304 - SBKP 130400Z 03005KT CAVOK 19/10 Q1021=
2010081305 - SBKP 130500Z 02008KT CAVOK 16/10 Q1021=
2010081306 - SBKP 130600Z 03006KT CAVOK 16/10 Q1020=
2010081307 - SBKP 130700Z 03009KT CAVOK 17/10 Q1020=
2010081308 - SBKP 130800Z 04009KT CAVOK 17/10 Q1019=
2010081309 - SBKP 130900Z 03010KT CAVOK 18/09 Q1019=
2010081310 - SBKP 131000Z 02008KT 7000 NSC 19/09 Q1019=
2010081311 - SBKP 131100Z 01012KT 9000 NSC 20/09 Q1019=
2010081312 - SBKP 131200Z 01014KT CAVOK 21/10 Q1020=
2010081313 - SBKP 131300Z 36014KT CAVOK 23/10 Q1020=
2010081314 - SBKP 131400Z 35013KT CAVOK 26/10 Q1020=
2010081315 - SBKP 131500Z 34016KT CAVOK 27/11 Q1020=
2010081316 - SBKP 131600Z 32013KT 9999 FEW035 28/10 Q1019=
2010081317 - SBKP 131700Z 30016KT 9999 FEW040 28/10 Q1018=
2010081318 - SBKP 131800Z 30014G24KT 9000 NSC 28/10 Q1017=
2010081319 - SBKP 131900Z 31016KT 9000 NSC 27/09 Q1017=
2010081320 - SBKP 132000Z 30012KT 9000 NSC 26/09 Q1017=
2010081321 - SBKP 132100Z 29009KT 5000 HZ NSC 24/09 Q1018=
2010081322 - SBKP 132200Z 27007KT CAVOK 24/08 Q1018=
2010081323 - SBKP 132300Z 28006KT CAVOK 22/09 Q1018=
2010081400 - SBKP 140000Z 29006KT CAVOK 20/10 Q1019=
2010081501 - SBKP 150100Z 12013KT CAVOK 12/09 Q1021=
2010081502 - SBKP 150200Z 12012KT CAVOK 12/08 Q1021=
2010081503 - SBKP 150300Z 12014KT CAVOK 12/08 Q1021=
2010081504 - SBKP 150400Z 12011KT CAVOK 11/08 Q1021=
2010081505 - SBKP 150500Z 13012KT CAVOK 11/08 Q1021=
2010081506 - SBKP 150600Z 13013KT 8000 NSC 10/08 Q1021=
2010081507 - SBKP 150700Z 13010KT 8000 NSC 10/07 Q1021=
2010081508 - SBKP 150800Z 13010KT 8000 NSC 09/07 Q1021=
2010081509 - SBKP 150900Z 14010KT 8000 NSC 10/07 Q1022=
2010081509 - SBKP 150925Z 15012KT 4000 BR NSC 10/07 Q1022=
2010081510 - SBKP 151000Z 15011KT 9999 4000E NSC 10/07 Q1022=
2010081511 - SBKP 151100Z 13015KT 9999 4900E NSC 12/08 Q1023=
2010081512 - SBKP 151200Z 13015KT 9999 FEW030 14/07 Q1023=
2010081513 - SBKP 151300Z 12014KT 9999 FEW025 SCT035 15/07 Q1024=
2010081514 - SBKP 151400Z 14013KT 9999 BKN030 15/07 Q1024=
2010081515 - SBKP 151500Z 15012KT 9999 BKN030 15/07 Q1024=
2010081516 - SBKP 151600Z 14008KT 9999 BKN040 18/07 Q1023=
2010081517 - SBKP 151700Z 15010KT 9999 BKN040 18/07 Q1022=
2010081518 - SBKP 151800Z 13014KT 9999 BKN040 16/06 Q1022=
2010081519 - SBKP 151900Z 14018KT 9999 SCT040 16/06 Q1022=
2010081520 - SBKP 152000Z 14015KT 9999 SCT040 14/06 Q1023=
2010081521 - SBKP 152100Z 15014KT 9999 FEW049 13/05 Q1024=
2010081522 - SBKP 152200Z 14015KT 9999 FEW049 11/05 Q1025=
2010081523 - SBKP 152300Z 15011KT CAVOK 10/04 Q1026=
2010081600 - SBKP 160000Z 14007KT CAVOK 08/04 Q1026=
2010081601 - SBKP 160100Z 13009KT 9999 4000S NSC 08/04 Q1026=
2010081602 - SBKP 160200Z 15012KT CAVOK 09/05 Q1026=
2010081603 - SBKP 160300Z 14011KT CAVOK 08/04 Q1026=
2010081604 - SBKP 160400Z 15011KT 9999 SCT030 08/05 Q1025=
2010081605 - SBKP 160500Z 15009KT 9999 BKN030 08/05 Q1024=
2010081606 - SBKP 160600Z 13006KT CAVOK 07/05 Q1024=
2010081607 - SBKP 160700Z 15010KT CAVOK 08/06 Q1024=
2010081608 - SBKP 160800Z 13008KT CAVOK 07/06 Q1024=
2010081609 - SBKP 160900Z 11006KT 9999 4500SE FEW015 07/05 Q1025=
2010081610 - SBKP 161000Z 14011KT 9999 4000SE FEW030 08/06 Q1025=
2010081611 - SBKP 161100Z 12009KT 9999 BKN026 11/08 Q1026=
2010081612 - SBKP 161200Z 13016KT 9999 BKN026 14/07 Q1027=
2010081613 - SBKP 161300Z 12015G25KT 9999 BKN030 14/06 Q1027=
2010081614 - SBKP 161400Z 12019KT 9999 FEW030 16/06 Q1027=
2010081615 - SBKP 161500Z 13017KT 9999 FEW035 18/05 Q1026=
2010081616 - SBKP 161600Z 13016G26KT CAVOK 19/05 Q1025=
2010081617 - SBKP 161700Z 12013G26KT CAVOK 19/04 Q1024=
2010081618 - SBKP 161800Z 10011KT CAVOK 20/04 Q1024=
2010081619 - SBKP 161900Z 11012KT CAVOK 19/04 Q1024=
2010081620 - SBKP 162000Z 10011KT 9999 FEW040 18/04 Q1024=
2010081621 - SBKP 162100Z 14016KT 9999 FEW040 16/06 Q1024=
2010081622 - SBKP 162200Z 14015KT 9999 FEW040 14/07 Q1025=
2010081623 - SBKP 162300Z 13017KT CAVOK 13/07 Q1025=
2010081623 - SBKP 162313Z 12017G28KT CAVOK 12/07 Q1025=
2010081700 - SBKP 170000Z 12018G29KT CAVOK 12/07 Q1026=
2010081701 - SBKP 170100Z 11017KT CAVOK 11/07 Q1026=
2010081702 - SBKP 170200Z 11016KT CAVOK 10/07 Q1026=
2010081703 - SBKP 170300Z 11016KT CAVOK 10/07 Q1026=
2010081704 - SBKP 170400Z 11016KT CAVOK 10/07 Q1026=
2010081705 - SBKP 170500Z 11014KT CAVOK 09/07 Q1025=
2010081706 - SBKP 170600Z 11015KT CAVOK 09/07 Q1024=
2010081707 - SBKP 170700Z 11015KT CAVOK 09/06 Q1024=
2010081708 - SBKP 170800Z 12016KT CAVOK 08/06 Q1024=
2010081709 - SBKP 170900Z 12015KT 9999 FEW008 08/06 Q1025=
2010081710 - SBKP 171000Z 10013KT 9999 FEW008 09/06 Q1026=
2010081711 - SBKP 171100Z 10010KT 9999 FEW015 11/07 Q1027=
2010081712 - SBKP 171200Z 11009KT 9999 FEW020 14/07 Q1027=
2010081713 - SBKP 171300Z 08009KT 9999 FEW020 16/07 Q1028=
2010081714 - SBKP 171400Z 08009KT 9999 FEW030 18/07 Q1027=
2010081715 - SBKP 171500Z 12011KT 9999 FEW030 19/07 Q1027=
2010081716 - SBKP 171600Z 14009KT 9999 FEW030 21/06 Q1026=
2010081717 - SBKP 171700Z 13009KT CAVOK 21/07 Q1025=
2010081718 - SBKP 171800Z 13008KT CAVOK 21/07 Q1024=
2010081719 - SBKP 171900Z 11007KT CAVOK 21/05 Q1023=
2010081720 - SBKP 172000Z 13007KT CAVOK 20/06 Q1023=
2010081721 - SBKP 172100Z 14008KT CAVOK 18/06 Q1024=
2010081722 - SBKP 172200Z 13007KT CAVOK 15/07 Q1024=
2010081723 - SBKP 172300Z 13011KT CAVOK 13/07 Q1024=
2010081800 - SBKP 180000Z 12013KT CAVOK 13/09 Q1025=
2010081801 - SBKP 180100Z 12012KT CAVOK 12/09 Q1025=
2010081802 - SBKP 180200Z 12014KT CAVOK 12/09 Q1025=
2010081803 - SBKP 180300Z 11012KT CAVOK 11/09 Q1025=
2010081804 - SBKP 180400Z 11012KT CAVOK 10/08 Q1025=
2010081805 - SBKP 180500Z 11012KT CAVOK 10/08 Q1025=
2010081806 - SBKP 180600Z 12009KT CAVOK 09/07 Q1024=
2010081807 - SBKP 180700Z 12008KT CAVOK 09/07 Q1024=
2010081808 - SBKP 180800Z 11007KT CAVOK 08/07 Q1025=
2010081809 - SBKP 180900Z 09005KT CAVOK 08/07 Q1025=
2010081810 - SBKP 181000Z 10005KT 9000 NSC 08/07 Q1026=
2010081811 - SBKP 181100Z 10009KT 9000 NSC 11/08 Q1026=
2010081812 - SBKP 181200Z 12010KT CAVOK 14/07 Q1027=
2010081813 - SBKP 181300Z 09007KT CAVOK 17/08 Q1027=
2010081814 - SBKP 181400Z 08005KT CAVOK 19/06 Q1027=
2010081815 - SBKP 181500Z 10004KT CAVOK 21/05 Q1025=
2010081816 - SBKP 181600Z 05005KT CAVOK 22/06 Q1024=
2010081817 - SBKP 181700Z 09004KT CAVOK 23/06 Q1023=
2010081818 - SBKP 181800Z 17003KT CAVOK 24/05 Q1022=
2010081819 - SBKP 181900Z 14006KT CAVOK 24/05 Q1022=
2010081820 - SBKP 182000Z 16004KT CAVOK 23/06 Q1022=
2010081821 - SBKP 182100Z 17006KT CAVOK 20/06 Q1021=
2010081822 - SBKP 182200Z 13009KT CAVOK 18/06 Q1022=
2010081823 - SBKP 182300Z 12009KT CAVOK 15/07 Q1023=
2010081900 - SBKP 190000Z 11009KT CAVOK 14/07 Q1023=
2010081901 - SBKP 190100Z 11011KT CAVOK 14/08 Q1023=
2010081902 - SBKP 190200Z 12011KT CAVOK 13/08 Q1023=
2010081903 - SBKP 190300Z 12009KT CAVOK 12/08 Q1023=
2010081904 - SBKP 190400Z 12008KT CAVOK 11/08 Q1023=
2010081905 - SBKP 190500Z 11008KT CAVOK 10/07 Q1022=
2010081906 - SBKP 190600Z 12009KT CAVOK 09/07 Q1022=
2010081907 - SBKP 190700Z 11009KT CAVOK 09/07 Q1022=
2010081908 - SBKP 190800Z 10006KT CAVOK 08/06 Q1022=
2010081909 - SBKP 190900Z 11007KT CAVOK 07/06 Q1022=
2010081910 - SBKP 191000Z 11006KT CAVOK 09/06 Q1023=
2010081911 - SBKP 191100Z 10005KT CAVOK 12/07 Q1024=
2010081912 - SBKP 191200Z 08005KT CAVOK 16/08 Q1024=
2010081913 - SBKP 191300Z 03005KT CAVOK 18/06 Q1025=
2010081914 - SBKP 191400Z 35005KT CAVOK 21/06 Q1024=
2010081915 - SBKP 191500Z 34005KT CAVOK 22/06 Q1023=
2010081916 - SBKP 191600Z 32003KT CAVOK 24/06 Q1022=
2010081917 - SBKP 191700Z 30006KT CAVOK 25/05 Q1020=
2010081918 - SBKP 191800Z 22005KT CAVOK 26/05 Q1020=
2010081919 - SBKP 191900Z 31006KT CAVOK 25/04 Q1019=
2010081920 - SBKP 192000Z 26002KT CAVOK 24/04 Q1019=
2010081921 - SBKP 192100Z 21004KT CAVOK 22/05 Q1019=
2010081922 - SBKP 192200Z 18004KT CAVOK 21/04 Q1020=
2010081923 - SBKP 192300Z 12006KT CAVOK 15/06 Q1020=
2010082000 - SBKP 200000Z 11007KT CAVOK 14/06 Q1021=
2010082001 - SBKP 200100Z 12007KT CAVOK 13/06 Q1021=
2010082002 - SBKP 200200Z 11007KT CAVOK 12/07 Q1021=
2010082003 - SBKP 200300Z 11008KT CAVOK 12/06 Q1021=
2010082004 - SBKP 200400Z 09007KT CAVOK 11/06 Q1021=
2010082005 - SBKP 200500Z 10008KT CAVOK 10/06 Q1020=
2010082006 - SBKP 200600Z 09007KT 9000 NSC 11/06 Q1020=
2010082007 - SBKP 200700Z 11006KT 9000 NSC 09/06 Q1020=
2010082008 - SBKP 200800Z 12006KT 9000 NSC 09/06 Q1020=
2010082009 - SBKP 200900Z 12006KT 9000 NSC 09/06 Q1020=
2010082010 - SBKP 201000Z 11007KT 4000 BR NSC 09/06 Q1021=
2010082011 - SBKP 201100Z 12006KT 5000 HZ NSC 13/08 Q1022=
2010082012 - SBKP 201200Z 08004KT 5000 HZ NSC 17/08 Q1023=
2010082013 - SBKP 201300Z 03002KT 5000 HZ NSC 21/07 Q1023=
2010082014 - SBKP 201400Z 36006KT 7000 NSC 24/07 Q1023=
2010082015 - SBKP 201500Z 01005KT 9000 NSC 24/05 Q1022=
2010082016 - SBKP 201600Z 01004KT 9000 NSC 26/06 Q1021=
2010082017 - SBKP 201700Z 35007KT CAVOK 27/05 Q1020=
2010082018 - SBKP 201800Z 26005KT CAVOK 27/05 Q1019=
2010082019 - SBKP 201900Z 35002KT CAVOK 26/05 Q1019=
2010082020 - SBKP 202000Z 01003KT CAVOK 25/05 Q1020=
2010082021 - SBKP 202100Z 21004KT 8000 NSC 23/04 Q1020=
2010082022 - SBKP 202200Z 18004KT CAVOK 22/04 Q1020=
2010082023 - SBKP 202300Z 17004KT CAVOK 19/06 Q1021=
2010082100 - SBKP 210000Z 12006KT CAVOK 15/06 Q1021=
2010082101 - SBKP 210100Z 11009KT CAVOK 14/07 Q1022=
2010082102 - SBKP 210200Z 11010KT 8000 NSC 15/08 Q1022=
2010082103 - SBKP 210300Z 11011KT 8000 NSC 15/08 Q1022=
2010082104 - SBKP 210400Z 11015KT 8000 NSC 15/09 Q1022=
2010082105 - SBKP 210500Z 11014KT 9000 NSC 14/11 Q1022=
2010082106 - SBKP 210600Z 12015KT 7000 NSC 13/11 Q1021=
2010082107 - SBKP 210700Z 12014KT 6000 NSC 12/11 Q1021=
2010082108 - SBKP 210800Z 11010KT 6000 NSC 12/11 Q1021=
2010082109 - SBKP 210900Z 13013KT 5000 BR NSC 12/10 Q1022=
2010082109 - SBKP 210915Z 12013KT 3500 BR NSC 12/10 Q1022=
2010082110 - SBKP 211000Z 12013KT 3000 BR NSC 12/10 Q1022=
2010082111 - SBKP 211100Z 11005KT 3000 HZ NSC 14/10 Q1023=
2010082112 - SBKP 211200Z 10006KT 5000 HZ NSC 18/10 Q1024=
2010082113 - SBKP 211300Z 09005KT 6000 NSC 21/10 Q1024=
2010082114 - SBKP 211400Z 35003KT 6000 NSC 25/09 Q1024=
2010082115 - SBKP 211500Z 30002KT 7000 NSC 27/08 Q1024=
2010082116 - SBKP 211600Z 04004KT 7000 NSC 28/08 Q1023=
2010082117 - SBKP 211700Z 03004KT 8000 NSC 28/07 Q1021=
2010082118 - SBKP 211800Z 15002KT 8000 NSC 29/07 Q1020=
2010082119 - SBKP 211900Z 15005KT 8000 NSC 28/06 Q1020=
2010082120 - SBKP 212000Z 12005KT 8000 NSC 26/05 Q1020=
2010082121 - SBKP 212100Z 12007KT 6000 NSC 23/07 Q1021=
2010082122 - SBKP 212200Z 12010KT CAVOK 20/08 Q1021=
2010082123 - SBKP 212300Z 11009KT CAVOK 20/07 Q1022=
2010082200 - SBKP 220000Z 12011KT 8000 NSC 17/07 Q1022=
2010082201 - SBKP 220100Z 11011KT 8000 NSC 17/08 Q1022=
2010082202 - SBKP 220200Z 11012KT 8000 NSC 17/08 Q1023=
2010082203 - SBKP 220300Z 12011KT 8000 NSC 16/09 Q1022=
2010082204 - SBKP 220400Z 12011KT 9000 NSC 16/09 Q1022=
2010082205 - SBKP 220500Z 11007KT 9000 NSC 15/09 Q1022=
2010082206 - SBKP 220600Z 12010KT 9000 NSC 15/09 Q1022=
2010082207 - SBKP 220700Z 11009KT 9000 NSC 14/08 Q1022=
2010082208 - SBKP 220800Z 11007KT 9000 NSC 12/08 Q1022=
2010082209 - SBKP 220900Z 11008KT 8000 NSC 12/08 Q1022=
2010082210 - SBKP 221000Z 11007KT 4000 HZ NSC 12/08 Q1023=
2010082211 - SBKP 221100Z 12007KT 5000 HZ NSC 16/09 Q1023=
2010082212 - SBKP 221200Z 10006KT 7000 NSC 20/09 Q1024=
2010082213 - SBKP 221300Z 07004KT 8000 NSC 24/09 Q1024=
2010082214 - SBKP 221400Z 04004KT CAVOK 26/07 Q1024=
2010082215 - SBKP 221500Z 35006KT CAVOK 28/08 Q1023=
2010082216 - SBKP 221600Z 04002KT CAVOK 29/07 Q1022=
2010082217 - SBKP 221700Z 35001KT CAVOK 29/07 Q1021=
2010082218 - SBKP 221800Z 05003KT CAVOK 29/06 Q1020=
2010082219 - SBKP 221900Z 07001KT CAVOK 29/07 Q1019=
2010082220 - SBKP 222000Z 17005KT CAVOK 28/07 Q1019=
2010082221 - SBKP 222100Z 20004KT 8000 NSC 26/06 Q1020=
2010082222 - SBKP 222200Z 14006KT CAVOK 23/07 Q1020=
2010082223 - SBKP 222300Z 14007KT CAVOK 22/07 Q1021=
2010082300 - SBKP 230000Z 12009KT CAVOK 19/07 Q1021=
2010082301 - SBKP 230100Z 12009KT CAVOK 17/08 Q1021=
2010082302 - SBKP 230200Z 12010KT CAVOK 17/08 Q1021=
2010082303 - SBKP 230300Z 11009KT CAVOK 16/08 Q1021=
2010082304 - SBKP 230400Z 10007KT CAVOK 15/08 Q1020=
2010082305 - SBKP 230500Z 11006KT CAVOK 14/08 Q1020=
2010082306 - SBKP 230600Z 11009KT CAVOK 13/08 Q1020=
2010082307 - SBKP 230700Z 11009KT CAVOK 12/07 Q1019=
2010082308 - SBKP 230800Z 12009KT CAVOK 12/07 Q1019=
2010082309 - SBKP 230900Z 11008KT CAVOK 11/07 Q1020=
2010082310 - SBKP 231000Z 11008KT 5000 HZ NSC 12/07 Q1020=
2010082311 - SBKP 231100Z 11007KT 6000 NSC 17/08 Q1021=
2010082312 - SBKP 231200Z 10006KT 7000 NSC 21/09 Q1022=
2010082313 - SBKP 231300Z 02004KT CAVOK 24/08 Q1022=
2010082314 - SBKP 231400Z 36006KT CAVOK 27/07 Q1021=
2010082315 - SBKP 231500Z 36008KT CAVOK 28/08 Q1021=
2010082316 - SBKP 231600Z 36006KT CAVOK 29/08 Q1019=
2010082317 - SBKP 231700Z 34007KT CAVOK 30/06 Q1018=
2010082318 - SBKP 231800Z 30006KT CAVOK 30/04 Q1017=
2010082319 - SBKP 231900Z 32006KT CAVOK 30/05 Q1017=
2010082320 - SBKP 232000Z 32004KT CAVOK 29/04 Q1017=
2010082321 - SBKP 232100Z 36001KT 9000 NSC 25/05 Q1017=
2010082322 - SBKP 232200Z 06002KT CAVOK 23/05 Q1017=
2010082323 - SBKP 232300Z 10006KT CAVOK 19/06 Q1018=
2010082400 - SBKP 240000Z 09006KT CAVOK 17/07 Q1018=
2010082401 - SBKP 240100Z 10008KT CAVOK 17/07 Q1018=
2010082402 - SBKP 240200Z 10008KT CAVOK 15/08 Q1019=
2010082403 - SBKP 240300Z 10008KT CAVOK 15/08 Q1018=
2010082404 - SBKP 240400Z 08005KT CAVOK 15/08 Q1018=
2010082405 - SBKP 240500Z 11008KT CAVOK 13/08 Q1018=
2010082406 - SBKP 240600Z 10008KT CAVOK 13/08 Q1017=
2010082407 - SBKP 240700Z 35002KT CAVOK 14/08 Q1018=
2010082408 - SBKP 240800Z 08005KT CAVOK 11/07 Q1018=
2010082409 - SBKP 240900Z 10007KT CAVOK 11/07 Q1018=
2010082410 - SBKP 241000Z 10008KT 4000 BR NSC 11/08 Q1019=
2010082411 - SBKP 241100Z 10004KT 5000 HZ NSC 16/09 Q1020=
2010082412 - SBKP 241200Z 07004KT 5000 HZ NSC 21/09 Q1021=
2010082413 - SBKP 241300Z 01007KT 6000 NSC 26/08 Q1021=
2010082414 - SBKP 241400Z 35009KT 6000 NSC 27/07 Q1021=
2010082415 - SBKP 241500Z 33010KT 300V040 8000 NSC 29/08 Q1020=
2010082416 - SBKP 241600Z 34010KT CAVOK 30/07 Q1019=
2010082417 - SBKP 241700Z 30010KT CAVOK 31/07 Q1017=
2010082418 - SBKP 241800Z 33007KT CAVOK 31/07 Q1017=
2010082419 - SBKP 241900Z 01004KT CAVOK 30/07 Q1016=
2010082420 - SBKP 242000Z 34003KT CAVOK 31/06 Q1017=
2010082421 - SBKP 242100Z 33002KT CAVOK 27/06 Q1017=
2010082422 - SBKP 242200Z 04002KT CAVOK 25/06 Q1017=
2010082423 - SBKP 242300Z 16003KT 7000 NSC 22/07 Q1018=
2010082500 - SBKP 250000Z 11006KT 8000 NSC 19/08 Q1018=
2010082501 - SBKP 250100Z 11008KT CAVOK 17/09 Q1019=
2010082502 - SBKP 250200Z 11009KT CAVOK 17/09 Q1019=
2010082503 - SBKP 250300Z 11009KT CAVOK 16/09 Q1019=
2010082504 - SBKP 250400Z 10008KT CAVOK 15/08 Q1018=
2010082505 - SBKP 250500Z 10008KT CAVOK 14/08 Q1018=
2010082506 - SBKP 250600Z 09005KT CAVOK 14/08 Q1018=
2010082507 - SBKP 250700Z 11008KT CAVOK 12/08 Q1018=
2010082508 - SBKP 250800Z 10006KT 9000 NSC 12/08 Q1018=
2010082509 - SBKP 250900Z 12007KT 7000 NSC 12/08 Q1018=
2010082509 - SBKP 250940Z 12008KT 4000 HZ NSC 12/08 Q1019=
2010082510 - SBKP 251000Z 11008KT 4000 HZ NSC 13/08 Q1019=
2010082511 - SBKP 251100Z 10007KT 4000 HZ NSC 17/09 Q1020=
2010082512 - SBKP 251200Z 09005KT 4000 HZ NSC 21/10 Q1020=
2010082513 - SBKP 251300Z 05004KT 5000 HZ NSC 26/09 Q1021=
2010082514 - SBKP 251400Z 36005KT 5000 HZ NSC 28/09 Q1020=
2010082515 - SBKP 251500Z 34006KT 8000 3500NW NSC 30/06 Q1020=
2010082516 - SBKP 251600Z 35005KT 5000 HZ NSC 31/06 Q1019=
2010082517 - SBKP 251700Z 29004KT 5000 HZ NSC 32/05 Q1018=
2010082518 - SBKP 251800Z 29005KT 7000 NSC 32/06 Q1017=
2010082519 - SBKP 251900Z 28003KT 8000 NSC 31/05 Q1017=
2010082520 - SBKP 252000Z 23006KT 8000 NSC 29/05 Q1017=
2010082521 - SBKP 252100Z 19004KT 5000 HZ NSC 27/06 Q1017=
2010082522 - SBKP 252200Z 19006KT 6000 NSC 25/06 Q1018=
2010082523 - SBKP 252300Z 17007KT CAVOK 24/05 Q1018=
2010082600 - SBKP 260000Z 12008KT CAVOK 20/07 Q1019=
2010082601 - SBKP 260100Z 11009KT CAVOK 19/08 Q1019=
2010082602 - SBKP 260200Z 11011KT CAVOK 19/08 Q1019=
2010082603 - SBKP 260300Z 12008KT CAVOK 18/08 Q1019=
2010082604 - SBKP 260400Z 12010KT CAVOK 17/08 Q1019=
2010082605 - SBKP 260500Z 10007KT CAVOK 17/08 Q1018=
2010082606 - SBKP 260600Z 09006KT CAVOK 15/08 Q1018=
2010082607 - SBKP 260700Z 10007KT CAVOK 14/08 Q1018=
2010082608 - SBKP 260800Z 10008KT CAVOK 13/08 Q1018=
2010082609 - SBKP 260900Z 11009KT CAVOK 13/08 Q1018=
2010082610 - SBKP 261000Z 10008KT 5000 HZ NSC 14/08 Q1019=
2010082611 - SBKP 261100Z 12005KT 4000 HZ NSC 18/09 Q1020=
2010082612 - SBKP 261200Z 07003KT 4000 HZ NSC 22/09 Q1020=
2010082613 - SBKP 261300Z 02004KT 5000 HZ NSC 25/08 Q1020=
2010082614 - SBKP 261400Z 01004KT 5000 HZ NSC 27/07 Q1020=
2010082615 - SBKP 261500Z 34006KT 6000 NSC 29/07 Q1019=
2010082616 - SBKP 261600Z 35006KT 8000 NSC 31/06 Q1018=
2010082617 - SBKP 261700Z 31004KT 260V040 9000 4000NW NSC 31/05 Q1017=
2010082618 - SBKP 261800Z 32009KT 270V060 8000 NSC 31/06 Q1016=
2010082619 - SBKP 261900Z 27002KT 8000 NSC 32/06 Q1016=
2010082620 - SBKP 262000Z 08002KT 8000 NSC 30/05 Q1016=
2010082621 - SBKP 262100Z 17005KT 6000 NSC 27/06 Q1016=
2010082622 - SBKP 262200Z 15005KT 8000 NSC 25/06 Q1016=
2010082623 - SBKP 262300Z 14006KT CAVOK 21/06 Q1017=
2010082700 - SBKP 270000Z 11005KT CAVOK 18/07 Q1017=
2010082701 - SBKP 270100Z 11007KT CAVOK 17/08 Q1017=
2010082702 - SBKP 270200Z 13007KT CAVOK 17/08 Q1017=
2010082703 - SBKP 270300Z 09008KT CAVOK 16/08 Q1018=
2010082704 - SBKP 270400Z 13007KT CAVOK 17/07 Q1017=
2010082705 - SBKP 270500Z 15003KT CAVOK 16/07 Q1017=
2010082706 - SBKP 270600Z 09005KT CAVOK 15/08 Q1017=
2010082707 - SBKP 270700Z 10005KT CAVOK 14/08 Q1017=
2010082708 - SBKP 270800Z 11007KT CAVOK 14/08 Q1017=
2010082709 - SBKP 270900Z 12007KT CAVOK 14/08 Q1017=
2010082710 - SBKP 271000Z 10008KT 5000 HZ NSC 14/08 Q1018=
2010082711 - SBKP 271100Z 10008KT 5000 HZ NSC 18/09 Q1018=
2010082712 - SBKP 271200Z 08005KT 5000 HZ 22/10 Q1019=
2010082713 - SBKP 271300Z 03004KT 5000 HZ NSC 27/09 Q1019=
2010082714 - SBKP 271400Z 36006KT 7000 NSC 29/07 Q1019=
2010082715 - SBKP 271500Z 35004KT CAVOK 30/06 Q1018=
2010082716 - SBKP 271600Z 02003KT CAVOK 31/06 Q1017=
2010082717 - SBKP 271700Z 32002KT CAVOK 32/06 Q1016=
2010082718 - SBKP 271800Z 34002KT CAVOK 31/05 Q1016=
2010082719 - SBKP 271900Z 23002KT CAVOK 31/05 Q1015=
2010082720 - SBKP 272000Z 22005KT 8000 NSC 30/05 Q1015=
2010082721 - SBKP 272100Z 09004KT 6000 NSC 28/05 Q1016=
2010082722 - SBKP 272200Z 18006KT CAVOK 26/05 Q1016=
2010082723 - SBKP 272300Z 18006KT CAVOK 24/06 Q1017=
2010082800 - SBKP 280000Z 12011KT CAVOK 20/07 Q1017=
2010082801 - SBKP 280100Z 11010KT CAVOK 19/08 Q1018=
2010082802 - SBKP 280200Z 12012KT CAVOK 20/07 Q1018=
2010082803 - SBKP 280300Z 11012KT CAVOK 18/08 Q1017=
2010082804 - SBKP 280400Z 11011KT CAVOK 17/10 Q1017=
2010082805 - SBKP 280500Z 12014KT CAVOK 17/10 Q1017=
2010082806 - SBKP 280600Z 12015KT CAVOK 16/11 Q1016=
2010082807 - SBKP 280700Z 11013KT CAVOK 16/11 Q1016=
2010082808 - SBKP 280800Z 11008KT CAVOK 15/11 Q1017=
2010082809 - SBKP 280900Z 11006KT CAVOK 14/10 Q1017=
2010082810 - SBKP 281000Z 11008KT 5000 HZ NSC 14/10 Q1018=
2010082811 - SBKP 281100Z 10007KT 5000 HZ NSC 18/10 Q1018=
2010082812 - SBKP 281200Z 10007KT 5000 HZ NSC 21/10 Q1019=
2010082813 - SBKP 281300Z 09003KT 7000 NSC 26/10 Q1019=
2010082814 - SBKP 281400Z 08002KT 8000 NSC 28/11 Q1019=
2010082815 - SBKP 281500Z 05002KT 9000 NSC 30/10 Q1018=
2010082816 - SBKP 281600Z 03003KT CAVOK 31/08 Q1017=
2010082817 - SBKP 281700Z 34003KT CAVOK 32/06 Q1016=
2010082818 - SBKP 281800Z 18002KT CAVOK 32/06 Q1015=
2010082819 - SBKP 281900Z 23003KT CAVOK 32/06 Q1015=
2010082820 - SBKP 282000Z 23005KT CAVOK 30/06 Q1015=
2010082821 - SBKP 282100Z 19005KT 6000 NSC 28/07 Q1015=
2010082822 - SBKP 282200Z 16006KT CAVOK 25/07 Q1016=
2010082823 - SBKP 282300Z 11010KT CAVOK 22/13 Q1016=
2010082900 - SBKP 290000Z 12013KT 9000 NSC 20/14 Q1017=
2010082901 - SBKP 290100Z 12013KT 6000 NSC 19/14 Q1017=
2010082902 - SBKP 290200Z 12015KT 4000 HZ NSC 18/14 Q1017=
2010082902 - SBKP 290229Z 12014KT 5000 HZ NSC 17/13 Q1017=
2010082903 - SBKP 290300Z 12014KT 5000 HZ NSC 17/13 Q1017=
2010082904 - SBKP 290400Z 12012KT 6000 NSC 16/13 Q1017=
2010082905 - SBKP 290500Z 12013KT 7000 NSC 16/12 Q1016=
2010082906 - SBKP 290600Z 11012KT 8000 NSC 16/12 Q1016=
2010082907 - SBKP 290700Z 11009KT 8000 NSC 15/12 Q1016=
2010082908 - SBKP 290800Z 11009KT 9000 NSC 15/11 Q1016=
2010082909 - SBKP 290900Z 11007KT 5000 HZ NSC 15/11 Q1017=
2010082910 - SBKP 291000Z 11011KT 4000 HZ NSC 15/11 Q1018=
2010082911 - SBKP 291100Z 11008KT 4500 HZ NSC 19/12 Q1019=
2010082912 - SBKP 291200Z 11005KT 5000 HZ NSC 22/12 Q1019=
2010082913 - SBKP 291300Z 07005KT 9000 NSC 25/11 Q1019=
2010082914 - SBKP 291400Z 01005KT CAVOK 28/11 Q1019=
2010082915 - SBKP 291500Z 01004KT CAVOK 30/10 Q1018=
2010082916 - SBKP 291600Z 32006KT CAVOK 31/09 Q1018=
2010082917 - SBKP 291700Z 29006KT CAVOK 32/09 Q1017=
2010082918 - SBKP 291800Z 22007KT CAVOK 32/08 Q1016=
2010082919 - SBKP 291900Z 30007KT CAVOK 32/07 Q1017=
2010082920 - SBKP 292000Z 20007KT CAVOK 30/07 Q1017=
2010082921 - SBKP 292100Z 17006KT CAVOK 28/07 Q1017=
2010082922 - SBKP 292200Z 16006KT CAVOK 26/07 Q1017=
2010082923 - SBKP 292300Z 12010KT CAVOK 22/09 Q1018=
2010083000 - SBKP 300000Z 12012KT CAVOK 22/10 Q1019=
2010083001 - SBKP 300100Z 12010KT CAVOK 21/10 Q1019=
2010083002 - SBKP 300200Z 12011KT CAVOK 20/08 Q1019=
2010083003 - SBKP 300300Z 12010KT CAVOK 19/07 Q1018=
2010083004 - SBKP 300400Z 13011KT CAVOK 19/07 Q1018=
2010083005 - SBKP 300500Z 12012KT CAVOK 18/08 Q1018=
2010083006 - SBKP 300600Z 12011KT CAVOK 17/09 Q1018=
2010083007 - SBKP 300700Z 13010KT 7000 3000NW NSC 16/10 Q1018=
2010083008 - SBKP 300800Z 13008KT 7000 3000NW NSC 16/10 Q1018=
2010083009 - SBKP 300900Z 00000KT 6000 2700NW NSC 14/09 Q1019=
2010083009 - SBKP 300905Z 00000KT 3000 HZ NSC 15/10 Q1019=
2010083010 - SBKP 301000Z 12008KT 3000 HZ NSC 15/12 Q1020=
2010083010 - SBKP 301020Z 13012KT 1500 R33/1800 R15/P2000 BR NSC 16/13 Q1020=
2010083011 - SBKP 301100Z 12013KT 1500 R33/1800 R15/P2000 HZ NSC 17/13 Q1020=
2010083012 - SBKP 301200Z 11013KT 3000 HZ NSC 20/13 Q1021=
2010083013 - SBKP 301300Z 11011KT 4000 HZ NSC 23/13 Q1021=
2010083014 - SBKP 301400Z 12009KT 5000 HZ NSC 26/14 Q1021=
2010083015 - SBKP 301500Z 14011KT 5000 HZ NSC 27/14 Q1020=
2010083016 - SBKP 301600Z 13011KT 5000 HZ NSC 28/14 Q1019=
2010083017 - SBKP 301700Z 13012KT 5000 HZ NSC 28/14 Q1018=
2010083018 - SBKP 301800Z 14014KT 5000 HZ NSC 28/13 Q1017=
2010083019 - SBKP 301900Z 12015KT 5000 HZ NSC 26/13 Q1017=
2010083020 - SBKP 302000Z 12014KT 5000 HZ NSC 23/13 Q1018=
2010083020 - SBKP 302033Z 12015KT 4000 HZ NSC 21/13 Q1018=
2010083021 - SBKP 302100Z 12016KT 3500 HZ NSC 20/13 Q1018=
2010083021 - SBKP 302104Z 13017G27KT 3500 HZ NSC 20/13 Q1018=
2010083021 - SBKP 302130Z 13019KT 5000 HZ NSC 19/13 Q1019=
2010083022 - SBKP 302200Z 13020KT 8000 NSC 18/12 Q1019=
2010083023 - SBKP 302300Z 13021KT CAVOK 17/12 Q1019=
2010083100 - SBKP 310000Z 12020KT 8000 NSC 16/11 Q1020=
2010083100 - SBKP 310046Z 12020G32KT 8000 NSC 16/12 Q1020 WS R15=
2010083101 - SBKP 310100Z 12020G31KT 8000 NSC 16/12 Q1020 WS R15=
2010083102 - SBKP 310200Z 12018G28KT 7000 NSC 16/12 Q1020 WS R15=
2010083103 - SBKP 310300Z 11021G32KT CAVOK 15/11 Q1020=
2010083104 - SBKP 310400Z 12019KT CAVOK 15/11 Q1020=
2010083105 - SBKP 310500Z 11014KT CAVOK 14/11 Q1020=
2010083106 - SBKP 310600Z 11014KT 8000 NSC 14/12 Q1020=
2010083107 - SBKP 310700Z 12014KT 8000 NSC 14/12 Q1020=
2010083108 - SBKP 310800Z 11011KT 7000 NSC 14/12 Q1020=
2010083109 - SBKP 310900Z 10015KT 6000 2500SE FEW020 14/12 Q1020=
2010083109 - SBKP 310930Z 11011KT 3000 BR FEW020 14/12 Q1020=
2010083110 - SBKP 311000Z 11011KT 3000 BR NSC 14/12 Q1021=
2010083111 - SBKP 311100Z 11009KT 3000 HZ NSC 17/13 Q1021=
2010083112 - SBKP 311200Z 10006KT 4000 HZ NSC 20/13 Q1022=
2010083112 - SBKP 311236Z 05007KT 6000 NSC 24/13 Q1022=
2010083113 - SBKP 311300Z 03009KT 7000 NSC 25/12 Q1022=
2010083114 - SBKP 311400Z 03008KT 8000 NSC 27/11 Q1021=
2010083115 - SBKP 311500Z 02007KT 8000 NSC 29/11 Q1020=
2010083116 - SBKP 311600Z 02004KT 9000 NSC 30/09 Q1019=
2010083117 - SBKP 311700Z 04006KT 9000 NSC 30/10 Q1018=
2010083118 - SBKP 311800Z 10006KT 9000 NSC 30/08 Q1017=
2010083119 - SBKP 311900Z 05005KT 9000 NSC 31/08 Q1017=
2010083120 - SBKP 312000Z 05007KT 9000 NSC 29/08 Q1017=
2010083121 - SBKP 312100Z 03006KT 6000 NSC 27/07 Q1018=
2010083122 - SBKP 312200Z 05004KT 9000 NSC 25/06 Q1018=
2010083123 - SBKP 312300Z 11005KT CAVOK 20/07 Q1019=
2010090100 - SBKP 010000Z 11005KT CAVOK 19/09 Q1020=
2010090101 - SBKP 010100Z 12006KT CAVOK 19/11 Q1020=
2010090102 - SBKP 010200Z 12007KT CAVOK 18/10 Q1020=
2010090103 - SBKP 010300Z 12008KT CAVOK 17/11 Q1020=
2010090104 - SBKP 010400Z 10005KT CAVOK 16/11 Q1020=
2010090105 - SBKP 010500Z 08007KT CAVOK 18/10 Q1020=
2010090106 - SBKP 010600Z 07008KT CAVOK 19/10 Q1020=
2010090107 - SBKP 010700Z 06007KT CAVOK 19/10 Q1020=
2010090108 - SBKP 010800Z 06009KT CAVOK 19/10 Q1020=
2010090109 - SBKP 010900Z 05012KT CAVOK 19/09 Q1021 WS R15=
2010090110 - SBKP 011000Z 05011KT CAVOK 19/10 Q1021=
2010090111 - SBKP 011100Z 06012KT CAVOK 21/10 Q1022=
2010090112 - SBKP 011200Z 03013KT CAVOK 23/10 Q1023=
2010090113 - SBKP 011300Z 03013G23KT CAVOK 24/09 Q1023=
2010090114 - SBKP 011400Z 01011KT CAVOK 26/09 Q1023=
2010090115 - SBKP 011500Z 04009KT CAVOK 27/09 Q1022=
2010090116 - SBKP 011600Z 08005KT 9000 NSC 28/09 Q1021=
2010090117 - SBKP 011700Z 05005KT 9000 NSC 29/09 Q1020=
2010090118 - SBKP 011800Z 05004KT 8000 NSC 29/09 Q1019=
2010090119 - SBKP 011900Z 32003KT 7000 NSC 29/09 Q1019=
2010090120 - SBKP 012000Z 07002KT 7000 NSC 28/08 Q1019=
2010090121 - SBKP 012100Z 11003KT 7000 NSC 26/08 Q1019=
2010090122 - SBKP 012200Z 07003KT 7000 NSC 23/08 Q1019=
2010090123 - SBKP 012300Z 09003KT 9000 NSC 19/09 Q1020=
2010090200 - SBKP 020000Z 12006KT CAVOK 20/08 Q1020=
2010090201 - SBKP 020100Z 09010KT CAVOK 17/10 Q1021=
2010090202 - SBKP 020200Z 11006KT CAVOK 16/10 Q1021=
2010090203 - SBKP 020300Z 11006KT CAVOK 18/09 Q1022=
2010090204 - SBKP 020400Z 11006KT CAVOK 16/10 Q1022=
2010090205 - SBKP 020500Z 10008KT CAVOK 15/10 Q1021=
2010090206 - SBKP 020600Z 10007KT CAVOK 15/10 Q1021=
2010090207 - SBKP 020700Z 11008KT CAVOK 14/10 Q1021=
2010090208 - SBKP 020800Z 10007KT CAVOK 13/10 Q1021=
2010090209 - SBKP 020900Z 10006KT CAVOK 13/09 Q1022=
2010090210 - SBKP 021000Z 11006KT 8000 NSC 14/10 Q1023=
2010090211 - SBKP 021100Z 11005KT 7000 NSC 18/11 Q1023=
2010090212 - SBKP 021200Z 03007KT 7000 NSC 22/10 Q1023=
2010090213 - SBKP 021300Z 02007KT 9000 NSC 26/09 Q1024=
2010090214 - SBKP 021400Z 36007KT CAVOK 27/09 Q1023=
2010090215 - SBKP 021500Z 29006KT CAVOK 29/09 Q1022=
2010090216 - SBKP 021600Z 22005KT CAVOK 30/09 Q1021=
2010090217 - SBKP 021700Z 34005KT CAVOK 30/09 Q1020=
2010090218 - SBKP 021800Z 13001KT CAVOK 30/07 Q1019=
2010090219 - SBKP 021900Z 15003KT CAVOK 30/07 Q1019=
2010090220 - SBKP 022000Z 12004KT CAVOK 29/07 Q1019=
2010090221 - SBKP 022100Z 14004KT CAVOK 28/07 Q1020=
2010090222 - SBKP 022200Z 12003KT CAVOK 27/06 Q1020=
2010090223 - SBKP 022300Z 11003KT CAVOK 22/08 Q1021=
2010090300 - SBKP 030000Z 11005KT CAVOK 19/09 Q1021=
2010090301 - SBKP 030100Z 11010KT CAVOK 20/09 Q1021=
2010090302 - SBKP 030200Z 11010KT CAVOK 19/10 Q1022=
2010090303 - SBKP 030300Z 12010KT CAVOK 18/09 Q1021=
2010090304 - SBKP 030400Z 12008KT CAVOK 17/09 Q1021=
2010090305 - SBKP 030500Z 12010KT CAVOK 17/09 Q1020=
2010090306 - SBKP 030600Z 11011KT CAVOK 17/08 Q1020=
2010090307 - SBKP 030700Z 12010KT CAVOK 16/09 Q1020=
2010090308 - SBKP 030800Z 11010KT CAVOK 16/09 Q1020=
2010090309 - SBKP 030900Z 11010KT CAVOK 15/09 Q1021=
2010090310 - SBKP 031000Z 11008KT 6000 NSC 16/09 Q1021=
2010090311 - SBKP 031100Z 11007KT 5000 HZ NSC 21/10 Q1021=
2010090312 - SBKP 031200Z 09006KT 6000 NSC 24/10 Q1021=
2010090313 - SBKP 031300Z 02008KT 8000 NSC 28/08 Q1021=
2010090314 - SBKP 031400Z 36007KT 8000 NSC 29/07 Q1021=
2010090315 - SBKP 031500Z 02007KT CAVOK 31/08 Q1020=
2010090316 - SBKP 031600Z 33005KT CAVOK 31/07 Q1019=
2010090317 - SBKP 031700Z 34008KT CAVOK 31/07 Q1018=
2010090318 - SBKP 031800Z 36006KT CAVOK 32/06 Q1017=
2010090319 - SBKP 031900Z 34004KT CAVOK 32/06 Q1017=
2010090320 - SBKP 032000Z 31004KT CAVOK 31/06 Q1017=
2010090321 - SBKP 032100Z 24004KT CAVOK 28/07 Q1017=
2010090322 - SBKP 032200Z 19005KT CAVOK 27/06 Q1017=
2010090323 - SBKP 032300Z 16004KT CAVOK 26/07 Q1018=
2010090400 - SBKP 040000Z 11007KT CAVOK 20/08 Q1018=
2010090401 - SBKP 040100Z 11010KT CAVOK 19/08 Q1018=
2010090402 - SBKP 040200Z 11012KT 8000 NSC 20/10 Q1018=
2010090403 - SBKP 040300Z 10006KT 8000 NSC 18/10 Q1018=
2010090404 - SBKP 040400Z 06005KT 7000 NSC 17/10 Q1018=
2010090405 - SBKP 040500Z 13004KT 7000 NSC 18/09 Q1017=
2010090406 - SBKP 040600Z 11008KT 7000 NSC 15/10 Q1017=
2010090407 - SBKP 040700Z 10007KT 7000 NSC 14/09 Q1016=
2010090408 - SBKP 040800Z 10005KT 7000 NSC 14/09 Q1017=
2010090409 - SBKP 040900Z 11008KT 4500 HZ NSC 13/09 Q1017=
2010090410 - SBKP 041000Z 11007KT 3000 HZ NSC 14/09 Q1018=
2010090411 - SBKP 041100Z 09005KT 3000 HZ NSC 19/10 Q1018=
2010090412 - SBKP 041200Z 05004KT 3000 HZ NSC 24/09 Q1019=
2010090413 - SBKP 041300Z 36009KT 5000 HZ NSC 27/08 Q1019=
2010090414 - SBKP 041400Z 35012KT 9000 NSC 29/08 Q1018=
2010090415 - SBKP 041500Z 34012KT CAVOK 31/07 Q1017=
2010090416 - SBKP 041600Z 32011KT CAVOK 32/07 Q1016=
2010090417 - SBKP 041700Z 31013KT CAVOK 33/07 Q1015=
2010090418 - SBKP 041800Z 31012KT CAVOK 33/06 Q1014=
2010090419 - SBKP 041900Z 28012KT CAVOK 33/06 Q1014=
2010090420 - SBKP 042000Z 29012KT CAVOK 31/06 Q1014=
2010090421 - SBKP 042100Z 26008KT 9000 4000NW NSC 29/07 Q1014=
2010090422 - SBKP 042200Z 28005KT 9000 4000NW NSC 27/07 Q1015=
2010090423 - SBKP 042300Z 30004KT CAVOK 25/07 Q1015=
2010090500 - SBKP 050000Z 34003KT CAVOK 23/07 Q1016=
2010090501 - SBKP 050100Z 06003KT 6000 2700SE NSC 21/08 Q1016=
2010090502 - SBKP 050200Z 01002KT CAVOK 20/09 Q1016=
2010090503 - SBKP 050300Z 35002KT 8000 NSC 21/09 Q1017=
2010090504 - SBKP 050400Z 11003KT 8000 NSC 20/10 Q1017=
2010090505 - SBKP 050500Z 10002KT 9000 NSC 19/10 Q1016=
2010090506 - SBKP 050600Z 18001KT CAVOK 18/10 Q1016=
2010090507 - SBKP 050700Z 07003KT CAVOK 17/10 Q1016=
2010090508 - SBKP 050800Z 12002KT CAVOK 17/10 Q1016=
2010090509 - SBKP 050900Z 10003KT 5000 HZ NSC 16/10 Q1017=
2010090509 - SBKP 050910Z 11010KT 3500 HZ NSC 16/11 Q1017=
2010090510 - SBKP 051000Z 11012KT 3000 BR NSC 17/13 Q1018=
2010090511 - SBKP 051100Z 11015KT 3500 HZ NSC 19/14 Q1019=
2010090512 - SBKP 051200Z 12017KT 4000 HZ NSC 21/14 Q1020=
2010090512 - SBKP 051220Z 13015KT 6000 NSC 21/14 Q1020=
2010090513 - SBKP 051300Z 11016KT 8000 NSC 22/14 Q1020=
2010090514 - SBKP 051400Z 11016KT 9000 NSC 23/14 Q1020=
2010090515 - SBKP 051500Z 12015KT 9000 NSC 24/14 Q1019=
2010090516 - SBKP 051600Z 13019KT 9000 NSC 23/14 Q1019=
2010090517 - SBKP 051700Z 13018KT 9000 NSC 23/13 Q1019=
2010090518 - SBKP 051800Z 13019KT CAVOK 23/13 Q1019=
2010090519 - SBKP 051900Z 13020KT CAVOK 22/13 Q1019=
2010090520 - SBKP 052000Z 13022KT CAVOK 19/13 Q1020=
2010090521 - SBKP 052100Z 13018KT CAVOK 17/12 Q1020=
2010090522 - SBKP 052200Z 14021KT CAVOK 16/11 Q1021=
2010090523 - SBKP 052300Z 14020G30KT CAVOK 15/11 Q1023=
2010090600 - SBKP 060000Z 14024KT CAVOK 15/11 Q1023 WS R15=
2010090601 - SBKP 060100Z 14021KT CAVOK 15/11 Q1024=
2010090602 - SBKP 060200Z 14022KT 9999 FEW020 14/11 Q1024=
2010090603 - SBKP 060300Z 14022G32KT 9999 SCT019 SCT100 15/11 Q1024=
2010090604 - SBKP 060400Z 14019G29KT 9999 FEW010 SCT018 BKN100 15/11 Q1023=
2010090605 - SBKP 060500Z 13019G29KT 9999 FEW010 BKN018 15/11 Q1023=
2010090606 - SBKP 060600Z 12016G26KT 9999 FEW010 BKN020 15/11 Q1023=
2010090607 - SBKP 060700Z 14018KT 9999 FEW010 BKN020 14/11 Q1023=
2010090608 - SBKP 060800Z 13016KT 9999 SCT020 14/10 Q1023=
2010090609 - SBKP 060900Z 12019G29KT 9999 FEW020 SCT100 14/10 Q1023=
2010090610 - SBKP 061000Z 13020KT 9999 FEW010 14/11 Q1024=
2010090611 - SBKP 061100Z 12020KT 9999 FEW015 16/11 Q1024=
2010090612 - SBKP 061200Z 12017KT 9999 FEW015 18/11 Q1025=
2010090613 - SBKP 061300Z 13020KT CAVOK 20/12 Q1025=
2010090614 - SBKP 061400Z 13019KT 9999 FEW020 21/12 Q1025=
2010090615 - SBKP 061500Z 13020KT 9999 FEW025 21/12 Q1024=
2010090616 - SBKP 061600Z 14021KT 9999 FEW025 22/13 Q1023=
2010090617 - SBKP 061700Z 12018KT CAVOK 22/13 Q1022=
2010090618 - SBKP 061800Z 12018KT CAVOK 21/13 Q1021=
2010090619 - SBKP 061900Z 12020KT CAVOK 20/12 Q1021=
2010090620 - SBKP 062000Z 13020KT CAVOK 19/12 Q1022=
2010090621 - SBKP 062100Z 13020KT 8000 NSC 17/12 Q1022=
2010090622 - SBKP 062200Z 14018KT 9000 NSC 16/12 Q1022=
2010090623 - SBKP 062300Z 13019KT CAVOK 16/12 Q1023=
2010090700 - SBKP 070000Z 13020KT CAVOK 16/12 Q1023=
2010090701 - SBKP 070100Z 14014KT CAVOK 15/14 Q1024=
2010090702 - SBKP 070200Z 13012KT CAVOK 15/12 Q1024=
2010090703 - SBKP 070300Z 12010KT CAVOK 15/12 Q1024=
2010090704 - SBKP 070400Z 12013KT CAVOK 15/12 Q1023=
2010090705 - SBKP 070500Z 11016KT CAVOK 16/12 Q1022=
2010090706 - SBKP 070600Z 11013KT CAVOK 15/12 Q1022=
2010090707 - SBKP 070700Z 11015KT 8000 NSC 15/13 Q1021=
2010090708 - SBKP 070800Z 11012KT 8000 NSC 16/13 Q1021=
2010090709 - SBKP 070900Z 12010KT 8000 SCT040 BKN080 16/13 Q1021=
2010090709 - SBKP 070920Z 13007KT 4500 -RA BR SCT040 BKN080 15/13 Q1023=
2010090710 - SBKP 071000Z 13005KT 4000 -RA BR FEW010 SCT040 BKN070 15/14 Q1023=
2010090710 - SBKP 071015Z 26007KT 3500 RA BR FEW010 SCT015 BKN070 15/14 Q1024=
2010090710 - SBKP 071035Z 25007KT 4000 -TSRA BR SCT015 FEW030CB BKN070 15/14 Q1025 RERA=
2010090711 - SBKP 071100Z 18008KT 4000 RA BR FEW005 SCT015 OVC070 15/14 Q1024 RETS=
2010090711 - SBKP 071110Z 21008KT 2000 +TSRA BR FEW005 SCT015 FEW030CB OVC070 15/14 Q1024=
2010090712 - SBKP 071200Z 17007KT 2000 RA BR FEW004 SCT015 OVC070 15/14 Q1025 RETSRA=
2010090712 - SBKP 071215Z 21006KT 2000 TSRA BR SCT004 BKN015 FEW030CB OVC070 15/14 Q1026=
2010090712 - SBKP 071235Z 17007KT 3500 -RA BR SCT004 BKN015 OVC070 15/14 Q1026 RETSRA=
2010090712 - SBKP 071245Z 16007KT 2000 RA BR SCT004 BKN015 OVC070 15/14 Q1026 RETSRA=
2010090713 - SBKP 071300Z 14008KT 3000 -RA BR FEW004 BKN018 OVC070 15/14 Q1026 RETSRA=
2010090714 - SBKP 071400Z 09008KT 9000 FEW005 SCT025 OVC070 16/16 Q1024=
2010090715 - SBKP 071500Z 09006KT 9999 FEW005 BKN025 OVC070 17/16 Q1024=
2010090716 - SBKP 071600Z 27006KT 6000 -RA FEW007 BKN025 OVC070 16/15 Q1025=
2010090716 - SBKP 071620Z 04003KT 3000 -RA BR FEW007 BKN025 OVC070 16/15 Q1024=
2010090717 - SBKP 071700Z 10008KT 9000 FEW007 BKN025 OVC080 16/15 Q1022=
2010090718 - SBKP 071800Z 31006KT 8000 FEW006 SCT010 BKN025 17/16 Q1022=
2010090719 - SBKP 071900Z 08009KT 8000 FEW010 SCT040 BKN100 16/15 Q1020=
2010090720 - SBKP 072000Z 19009KT 9999 FEW010 SCT045 BKN100 17/16 Q1021=
2010090721 - SBKP 072100Z 14004KT 9999 FEW045 BKN100 16/14 Q1022=
2010090722 - SBKP 072200Z 17005KT 9999 FEW018 BKN100 16/15 Q1023=
2010090723 - SBKP 072300Z 18003KT 9999 SCT020 BKN100 16/15 Q1023=
2010090700 - SBKP 070000Z 13020KT CAVOK 16/12 Q1023=
2010090701 - SBKP 070100Z 14014KT CAVOK 15/14 Q1024=
2010090702 - SBKP 070200Z 13012KT CAVOK 15/12 Q1024=
2010090703 - SBKP 070300Z 12010KT CAVOK 15/12 Q1024=
2010090704 - SBKP 070400Z 12013KT CAVOK 15/12 Q1023=
2010090705 - SBKP 070500Z 11016KT CAVOK 16/12 Q1022=
2010090706 - SBKP 070600Z 11013KT CAVOK 15/12 Q1022=
2010090707 - SBKP 070700Z 11015KT 8000 NSC 15/13 Q1021=
2010090708 - SBKP 070800Z 11012KT 8000 NSC 16/13 Q1021=
2010090709 - SBKP 070900Z 12010KT 8000 SCT040 BKN080 16/13 Q1021=
2010090709 - SBKP 070920Z 13007KT 4500 -RA BR SCT040 BKN080 15/13 Q1023=
2010090710 - SBKP 071000Z 13005KT 4000 -RA BR FEW010 SCT040 BKN070 15/14 Q1023=
2010090710 - SBKP 071015Z 26007KT 3500 RA BR FEW010 SCT015 BKN070 15/14 Q1024=
2010090710 - SBKP 071035Z 25007KT 4000 -TSRA BR SCT015 FEW030CB BKN070 15/14 Q1025 RERA=
2010090711 - SBKP 071100Z 18008KT 4000 RA BR FEW005 SCT015 OVC070 15/14 Q1024 RETS=
2010090711 - SBKP 071110Z 21008KT 2000 +TSRA BR FEW005 SCT015 FEW030CB OVC070 15/14 Q1024=
2010090712 - SBKP 071200Z 17007KT 2000 RA BR FEW004 SCT015 OVC070 15/14 Q1025 RETSRA=
2010090712 - SBKP 071215Z 21006KT 2000 TSRA BR SCT004 BKN015 FEW030CB OVC070 15/14 Q1026=
2010090712 - SBKP 071235Z 17007KT 3500 -RA BR SCT004 BKN015 OVC070 15/14 Q1026 RETSRA=
2010090712 - SBKP 071245Z 16007KT 2000 RA BR SCT004 BKN015 OVC070 15/14 Q1026 RETSRA=
2010090713 - SBKP 071300Z 14008KT 3000 -RA BR FEW004 BKN018 OVC070 15/14 Q1026 RETSRA=
2010090714 - SBKP 071400Z 09008KT 9000 FEW005 SCT025 OVC070 16/16 Q1024=
2010090715 - SBKP 071500Z 09006KT 9999 FEW005 BKN025 OVC070 17/16 Q1024=
2010090716 - SBKP 071600Z 27006KT 6000 -RA FEW007 BKN025 OVC070 16/15 Q1025=
2010090716 - SBKP 071620Z 04003KT 3000 -RA BR FEW007 BKN025 OVC070 16/15 Q1024=
2010090717 - SBKP 071700Z 10008KT 9000 FEW007 BKN025 OVC080 16/15 Q1022=
2010090718 - SBKP 071800Z 31006KT 8000 FEW006 SCT010 BKN025 17/16 Q1022=
2010090719 - SBKP 071900Z 08009KT 8000 FEW010 SCT040 BKN100 16/15 Q1020=
2010090720 - SBKP 072000Z 19009KT 9999 FEW010 SCT045 BKN100 17/16 Q1021=
2010090721 - SBKP 072100Z 14004KT 9999 FEW045 BKN100 16/14 Q1022=
2010090722 - SBKP 072200Z 17005KT 9999 FEW018 BKN100 16/15 Q1023=
2010090723 - SBKP 072300Z 18003KT 9999 SCT020 BKN100 16/15 Q1023=
2010090800 - SBKP 080000Z 10004KT 9999 FEW030 BKN100 15/15 Q1023=
2010090901 - SBKP 090100Z 12017KT 9999 SCT015 15/11 Q1022=
2010090902 - SBKP 090200Z 12012KT 9999 SCT015 15/11 Q1022=
2010090903 - SBKP 090300Z 13015KT 9999 FEW025 15/11 Q1022=
2010090904 - SBKP 090400Z 12012KT 9999 SCT025 14/11 Q1022=
2010090905 - SBKP 090500Z 13013KT 9999 FEW025 14/11 Q1022=
2010090906 - SBKP 090600Z 13015KT 9999 FEW020 14/11 Q1021=
2010090907 - SBKP 090700Z 13013KT 9999 FEW020 14/11 Q1021=
2010090908 - SBKP 090800Z 13013KT 9999 FEW020 14/11 Q1021=
2010090909 - SBKP 090900Z 12009KT 9999 FEW020 13/11 Q1022=
2010090910 - SBKP 091000Z 12014KT 9999 FEW020 14/11 Q1022=
2010090911 - SBKP 091100Z 11015KT 9999 FEW020 16/11 Q1023=
2010090912 - SBKP 091200Z 11016KT 9999 FEW020 19/11 Q1023 WS R15=
2010090913 - SBKP 091300Z 11014KT 9999 FEW020 21/11 Q1024=
2010090914 - SBKP 091400Z 12013KT 9999 FEW020 23/12 Q1024=
2010090915 - SBKP 091500Z 12011KT 9999 FEW020 23/11 Q1023=
2010090916 - SBKP 091600Z 13012KT 9999 FEW040 24/11 Q1022=
2010090917 - SBKP 091700Z 14011KT 9999 FEW040 24/11 Q1021=
2010090918 - SBKP 091800Z 13010KT 9999 FEW040 25/10 Q1021=
2010090919 - SBKP 091900Z 13010G20KT 9999 FEW045 25/10 Q1021=
2010090920 - SBKP 092000Z 14012KT CAVOK 23/10 Q1021=
2010090921 - SBKP 092100Z 14015KT CAVOK 20/12 Q1021=
2010090922 - SBKP 092200Z 13019G29KT CAVOK 17/12 Q1022=
2010090923 - SBKP 092300Z 13018KT CAVOK 16/12 Q1022=
2010091000 - SBKP 100000Z 12018G28KT CAVOK 16/12 Q1023=
2010091001 - SBKP 100100Z 11019G29KT CAVOK 15/11 Q1023 WS R15=
2010091002 - SBKP 100200Z 11017G28KT CAVOK 15/11 Q1023=
2010091003 - SBKP 100300Z 11018KT 9999 FEW020 15/11 Q1023=
2010091004 - SBKP 100400Z 11014KT 9999 FEW008 14/12 Q1023=
2010091005 - SBKP 100500Z 12013KT 9999 FEW010 14/12 Q1022=
2010091006 - SBKP 100600Z 12014KT 9999 FEW010 14/12 Q1022=
2010091007 - SBKP 100700Z 12011KT CAVOK 14/11 Q1022=
2010091008 - SBKP 100800Z 11013KT CAVOK 14/11 Q1022=
2010091009 - SBKP 100900Z 11012KT CAVOK 13/11 Q1022=
2010091010 - SBKP 101000Z 11012KT CAVOK 14/12 Q1023=
2010091011 - SBKP 101100Z 11012KT CAVOK 16/12 Q1024=
2010091012 - SBKP 101200Z 12010KT CAVOK 19/13 Q1024=
2010091013 - SBKP 101300Z 12008KT CAVOK 22/13 Q1025=
2010091014 - SBKP 101400Z 11007KT CAVOK 24/13 Q1024=
2010091015 - SBKP 101500Z 11009KT CAVOK 26/12 Q1023=
2010091016 - SBKP 101600Z 09008KT CAVOK 27/12 Q1022=
2010091017 - SBKP 101700Z 10010KT CAVOK 28/11 Q1021=
2010091018 - SBKP 101800Z 15008KT CAVOK 28/10 Q1020=
2010091019 - SBKP 101900Z 13009KT CAVOK 27/11 Q1020=
2010091020 - SBKP 102000Z 15013KT CAVOK 26/11 Q1020=
2010091021 - SBKP 102100Z 12011KT CAVOK 22/11 Q1020=
2010091022 - SBKP 102200Z 13015KT CAVOK 20/14 Q1020=
2010091023 - SBKP 102300Z 11012KT CAVOK 19/14 Q1021=
2010091100 - SBKP 110000Z 11015KT CAVOK 18/14 Q1021=
2010091101 - SBKP 110100Z 11015KT CAVOK 17/13 Q1021=
2010091102 - SBKP 110200Z 11014KT CAVOK 16/13 Q1021=
2010091103 - SBKP 110300Z 11011KT CAVOK 15/12 Q1021=
2010091104 - SBKP 110400Z 11009KT CAVOK 14/12 Q1021=
2010091105 - SBKP 110500Z 12007KT CAVOK 13/12 Q1021=
2010091106 - SBKP 110600Z 12008KT CAVOK 13/11 Q1021=
2010091107 - SBKP 110700Z 12008KT CAVOK 13/11 Q1020=
2010091108 - SBKP 110800Z 11009KT CAVOK 13/11 Q1020=
2010091109 - SBKP 110900Z 11007KT CAVOK 13/10 Q1021=
2010091110 - SBKP 111000Z 11008KT 9000 NSC 14/11 Q1021=
2010091111 - SBKP 111100Z 11006KT CAVOK 17/12 Q1022=
2010091112 - SBKP 111200Z 08004KT CAVOK 21/11 Q1022=
2010091113 - SBKP 111300Z 03006KT CAVOK 24/09 Q1022=
2010091114 - SBKP 111400Z 04003KT CAVOK 26/08 Q1022=
2010091115 - SBKP 111500Z 33004KT CAVOK 28/09 Q1021=
2010091116 - SBKP 111600Z 03003KT CAVOK 29/06 Q1020=
2010091117 - SBKP 111700Z 04003KT CAVOK 29/05 Q1019=
2010091118 - SBKP 111800Z 33003KT CAVOK 30/05 Q1017=
2010091119 - SBKP 111900Z 36003KT CAVOK 31/03 Q1017=
2010091120 - SBKP 112000Z 02007KT CAVOK 30/03 Q1017=
2010091121 - SBKP 112100Z 02006KT CAVOK 27/05 Q1017=
2010091122 - SBKP 112200Z 04004KT CAVOK 24/05 Q1017=
2010091123 - SBKP 112300Z 05005KT CAVOK 22/06 Q1018=
2010091200 - SBKP 120000Z 07005KT CAVOK 19/06 Q1018=
2010091201 - SBKP 120100Z 08005KT CAVOK 19/06 Q1018=
2010091202 - SBKP 120200Z 09005KT CAVOK 16/08 Q1018=
2010091203 - SBKP 120300Z 08005KT CAVOK 17/08 Q1018=
2010091204 - SBKP 120400Z 04002KT CAVOK 16/08 Q1018=
2010091205 - SBKP 120500Z 07003KT CAVOK 15/08 Q1017=
2010091206 - SBKP 120600Z 09006KT CAVOK 13/08 Q1017=
2010091207 - SBKP 120700Z 11007KT CAVOK 13/08 Q1017=
2010091208 - SBKP 120800Z 10007KT CAVOK 12/08 Q1017=
2010091209 - SBKP 120900Z 11005KT CAVOK 13/07 Q1018=
2010091210 - SBKP 121000Z 09005KT CAVOK 14/08 Q1019=
2010091211 - SBKP 121100Z 08004KT CAVOK 18/09 Q1019=
2010091212 - SBKP 121200Z 04004KT CAVOK 21/09 Q1020=
2010091213 - SBKP 121300Z 01007KT CAVOK 24/08 Q1020=
2010091214 - SBKP 121400Z 36008KT CAVOK 27/08 Q1020=
2010091215 - SBKP 121500Z 36007KT CAVOK 29/08 Q1019=
2010091216 - SBKP 121600Z 33005KT CAVOK 29/08 Q1018=
2010091217 - SBKP 121700Z 36008KT CAVOK 30/07 Q1017=
2010091218 - SBKP 121800Z 31006KT CAVOK 31/07 Q1016=
2010091219 - SBKP 121900Z 31003KT CAVOK 31/06 Q1015=
2010091220 - SBKP 122000Z 05003KT CAVOK 31/06 Q1015=
2010091221 - SBKP 122100Z 18006KT CAVOK 27/08 Q1016=
2010091222 - SBKP 122200Z 16006KT CAVOK 25/08 Q1017=
2010091223 - SBKP 122300Z 12008KT CAVOK 22/09 Q1017=
2010091300 - SBKP 130000Z 11011KT CAVOK 21/09 Q1018=
2010091301 - SBKP 130100Z 11012KT CAVOK 21/10 Q1018=
2010091302 - SBKP 130200Z 11012KT CAVOK 20/09 Q1017=
2010091303 - SBKP 130300Z 11010KT CAVOK 19/09 Q1017=
2010091304 - SBKP 130400Z 10007KT CAVOK 18/08 Q1017=
2010091305 - SBKP 130500Z 11006KT CAVOK 16/08 Q1017=
2010091306 - SBKP 130600Z 11007KT CAVOK 16/08 Q1017=
2010091307 - SBKP 130700Z 10007KT CAVOK 15/08 Q1016=
2010091308 - SBKP 130800Z 08005KT CAVOK 15/07 Q1017=
2010091309 - SBKP 130900Z 09006KT CAVOK 15/07 Q1017=
2010091310 - SBKP 131000Z 07004KT CAVOK 17/08 Q1018=
2010091311 - SBKP 131100Z 05004KT CAVOK 22/09 Q1019=
2010091312 - SBKP 131200Z 03010KT CAVOK 25/08 Q1019=
2010091313 - SBKP 131300Z 01010KT CAVOK 27/09 Q1019=
2010091314 - SBKP 131400Z 01010KT CAVOK 28/09 Q1019=
2010091315 - SBKP 131500Z 36008KT CAVOK 29/07 Q1018=
2010091316 - SBKP 131600Z 03009KT CAVOK 30/07 Q1017=
2010091317 - SBKP 131700Z 01010KT CAVOK 31/06 Q1016=
2010091318 - SBKP 131800Z 02010KT CAVOK 31/05 Q1014=
2010091319 - SBKP 131900Z 03008KT CAVOK 32/04 Q1014=
2010091320 - SBKP 132000Z 35005KT CAVOK 29/03 Q1014=
2010091321 - SBKP 132100Z 33005KT 9000 NSC 27/03 Q1014=
2010091322 - SBKP 132200Z 04003KT CAVOK 23/05 Q1015=
2010091323 - SBKP 132300Z 06005KT CAVOK 22/04 Q1015=
2010091400 - SBKP 140000Z 04007KT CAVOK 23/02 Q1015=
2010091401 - SBKP 140100Z 07006KT CAVOK 20/03 Q1015=
2010091402 - SBKP 140200Z 07006KT CAVOK 19/03 Q1016=
2010091403 - SBKP 140300Z 07005KT CAVOK 18/04 Q1016=
2010091404 - SBKP 140400Z 32005KT CAVOK 18/04 Q1016=
2010091405 - SBKP 140500Z 03005KT CAVOK 19/04 Q1016=
2010091406 - SBKP 140600Z 02006KT CAVOK 16/06 Q1016=
2010091407 - SBKP 140700Z 01005KT CAVOK 18/04 Q1016=
2010091408 - SBKP 140800Z 05008KT CAVOK 19/04 Q1016=
2010091409 - SBKP 140900Z 02008KT CAVOK 19/05 Q1016=
2010091410 - SBKP 141000Z 01005KT CAVOK 20/05 Q1016=
2010091411 - SBKP 141100Z 01007KT 8000 NSC 23/06 Q1017=
2010091412 - SBKP 141200Z 36009KT 9000 NSC 25/07 Q1017=
2010091413 - SBKP 141300Z 27013KT CAVOK 27/08 Q1019=
2010091414 - SBKP 141400Z 33011KT 7000 NSC 27/08 Q1018=
2010091415 - SBKP 141500Z 29008KT 7000 NSC 29/09 Q1017=
2010091416 - SBKP 141600Z 27010KT CAVOK 30/09 Q1017=
2010091417 - SBKP 141700Z 32010G20KT CAVOK 31/08 Q1015=
2010091418 - SBKP 141800Z 30010KT CAVOK 31/08 Q1015=
2010091419 - SBKP 141900Z 29009KT 9000 NSC 30/09 Q1015=
2010091420 - SBKP 142000Z 30007KT 9000 NSC 28/09 Q1015=
2010091421 - SBKP 142100Z 30008KT 8000 NSC 26/09 Q1015=
2010091422 - SBKP 142200Z 33005KT CAVOK 26/08 Q1016=
2010091423 - SBKP 142300Z 31004KT CAVOK 25/08 Q1016=
2010091500 - SBKP 150000Z 36002KT CAVOK 23/08 Q1016=
2010091501 - SBKP 150100Z 22008KT CAVOK 23/11 Q1017=
2010091502 - SBKP 150200Z 20005KT CAVOK 21/12 Q1017=
2010091503 - SBKP 150300Z 20004KT CAVOK 21/12 Q1017=
2010091504 - SBKP 150400Z 13001KT CAVOK 20/12 Q1017=
2010091505 - SBKP 150500Z 34002KT CAVOK 19/12 Q1017=
2010091506 - SBKP 150600Z 21003KT CAVOK 19/13 Q1017=
2010091507 - SBKP 150700Z 23003KT CAVOK 19/13 Q1016=
2010091508 - SBKP 150800Z 23004KT CAVOK 19/13 Q1017=
2010091509 - SBKP 150900Z 05002KT 6000 2800SE NSC 17/13 Q1018=
2010091510 - SBKP 151000Z 15002KT 7000 NSC 18/14 Q1018=
2010091511 - SBKP 151100Z 22002KT 5000 HZ NSC 21/14 Q1019=
2010091512 - SBKP 151200Z 10002KT 6000 NSC 21/14 Q1019=
2010091513 - SBKP 151300Z 19005KT 7000 NSC 22/15 Q1019=
2010091514 - SBKP 151400Z 10004KT 6000 NSC 25/15 Q1019=
2010091515 - SBKP 151500Z 12005KT 6000 NSC 26/15 Q1018=
2010091516 - SBKP 151600Z 18004KT 6000 NSC 26/14 Q1017=
2010091517 - SBKP 151700Z 13004KT 7000 NSC 28/15 Q1017=
2010091518 - SBKP 151800Z 12014KT 7000 NSC 26/16 Q1016=
2010091519 - SBKP 151900Z 12014KT 8000 NSC 24/15 Q1016=
2010091520 - SBKP 152000Z /////KT 7000 NSC 23/15 Q1016=
2010091521 - SBKP 152100Z 12014KT 8000 NSC 20/14 Q1017=
2010091522 - SBKP 152200Z 12015KT 8000 NSC 18/14 Q1017=
2010091523 - SBKP 152300Z 11017KT 9000 NSC 17/13 Q1018=
2010091600 - SBKP 160000Z 11017KT 9000 NSC 17/13 Q1018=
2010091601 - SBKP 160100Z 12017KT CAVOK 16/13 Q1018=
2010091602 - SBKP 160200Z 11017KT CAVOK 16/13 Q1017=
2010091603 - SBKP 160300Z 11017KT CAVOK 16/13 Q1018=
2010091604 - SBKP 160400Z 11015KT CAVOK 15/13 Q1017=
2010091605 - SBKP 160500Z 12016KT CAVOK 15/13 Q1017=
2010091606 - SBKP 160600Z 12013KT CAVOK 15/13 Q1017=
2010091607 - SBKP 160700Z 12017KT 9000 NSC 15/13 Q1017=
2010091608 - SBKP 160800Z 12015KT 9000 NSC 15/13 Q1017=
2010091609 - SBKP 160900Z 12012KT 5000 BR SCT020 16/13 Q1018=
2010091610 - SBKP 161000Z 12017G27KT 9999 4000SE NSC 16/13 Q1018=
2010091611 - SBKP 161100Z 11017G27KT 9999 4500E NSC 18/14 Q1018=
2010091612 - SBKP 161200Z 11015KT CAVOK 20/14 Q1019=
2010091613 - SBKP 161300Z 11012KT CAVOK 22/14 Q1018=
2010091614 - SBKP 161400Z 10010KT CAVOK 25/15 Q1017=
2010091615 - SBKP 161500Z 09005KT CAVOK 27/15 Q1017=
2010091616 - SBKP 161600Z 05006KT CAVOK 29/14 Q1016=
2010091617 - SBKP 161700Z 34003KT CAVOK 30/14 Q1015=
2010091618 - SBKP 161800Z 31003KT CAVOK 31/14 Q1014=
2010091619 - SBKP 161900Z 23005KT CAVOK 30/14 Q1014=
2010091620 - SBKP 162000Z 19006KT CAVOK 29/14 Q1014=
2010091621 - SBKP 162100Z 12013KT CAVOK 23/15 Q1015=
2010091622 - SBKP 162200Z 12020KT CAVOK 19/14 Q1015=
2010091623 - SBKP 162300Z 11017KT CAVOK 18/14 Q1016=
2010091700 - SBKP 170000Z 12017KT 9000 NSC 17/14 Q1016=
2010091701 - SBKP 170100Z 11016KT 9000 NSC 17/14 Q1016=
2010091702 - SBKP 170200Z 14015KT 9000 NSC 16/14 Q1016=
2010091703 - SBKP 170300Z 11010KT 8000 NSC 16/14 Q1016=
2010091704 - SBKP 170400Z 12005KT 8000 NSC 16/14 Q1016=
2010091705 - SBKP 170500Z 12009KT 7000 NSC 15/14 Q1015=
2010091706 - SBKP 170600Z 11010KT 7000 NSC 15/14 Q1015=
2010091707 - SBKP 170700Z 10008KT 7000 NSC 15/14 Q1015=
2010091708 - SBKP 170800Z 08007KT 7000 NSC 15/14 Q1014=
2010091709 - SBKP 170900Z 16004KT 4500 BR NSC 15/13 Q1015=
2010091710 - SBKP 171000Z 13006KT 3000 BR NSC 16/14 Q1016=
2010091711 - SBKP 171100Z 13004KT 3700 BR NSC 19/15 Q1017=
2010091712 - SBKP 171200Z 18002KT 4000 HZ NSC 22/16 Q1017=
2010091713 - SBKP 171300Z 30002KT 4000 HZ NSC 26/16 Q1017=
2010091714 - SBKP 171400Z 36005KT 4000 HZ NSC 26/15 Q1017=
2010091715 - SBKP 171500Z 34007KT 3700 HZ NSC 29/15 Q1016=
2010091716 - SBKP 171600Z 29007KT 4000 HZ NSC 31/15 Q1015=
2010091717 - SBKP 171700Z 28007KT 4000 HZ NSC 32/06 Q1014=
2010091718 - SBKP 171800Z 26010KT 4000 HZ NSC 32/14 Q1014=
2010091719 - SBKP 171900Z 24011KT 5000 HZ NSC 31/14 Q1014=
2010091720 - SBKP 172000Z 21005KT 5000 HZ NSC 30/14 Q1014=
2010091721 - SBKP 172100Z 17003KT 5000 HZ NSC 29/13 Q1015=
2010091722 - SBKP 172200Z 18005KT 7000 NSC 27/14 Q1015=
2010091723 - SBKP 172300Z 13010KT 7000 NSC 24/15 Q1016=
2010091800 - SBKP 180000Z 12011KT 7000 NSC 22/15 Q1017=
2010091801 - SBKP 180100Z 13013KT CAVOK 20/14 Q1017=
2010091802 - SBKP 180200Z 12018KT CAVOK 18/14 Q1018=
2010091803 - SBKP 180300Z 13020KT CAVOK 18/13 Q1018=
2010091804 - SBKP 180400Z 13022KT CAVOK 17/13 Q1018=
2010091805 - SBKP 180500Z 14017KT CAVOK 17/13 Q1018=
2010091806 - SBKP 180600Z 14016KT CAVOK 16/13 Q1018=
2010091807 - SBKP 180700Z 13016KT CAVOK 16/13 Q1019=
2010091808 - SBKP 180800Z 14015KT CAVOK 16/13 Q1019=
2010091809 - SBKP 180900Z 14017KT CAVOK 16/12 Q1019=
2010091810 - SBKP 181000Z 14018KT CAVOK 16/12 Q1020=
2010091811 - SBKP 181100Z 14017KT 8000 FEW022 17/12 Q1022=
2010091811 - SBKP 181130Z 13019G29KT 8000 FEW022 SCT075 18/12 Q1022=
2010091812 - SBKP 181200Z 14019G29KT 8000 FEW022 SCT075 18/12 Q1023=
2010091813 - SBKP 181300Z 13018G28KT 9000 FEW022 SCT075 20/12 Q1023=
2010091814 - SBKP 181400Z 14020KT 9999 FEW022 21/12 Q1022=
2010091815 - SBKP 181500Z 14018KT CAVOK 23/12 Q1022=
2010091816 - SBKP 181600Z 13019KT 9000 4000NW NSC 23/13 Q1021=
2010091817 - SBKP 181700Z 15022KT 9999 FEW030 22/13 Q1020=
2010091818 - SBKP 181800Z 14021G31KT 9999 FEW030 21/13 Q1020=
2010091819 - SBKP 181900Z 14023KT 9999 FEW020 19/12 Q1020 WS R15=
2010091820 - SBKP 182000Z 14026KT 9999 SCT020 17/11 Q1021=
2010091821 - SBKP 182100Z 14022KT 9000 BKN020 15/10 Q1021=
2010091822 - SBKP 182200Z 14025KT 9999 SCT020 14/10 Q1022=
2010091823 - SBKP 182300Z 14023KT 9999 FEW020 14/09 Q1023=
2010091900 - SBKP 190000Z 13024G36KT 9999 FEW020 14/09 Q1023=
2010091901 - SBKP 190100Z 13022KT 9999 FEW020 13/09 Q1023=
2010091902 - SBKP 190200Z 12019KT 9999 FEW020 14/10 Q1023 WS R15=
2010091903 - SBKP 190300Z 12018G33KT 9999 FEW020 14/10 Q1023=
2010091904 - SBKP 190400Z 12021KT 9999 FEW020 14/10 Q1022=
2010091905 - SBKP 190500Z 12016KT 9999 BKN020 14/10 Q1022=
2010091906 - SBKP 190600Z 13019KT 9999 FEW020 14/10 Q1021=
2010091907 - SBKP 190700Z 12017KT 9999 FEW020 13/10 Q1021=
2010091908 - SBKP 190800Z 12020KT 9999 FEW020 13/10 Q1021=
2010091909 - SBKP 190900Z 11018KT 9999 FEW020 13/10 Q1021 WS R15=
2010091910 - SBKP 191000Z 11017KT 9999 FEW020 14/10 Q1022=
2010091911 - SBKP 191100Z 12019G29KT 9999 FEW020 16/11 Q1023=
2010091912 - SBKP 191200Z 12020G30KT 9999 FEW020 18/11 Q1023=
2010091913 - SBKP 191300Z 11021KT 9999 FEW025 20/11 Q1023=
2010091914 - SBKP 191400Z 11016KT 9999 FEW030 22/12 Q1022=
2010091915 - SBKP 191500Z 10015KT CAVOK 23/12 Q1022=
2010091916 - SBKP 191600Z 10012KT CAVOK 24/12 Q1020=
2010091917 - SBKP 191700Z 12015KT CAVOK 25/13 Q1019=
2010091918 - SBKP 191800Z 13014KT CAVOK 24/13 Q1019=
2010091919 - SBKP 191900Z 14016KT CAVOK 23/13 Q1019=
2010091920 - SBKP 192000Z 13018KT CAVOK 21/12 Q1019=
2010091921 - SBKP 192100Z 12017KT CAVOK 19/12 Q1020=
2010091922 - SBKP 192200Z 13017KT CAVOK 18/12 Q1021=
2010091923 - SBKP 192300Z 12017G27KT CAVOK 17/12 Q1021=
2010092000 - SBKP 200000Z 12017KT CAVOK 16/12 Q1021=
2010092001 - SBKP 200100Z 12014KT CAVOK 16/12 Q1022=
2010092002 - SBKP 200200Z 13012KT CAVOK 15/12 Q1022=
2010092003 - SBKP 200300Z 12014KT CAVOK 15/12 Q1022=
2010092004 - SBKP 200400Z 10013KT CAVOK 15/11 Q1020=
2010092005 - SBKP 200500Z 07007KT CAVOK 16/11 Q1019=
2010092006 - SBKP 200600Z 13006KT CAVOK 15/11 Q1019=
2010092007 - SBKP 200700Z 14007KT CAVOK 14/11 Q1019=
2010092008 - SBKP 200800Z 12007KT CAVOK 14/11 Q1019=
2010092009 - SBKP 200900Z 12007KT CAVOK 14/11 Q1019=
2010092010 - SBKP 201000Z 13009KT CAVOK 15/12 Q1020=
2010092011 - SBKP 201100Z 12011KT 9000 NSC 18/12 Q1020=
2010092012 - SBKP 201200Z 11008KT 9000 NSC 20/13 Q1020=
2010092013 - SBKP 201300Z 06007KT CAVOK 23/13 Q1020=
2010092014 - SBKP 201400Z 02006KT CAVOK 26/14 Q1019=
2010092015 - SBKP 201500Z 35004KT CAVOK 27/14 Q1018=
2010092016 - SBKP 201600Z 30007KT CAVOK 29/14 Q1017=
2010092017 - SBKP 201700Z 29007KT CAVOK 30/14 Q1016=
2010092018 - SBKP 201800Z 18006KT 9999 FEW025 30/13 Q1016=
2010092019 - SBKP 201900Z 20006KT CAVOK 29/14 Q1016=
2010092020 - SBKP 202000Z 11017KT 5000 HZ NSC 21/14 Q1017=
2010092021 - SBKP 202100Z 11016KT 5000 HZ NSC 19/14 Q1018=
2010092021 - SBKP 202140Z 19014KT 9000 -TSRA SCT040CB SCT080 20/14 Q1019=
2010092022 - SBKP 202200Z 16018G29KT 8000 -TSRA SCT040CB SCT080 20/14 Q1018=
2010092023 - SBKP 202300Z 11016KT 9999 TS SCT040CB BKN090 17/15 Q1018=
2010092100 - SBKP 210000Z 10012KT 9000 NSC 17/14 Q1019 RETS WS R15=
2010092101 - SBKP 210100Z 08011KT CAVOK 18/14 Q1018=
2010092102 - SBKP 210200Z 08011KT CAVOK 18/14 Q1018=
2010092103 - SBKP 210300Z 08004KT CAVOK 17/13 Q1017=
2010092104 - SBKP 210400Z 11005KT CAVOK 16/14 Q1017=
2010092105 - SBKP 210500Z 13007KT CAVOK 16/14 Q1017=
2010092106 - SBKP 210600Z 06003KT CAVOK 16/14 Q1017=
2010092107 - SBKP 210700Z 12005KT CAVOK 15/14 Q1016=
2010092108 - SBKP 210800Z 12006KT CAVOK 15/13 Q1017=
2010092109 - SBKP 210900Z 11005KT CAVOK 14/13 Q1017=
2010092110 - SBKP 211000Z 09004KT CAVOK 16/14 Q1018=
2010092111 - SBKP 211100Z 14005KT 8000 NSC 19/15 Q1019=
2010092112 - SBKP 211200Z 07004KT 8000 NSC 23/14 Q1018=
2010092113 - SBKP 211300Z 03008KT CAVOK 26/14 Q1018=
2010092114 - SBKP 211400Z 03011KT CAVOK 27/14 Q1017=
2010092115 - SBKP 211500Z 02010KT CAVOK 29/14 Q1017=
2010092116 - SBKP 211600Z 35007KT 9999 FEW023 30/13 Q1016=
2010092117 - SBKP 211700Z 32007KT 9999 FEW025 31/13 Q1015=
2010092118 - SBKP 211800Z 35006KT 9999 FEW025 31/14 Q1014=
2010092119 - SBKP 211900Z 12004KT 9999 SCT030 FEW035TCU 30/14 Q1014=
2010092119 - SBKP 211935Z 35003KT 9999 TS VCSH SCT030 FEW040CB 29/14 Q1014=
2010092120 - SBKP 212000Z 15010KT 9999 TS FEW030 FEW040CB BKN070 27/14 Q1014=
2010092121 - SBKP 212100Z 10011KT 9999 -TSRA FEW040CB BKN070 22/16 Q1015=
2010092121 - SBKP 212120Z 16014G29KT 3000 +TSRA BR SCT040CB BKN070 19/17 Q1017=
2010092121 - SBKP 212140Z 15016KT 5000 TSRA BR SCT040CB BKN070 19/18 Q1018 RERA=
2010092122 - SBKP 212200Z 12016KT 5000 TSRA BR SCT040CB BKN070 19/18 Q1018 RERA=
2010092123 - SBKP 212300Z 14012KT 9999 -RA NSC 18/16 Q1018 RETSRA WS R15=
2010092200 - SBKP 220000Z 10007KT CAVOK 18/16 Q1017=
2010092201 - SBKP 220100Z 08007KT CAVOK 20/15 Q1018=
2010092202 - SBKP 220200Z 07011KT CAVOK 19/14 Q1017=
2010092203 - SBKP 220300Z 09004KT CAVOK 18/13 Q1017=
2010092204 - SBKP 220400Z 08004KT CAVOK 17/14 Q1016=
2010092205 - SBKP 220500Z 11005KT CAVOK 17/14 Q1016=
2010092206 - SBKP 220600Z 11006KT CAVOK 17/14 Q1015=
2010092207 - SBKP 220700Z 10005KT CAVOK 16/14 Q1015=
2010092208 - SBKP 220800Z 11006KT CAVOK 16/14 Q1015=
2010092209 - SBKP 220900Z 09004KT 9000 NSC 15/14 Q1016=
2010092210 - SBKP 221000Z 07004KT CAVOK 18/15 Q1017=
2010092211 - SBKP 221100Z 02007KT CAVOK 22/16 Q1017=
2010092212 - SBKP 221200Z 02010KT CAVOK 24/15 Q1018=
2010092213 - SBKP 221300Z 02012KT CAVOK 26/15 Q1018=
2010092214 - SBKP 221400Z 01010KT CAVOK 29/16 Q1018=
2010092215 - SBKP 221500Z 36013KT CAVOK 30/14 Q1016=
2010092216 - SBKP 221600Z 35011KT CAVOK 31/13 Q1015=
2010092217 - SBKP 221700Z 35010KT CAVOK 32/13 Q1015=
2010092218 - SBKP 221800Z 35009KT CAVOK 32/14 Q1014=
2010092219 - SBKP 221900Z 35008KT CAVOK 32/14 Q1013=
2010092220 - SBKP 222000Z 01005KT CAVOK 31/13 Q1014=
2010092221 - SBKP 222100Z 02006KT CAVOK 29/13 Q1014=
2010092222 - SBKP 222200Z 09004KT CAVOK 25/15 Q1015=
2010092223 - SBKP 222300Z 10005KT CAVOK 22/16 Q1015=
2010092300 - SBKP 230000Z 10005KT CAVOK 23/15 Q1015=
2010092301 - SBKP 230100Z 11007KT CAVOK 22/16 Q1016=
2010092302 - SBKP 230200Z 10006KT CAVOK 21/16 Q1016=
2010092303 - SBKP 230300Z 08005KT CAVOK 21/15 Q1015=
2010092304 - SBKP 230400Z 07002KT CAVOK 20/15 Q1015=
2010092305 - SBKP 230500Z 10004KT CAVOK 19/15 Q1014=
2010092306 - SBKP 230600Z 11006KT CAVOK 19/15 Q1014=
2010092307 - SBKP 230700Z 11005KT CAVOK 18/15 Q1014=
2010092308 - SBKP 230800Z 12005KT CAVOK 18/15 Q1015=
2010092309 - SBKP 230900Z 12006KT 7000 NSC 18/15 Q1016=
2010092310 - SBKP 231000Z 10007KT 8000 NSC 20/16 Q1017=
2010092311 - SBKP 231100Z 09004KT 9000 NSC 23/16 Q1017=
2010092312 - SBKP 231200Z 04009KT CAVOK 26/14 Q1017=
2010092313 - SBKP 231300Z 36008KT CAVOK 29/14 Q1017=
2010092314 - SBKP 231400Z 36010KT CAVOK 30/13 Q1017=
2010092315 - SBKP 231500Z 35009KT CAVOK 32/13 Q1016=
2010092316 - SBKP 231600Z 36006KT 9999 FEW030 32/14 Q1014=
2010092317 - SBKP 231700Z 33005KT 9999 FEW030 32/13 Q1014=
2010092318 - SBKP 231800Z 32007KT 9999 FEW030 32/13 Q1013=
2010092319 - SBKP 231900Z 35007KT 9999 FEW040 32/12 Q1012=
2010092320 - SBKP 232000Z 34005KT 9999 FEW040 FEW045TCU 30/12 Q1012=
2010092321 - SBKP 232100Z 11005KT 9999 FEW040 27/13 Q1013=
2010092322 - SBKP 232200Z 11008KT 9999 VCTS FEW045CB SCT070 24/12 Q1013=
2010092323 - SBKP 232300Z 15007KT 9999 VCTS FEW045CB BKN090 25/12 Q1014=
2010092400 - SBKP 240000Z 12008KT 9999 VCTS FEW035 FEW045CB SCT090 23/13 Q1014=
2010092401 - SBKP 240100Z 17006KT CAVOK 23/14 Q1014=
2010092402 - SBKP 240200Z 11006KT CAVOK 21/14 Q1014=
2010092403 - SBKP 240300Z 09005KT CAVOK 19/14 Q1013=
2010092404 - SBKP 240400Z 09004KT CAVOK 19/15 Q1013=
2010092405 - SBKP 240500Z 10006KT 9999 FEW030 19/15 Q1012=
2010092406 - SBKP 240600Z 16008KT 9999 FEW030 BKN100 20/15 Q1013=
2010092407 - SBKP 240700Z 13010KT 7000 FEW030 19/16 Q1013=
2010092408 - SBKP 240800Z 12013KT 7000 NSC 18/16 Q1014=
2010092409 - SBKP 240900Z 13013KT 4000 BR FEW030 18/16 Q1015=
2010092410 - SBKP 241000Z 24006KT 4000 BR FEW017 SCT070 19/16 Q1017=
2010092410 - SBKP 241025Z 20013KT 6000 SCT020 19/16 Q1018=
2010092411 - SBKP 241100Z 18013KT 9000 FEW020 19/16 Q1018=
2010092412 - SBKP 241200Z 16007KT CAVOK 20/16 Q1018=
2010092413 - SBKP 241300Z 11011KT CAVOK 20/14 Q1017=
2010092414 - SBKP 241400Z 11013KT CAVOK 21/14 Q1016=
2010092415 - SBKP 241500Z 10012KT CAVOK 24/15 Q1015=
2010092416 - SBKP 241600Z 10007KT 9000 NSC 23/15 Q1015=
2010092417 - SBKP 241700Z 12005KT 9000 NSC 23/15 Q1015=
2010092418 - SBKP 241800Z 05006KT 9000 3000E -RA FEW030 FEW040TCU BKN070 21/16 Q1016=
2010092419 - SBKP 241900Z 27011KT 7000 -TSRA FEW030 FEW040CB BKN070 19/15 Q1015=
2010092420 - SBKP 242000Z 29005KT 8000 FEW030 BKN070 19/15 Q1017 RETS=
2010092421 - SBKP 242100Z 26006KT 3000 -RA BR FEW030 SCT070 18/16 Q1017=
2010092422 - SBKP 242200Z 11006KT 4500 -RA BR FEW030 BKN070 OVC100 17/16 Q1016=
2010092422 - SBKP 242245Z 12006KT 8000 FEW030 BKN080 OVC100 17/16 Q1016=
2010092423 - SBKP 242300Z 12005KT 8000 FEW030 BKN080 OVC100 17/16 Q1017=
2010092500 - SBKP 250000Z 08005KT 7000 FEW030 BKN070 OVC090 17/16 Q1017=
2010092501 - SBKP 250100Z 11005KT 7000 NSC 17/16 Q1017=
2010092502 - SBKP 250200Z 11003KT 6000 NSC 17/16 Q1017=
2010092503 - SBKP 250300Z 14008KT 6000 NSC 17/15 Q1017=
2010092504 - SBKP 250400Z 13009KT 5000 BR SCT025 BKN070 OVC095 17/16 Q1016=
2010092505 - SBKP 250500Z 12007KT 5000 BR SCT025 BKN070 OVC080 17/16 Q1016=
2010092506 - SBKP 250600Z 14006KT 5000 BR SCT025 OVC070 17/16 Q1016=
2010092507 - SBKP 250700Z 12009KT 4000 BR SCT025 OVC070 17/16 Q1016=
2010092508 - SBKP 250800Z 11010KT 4000 BR SCT025 BKN060 OVC075 17/16 Q1016=
2010092509 - SBKP 250900Z 10008KT 2500 BR SCT025 OVC060 17/16 Q1016=
2010092510 - SBKP 251000Z 11008KT 2500 BR NSC 18/16 Q1016=
2010092511 - SBKP 251100Z 09007KT 2100 BR NSC 19/17 Q1017=
2010092512 - SBKP 251200Z 11007KT 2500 HZ NSC 21/17 Q1017=
2010092512 - SBKP 251240Z 07004KT 5000 2200SE HZ FEW020 22/17 Q1017=
2010092513 - SBKP 251300Z VRB02KT 5000 HZ FEW030 24/16 Q1017=
2010092514 - SBKP 251400Z VRB02KT 5000 HZ FEW030 25/16 Q1017=
2010092515 - SBKP 251500Z 00000KT 5000 HZ SCT030 27/16 Q1016=
2010092516 - SBKP 251600Z VRB02KT 5000 HZ FEW030 26/16 Q1015=
2010092517 - SBKP 251700Z VRB02KT 5000 HZ SCT040 28/15 Q1014=
2010092518 - SBKP 251800Z 31004KT 6000 FEW040 27/15 Q1013=
2010092519 - SBKP 251900Z 19006KT 5000 HZ FEW040 27/15 Q1013=
2010092520 - SBKP 252000Z 19005KT 5000 HZ FEW040 27/15 Q1013=
2010092521 - SBKP 252100Z 12015KT 5000 HZ FEW040 22/15 Q1013=
2010092522 - SBKP 252200Z 12019KT 6000 NSC 19/15 Q1014=
2010092523 - SBKP 252300Z 12019KT 8000 NSC 17/15 Q1015=
2010092600 - SBKP 260000Z 11017KT 8000 NSC 17/14 Q1015=
2010092601 - SBKP 260100Z 11018G29KT 8000 NSC 17/14 Q1015 WS R15=
2010092602 - SBKP 260200Z 11019KT 9000 NSC 17/14 Q1015=
2010092603 - SBKP 260300Z 12017KT CAVOK 16/14 Q1014=
2010092604 - SBKP 260400Z 12015KT CAVOK 16/14 Q1014=
2010092605 - SBKP 260500Z 11013G23KT CAVOK 16/14 Q1012=
2010092606 - SBKP 260600Z 11012KT CAVOK 16/14 Q1012=
2010092607 - SBKP 260700Z 09009KT CAVOK 17/14 Q1012=
2010092608 - SBKP 260800Z 14007KT CAVOK 17/15 Q1013=
2010092609 - SBKP 260900Z 18010G25KT 9999 -TSRA FEW040 FEW045CB OVC100 17/15 Q1015=
2010092609 - SBKP 260920Z 22015KT 3000 TSRA BR SCT030 FEW035CB OVC100 16/15 Q1017=
2010092610 - SBKP 261000Z 22010KT 2000 TSRA BR SCT012 SCT030 FEW035CB OVC100 16/16 Q1018=
2010092611 - SBKP 261100Z 12007KT 2500 -RA BR FEW012 SCT030 OVC100 16/16 Q1018 RETSRA=
2010092612 - SBKP 261200Z 08005KT 1800 R15/1800 R33/2000 -RA BR SCT030 OVC100 17/16 Q1019=
2010092613 - SBKP 261300Z 13011KT 3000 -RA BR FEW030 OVC100 16/15 Q1019=
2010092614 - SBKP 261400Z 02010KT 5000 -RA BR SCT030 OVC100 17/17 Q1018=
2010092615 - SBKP 261500Z 09005KT 8000 FEW010 SCT030 OVC100 19/17 Q1017=
2010092615 - SBKP 261530Z 36002KT 6000 BKN012 OVC100 19/17 Q1017=
2010092616 - SBKP 261600Z 36005KT 4000 -RA BR BKN010 OVC100 19/18 Q1017=
2010092617 - SBKP 261700Z 01006KT 4000 -RA BR BKN010 OVC100 19/18 Q1016=
2010092618 - SBKP 261800Z 02007KT 4000 -RA BR SCT010 OVC100 19/18 Q1015=
2010092619 - SBKP 261900Z 07003KT 4000 -RA BR SCT010 SCT030 OVC100 18/18 Q1015=
2010092620 - SBKP 262000Z 32003KT 3000 -RA BR SCT010 SCT030 OVC080 18/18 Q1016=
2010092621 - SBKP 262100Z 27003KT 2100 RA BR SCT010 BKN030 OVC100 18/17 Q1016=
2010092621 - SBKP 262140Z 31003KT 3500 RA BR SCT005 BKN050 OVC100 17/17 Q1016=
2010092622 - SBKP 262200Z 31004KT 3500 RA BR BKN005 BKN050 OVC100 17/17 Q1016=
2010092622 - SBKP 262220Z 14003KT 3500 -RA BR BKN005 BKN050 OVC100 17/17 Q1015 RERA=
2010092623 - SBKP 262300Z 06004KT 5000 -RA BR BKN005 BKN040 OVC100 17/17 Q1015 RERA=
2010092623 - SBKP 262335Z 27002KT 5000 -RA BR SCT005 SCT040 OVC100 17/17 Q1016=
2010092700 - SBKP 270000Z 15001KT 5000 -RA BR SCT005 SCT040 OVC100 17/17 Q1017=
2010092701 - SBKP 270100Z 06003KT 5000 -RA BR SCT005 SCT050 OVC080 17/17 Q1017=
2010092702 - SBKP 270200Z 04005KT 5000 -RA BR FEW005 OVC080 17/17 Q1016=
2010092703 - SBKP 270300Z 08007KT 7000 -RA FEW007 OVC086 17/16 Q1015=
2010092704 - SBKP 270400Z 06004KT 7000 FEW007 OVC090 17/16 Q1014=
2010092705 - SBKP 270500Z 19003KT 7000 -RA FEW003 OVC090 16/16 Q1013=
2010092706 - SBKP 270600Z 33003KT 7000 -RA FEW025 OVC080 16/16 Q1013=
2010092707 - SBKP 270700Z 12009KT 8000 -RA FEW025 SCT060 OVC080 16/16 Q1013=
2010092708 - SBKP 270800Z 01007KT 9000 -RA SCT010 SCT045 OVC080 16/16 Q1014=
2010092709 - SBKP 270900Z 02005KT 7000 -RA FEW020 BKN050 OVC080 17/16 Q1014=
2010092710 - SBKP 271000Z 36002KT 6000 FEW020 SCT050 BKN080 17/16 Q1014=
2010092711 - SBKP 271100Z 02006KT 6000 FEW020 BKN080 19/17 Q1013=
2010092712 - SBKP 271200Z 34005KT 8000 NSC 21/18 Q1014=
2010092713 - SBKP 271300Z 33006KT 9999 FEW018 OVC070 21/17 Q1014=
2010092714 - SBKP 271400Z 34007KT 9999 BKN022 OVC070 21/17 Q1013=
2010092715 - SBKP 271500Z 33005KT 9999 SCT020 BKN050 OVC070 22/18 Q1013=
2010092716 - SBKP 271600Z 35006KT 9999 SCT020 BKN050 OVC070 22/17 Q1012=
2010092717 - SBKP 271700Z 01004KT 9999 BKN027 OVC070 22/18 Q1011=
2010092718 - SBKP 271800Z 02004KT 9999 BKN024 OVC070 22/18 Q1010=
2010092719 - SBKP 271900Z 34006KT 7000 -RA BKN027 OVC070 22/18 Q1010=
2010092720 - SBKP 272000Z 23004KT 8000 BKN027 OVC070 22/18 Q1010=
2010092721 - SBKP 272100Z 23004KT 5000 BR SCT030 BKN045 OVC070 21/19 Q1011=
2010092722 - SBKP 272200Z 33007KT 7000 -RA BKN020 BKN035 OVC070 20/18 Q1012=
2010092723 - SBKP 272300Z 31005KT 7000 FEW017 SCT025 OVC070 19/18 Q1012=
2010092800 - SBKP 280000Z 03003KT 6000 FEW017 SCT035 OVC090 19/18 Q1012=
2010092801 - SBKP 280100Z 34003KT 5000 -RA BR FEW013 BKN020 OVC090 19/19 Q1013=
2010092801 - SBKP 280135Z 05003KT 4000 -RA BR FEW013 SCT020 OVC100 19/18 Q1012=
2010092802 - SBKP 280200Z 09004KT 4000 -RA BR FEW013 SCT020 OVC100 19/18 Q1012=
2010092803 - SBKP 280300Z 12005KT 5000 BR FEW014 SCT020 OVC100 18/18 Q1010=
2010092804 - SBKP 280400Z 14003KT 7000 -RA SCT020 OVC100 18/18 Q1011=
2010092805 - SBKP 280500Z 31003KT 4000 -RA BR BKN002 SCT020 OVC100 18/18 Q1011=
2010092805 - SBKP 280520Z 34005KT 1200 R15/1800 R33/1800 -RA BR BKN002 SCT020 OVC100 18/18 Q1011=
2010092806 - SBKP 280600Z 34005KT 1200 R15/1900 R33/P2000 -RA BR BKN002 SCT020 OVC100 18/18 Q1012=
2010092806 - SBKP 280640Z 31007KT 1200 R15/1900 R33/1700 RA BR BKN002 SCT020 OVC100 18/18 Q1012=
2010092807 - SBKP 280700Z 34008KT 1200 R15/P2000 R33/P2000 RA BR BKN002 SCT020 OVC100 18/18 Q1012=
2010092807 - SBKP 280720Z 01011KT 1500 R15/P2000 R33/P2000 -RA BR BKN003 SCT020 OVC100 18/18 Q1011 RERA=
2010092808 - SBKP 280800Z 01008KT 4000 BR BKN004 OVC100 18/17 Q1011 RERA=
2010092809 - SBKP 280900Z 02005KT 3500 BR BKN007 SCT020 OVC090 18/17 Q1011=
2010092809 - SBKP 280920Z 03004KT 5000 BR FEW007 SCT020 OVC090 17/17 Q1010=
2010092810 - SBKP 281000Z 07005KT 5000 BR FEW009 SCT017 OVC090 17/17 Q1011=
2010092811 - SBKP 281100Z 07004KT 5000 BR FEW010 BKN090 18/17 Q1011=
2010092812 - SBKP 281200Z 01005KT 8000 BKN015 BKN090 20/17 Q1012=
2010092813 - SBKP 281300Z 33006KT 8000 SCT020 OVC080 20/17 Q1013=
2010092814 - SBKP 281400Z 31004KT 8000 SCT016 OVC080 21/17 Q1012=
2010092815 - SBKP 281500Z 31005KT 9999 BKN020 OVC080 22/17 Q1012=
2010092816 - SBKP 281600Z 35010KT 9999 SCT020 OVC080 21/16 Q1010=
2010092817 - SBKP 281700Z 34008KT 9999 FEW025 OVC080 22/16 Q1010=
2010092818 - SBKP 281800Z 33006KT 9999 FEW025 OVC080 21/16 Q1010=
2010092819 - SBKP 281900Z 27006KT 9999 SCT020 BKN050 BKN080 21/16 Q1010=
2010092820 - SBKP 282000Z 34004KT 9999 FEW020 SCT040 21/16 Q1009=
2010092821 - SBKP 282100Z 01004KT 9999 FEW030 SCT080 20/16 Q1010=
2010092822 - SBKP 282200Z 02004KT 9999 FEW030 SCT080 19/16 Q1009=
2010092823 - SBKP 282300Z 01005KT 9999 FEW030 SCT080 19/16 Q1010=
2010092900 - SBKP 290000Z 36006KT CAVOK 18/16 Q1010=
2010092901 - SBKP 290100Z 01005KT CAVOK 18/17 Q1011=
2010092902 - SBKP 290200Z 36004KT 9000 FEW030 17/16 Q1011=
2010092903 - SBKP 290300Z 36003KT 9000 NSC 18/17 Q1011=
2010092904 - SBKP 290400Z 02002KT 9000 NSC 18/17 Q1011=
2010092905 - SBKP 290500Z 08003KT 9000 NSC 17/16 Q1010=
2010092906 - SBKP 290600Z 11005KT 9000 NSC 17/16 Q1010=
2010092907 - SBKP 290700Z 10004KT 5000 BR NSC 16/16 Q1010=
2010092907 - SBKP 290740Z 13003KT 4000 BR FEW048 OVC090 17/16 Q1011=
2010092908 - SBKP 290800Z 15004KT 4500 BR FEW008 SCT040 OVC090 17/17 Q1011=
2010092909 - SBKP 290900Z 08003KT 4000 1900SE R15/P2000 R33/P2000 -RA BR FEW008 SCT040 OVC070 17/17 Q1012=
2010092910 - SBKP 291000Z 05003KT 4000 BR FEW040 BKN070 OVC100 18/17 Q1012=
2010092911 - SBKP 291100Z 07003KT 4500 BR FEW040 BKN070 BKN100 20/17 Q1013=
2010092912 - SBKP 291200Z 05002KT 4000 -RA BR FEW040 SCT058 BKN070 20/17 Q1013=
2010092913 - SBKP 291300Z 09002KT 4500 BR FEW040 BKN054 OVC100 21/17 Q1013=
2010092914 - SBKP 291400Z 01006KT 5000 HZ FEW040 BKN060 BKN100 22/18 Q1013=
2010092915 - SBKP 291500Z 36007KT 6000 FEW040 BKN060 BKN100 23/17 Q1012=
2010092916 - SBKP 291600Z 35006KT 7000 NSC 22/16 Q1012=
2010092917 - SBKP 291700Z 02005KT 9999 BKN048 OVC090 22/16 Q1011=
2010092918 - SBKP 291800Z 04002KT 9999 SCT048 BKN090 24/16 Q1011=
2010092919 - SBKP 291900Z 22001KT 9999 FEW045 BKN055 BKN090 24/16 Q1010=
2010092920 - SBKP 292000Z 02003KT 9999 SCT035 BKN060 BKN090 23/17 Q1011=
2010092921 - SBKP 292100Z 35003KT 9999 FEW020 BKN030 BKN090 22/17 Q1011=
2010092922 - SBKP 292200Z 01007KT 8000 -RA FEW013 OVC023 21/18 Q1012=
2010092923 - SBKP 292300Z 32002KT 7000 -RA OVC015 20/19 Q1012=
2010093000 - SBKP 300000Z 06003KT 7000 BKN018 20/19 Q1012=
2010093001 - SBKP 300100Z 10003KT 7000 FEW010 SCT016 BKN023 20/19 Q1012=
2010093002 - SBKP 300200Z 02003KT 7000 FEW010 SCT016 BKN023 20/19 Q1012=
2010093003 - SBKP 300300Z 34004KT 6000 2500SE BKN018 BKN100 20/19 Q1012=
2010093004 - SBKP 300400Z 35004KT 6000 2500E SCT030 BKN090 20/19 Q1013=
2010093005 - SBKP 300500Z 02005KT 5000 2400E BR NSC 19/19 Q1012=
2010093006 - SBKP 300600Z 01004KT 5000 2400E BR BKN040 BKN100 19/19 Q1012=
2010093007 - SBKP 300700Z 36005KT 5000 2400E BR BKN040 BKN100 19/19 Q1012=
2010093008 - SBKP 300800Z 01005KT 4000 BR FEW010 BKN050 BKN100 19/19 Q1012=
2010093008 - SBKP 300840Z 35005KT 3000 BR FEW015 BKN050 BKN100 19/19 Q1013=
2010093009 - SBKP 300900Z 36005KT 1500 R15///// R33///// BR BKN020 BKN100 19/19 Q1013=
2010093010 - SBKP 301000Z 02004KT 2100 BR FEW020 BKN070 20/19 Q1014=
2010093011 - SBKP 301100Z 34004KT 2500 BR SCT030 OVC070 20/19 Q1015=
2010093012 - SBKP 301200Z 36003KT 2500 BR SCT012 BKN028 OVC070 22/19 Q1015=
2010093013 - SBKP 301300Z 34007KT 2800 BR SCT012 BKN025 OVC070 21/18 Q1015=
2010093014 - SBKP 301400Z 32010KT 2800 -RA BR SCT012 BKN025 OVC070 21/18 Q1016=
2010093014 - SBKP 301440Z 31007KT 3500 BR SCT012 BKN020 OVC070 21/19 Q1016=
2010093015 - SBKP 301500Z 30007KT 3500 BR SCT012 BKN020 OVC070 21/19 Q1016=
2010093016 - SBKP 301600Z 34005KT 5000 BR SCT015 BKN025 OVC080 22/19 Q1014=
2010093017 - SBKP 301700Z 03006KT 5000 BR SCT013 BKN030 OVC080 22/19 Q1013=
2010093018 - SBKP 301800Z 02008KT 6000 FEW015 BKN030 OVC080 22/18 Q1013=
2010093019 - SBKP 301900Z 34006KT 7000 FEW020 SCT090 23/18 Q1013=
2010093020 - SBKP 302000Z 31008KT 9999 FEW023 SCT090 23/17 Q1013=
2010093021 - SBKP 302100Z 36003KT CAVOK 21/17 Q1013=
2010093022 - SBKP 302200Z 36003KT CAVOK 20/17 Q1014 =
2010093023 - SBKP 302300Z 06004KT CAVOK 19/17 Q1014=
2010100100 - SBKP 010000Z 10005KT CAVOK 18/17 Q1014=
2010100101 - SBKP 010100Z 10006KT CAVOK 18/17 Q1014=
2010100102 - SBKP 010200Z 08004KT CAVOK 18/17 Q1014=
2010100103 - SBKP 010300Z 01003KT CAVOK 18/17 Q1015=
2010100104 - SBKP 010400Z 10004KT CAVOK 17/16 Q1014=
2010100105 - SBKP 010500Z 12008KT CAVOK 17/16 Q1014=
2010100106 - SBKP 010600Z 14009KT 9999 FEW040 17/17 Q1014=
2010100107 - SBKP 010700Z 12009KT 7000 3000SE SCT040 17/16 Q1013=
2010100108 - SBKP 010800Z 12008KT 7000 3000SE NSC 17/16 Q1014=
2010100109 - SBKP 010900Z 11005KT 3000 BR NSC 17/17 Q1014=
2010100110 - SBKP 011000Z 11008KT 2500 BR NSC 18/17 Q1015=
2010100111 - SBKP 011100Z 12007KT 2500 BR NSC 19/17 Q1015=
2010100112 - SBKP 011200Z 11009KT 3000 BR NSC 21/18 Q1016=
2010100113 - SBKP 011300Z 09005KT 5000 HZ FEW030 22/18 Q1015=
2010100114 - SBKP 011400Z 06003KT 5000 HZ SCT030 SCT090 24/18 Q1015=
2010100114 - SBKP 011446Z 32003KT 5000 TS HZ SCT030 FEW040CB BKN070 24/17 Q1017=
2010100115 - SBKP 011500Z 29004KT 5000 TS HZ SCT030 FEW040CB BKN070 23/17 Q1015=
2010100115 - SBKP 011539Z 18007KT 5000 BR SCT030 BKN070 22/19 Q1014 RETS=
2010100116 - SBKP 011600Z 19006KT 5000 BR FEW030 SCT070 22/20 Q1014=
2010100117 - SBKP 011700Z 19007KT 4000 -RA BR SCT035 FEW045TCU SCT070 OVC090 23/20 Q1014=
2010100118 - SBKP 011800Z 17004KT 4000 -TSRA HZ SCT035 FEW040CB SCT070 OVC090 24/18 Q1014=
2010100118 - SBKP 011825Z 27006KT 1200 R15/P2000 R33/P2000 TSRA SCT035 FEW040CB SCT070 OVC090 22/20 Q1015=
2010100118 - SBKP 011841Z 20002KT 3000 -TSRA FEW035 FEW040CB SCT070 OVC090 20/20 Q1014=
2010100119 - SBKP 011900Z 05003KT 3200 -RA BR FEW035 OVC090 20/20 Q1014 RETSRA=
2010100119 - SBKP 011943Z 27005KT 2300 -RA BR FEW035 OVC090 21/20 Q1015=
2010100120 - SBKP 012000Z 27002KT 2300 -RA BR FEW035 OVC090 20/20 Q1015=
2010100120 - SBKP 012022Z 26004KT 2300 -TSRA BR FEW035 FEW040CB OVC090 20/20 Q1015=
2010100121 - SBKP 012100Z 05003KT 4000 -RA BR FEW035 OVC090 20/19 Q1014 RETS=
2010100122 - SBKP 012200Z 12009KT 7000 FEW035 OVC090 20/20 Q1012=
2010100123 - SBKP 012300Z 07003KT 7000 FEW035 OVC090 20/19 Q1014=
2010100200 - SBKP 020000Z 01003KT 5000 BR NSC 20/19 Q1015=
2010100201 - SBKP 020100Z 01003KT 4000 BR NSC 19/19 Q1015=
2010100202 - SBKP 020200Z 36003KT 1800 R15/P2000 R33/P2000 BR NSC 18/18 Q1015=
2010100203 - SBKP 020300Z 13003KT 2300 BR NSC 18/18 Q1015=
2010100204 - SBKP 020400Z 14004KT 3000 BR FEW004 BKN090 18/18 Q1014=
2010100205 - SBKP 020500Z 11003KT 3000 BR FEW004 BKN090 18/17 Q1014=
2010100205 - SBKP 020530Z 10004KT 1200 R15/P2000 R33/1300 BR NSC 18/17 Q1014=
2010100205 - SBKP 020545Z 08003KT 0300 R15/1900 R33/0500 FG SCT002 18/18 Q1014=
2010100206 - SBKP 020600Z 35002KT 0200 R15/0700 R33/0450 FG OVC002 18/18 Q1014=
2010100207 - SBKP 020700Z 35004KT 0100 R15/M0350 R33/M0350 FG VV000 18/18 Q1015=
2010100207 - SBKP 020710Z 36006KT 1500 R15/P2000 R33/P2000 BR SCT001 SCT035 18/18 Q1015=
2010100208 - SBKP 020800Z 02008KT 4000 BR SCT035 18/18 Q1015=
2010100209 - SBKP 020900Z 01006KT 4000 BR OVC040 18/17 Q1015=
2010100210 - SBKP 021000Z 02006KT 4000 -RA BR BKN040 OVC090 19/17 Q1016=
2010100211 - SBKP 021100Z 36004KT 4000 -TSRA BKN040 FEW050CB OVC090 19/18 Q1017=
2010100211 - SBKP 021120Z 26009KT 1000 R15/1500 R33/1500 +TSRA BKN005 SCT040 FEW050CB OVC090 18/17 Q1019=
2010100212 - SBKP 021200Z 21002KT 1000 R15/1500 R33/1800 TSRA SCT005 BKN020 FEW050CB OVC090 18/17 Q1019 RERA=
2010100212 - SBKP 021226Z 06007KT 2500 -RA BR SCT005 BKN020 OVC090 18/18 Q1017 RETSRA=
2010100213 - SBKP 021300Z 05007KT 3000 -RA BR FEW005 BKN020 OVC090 18/18 Q1017 RETSRA=
2010100213 - SBKP 021315Z 04006KT 5000 -RA BR SCT020 OVC090 19/18 Q1017=
2010100214 - SBKP 021400Z 10002KT 9999 SCT030 SCT070 OVC090 ///// Q1017=
2010100215 - SBKP 021500Z 15004KT 8000 -RA BKN030 BKN070 OVC090 21/19 Q1016=
2010100216 - SBKP 021600Z 05004KT 9999 BKN030 BKN070 OVC090 22/19 Q1015=
2010100217 - SBKP 021700Z 32005KT 9999 BKN025 BKN070 OVC090 21/18 Q1015=
2010100218 - SBKP 021800Z 25004KT 9999 BKN025 BKN070 OVC090 22/18 Q1015=
2010100219 - SBKP 021900Z 20004KT 4000 -RA BKN025 SCT070 OVC090 21/19 Q1015=
2010100220 - SBKP 022000Z 22002KT 4000 -RA BR BKN025 BKN070 OVC090 20/19 Q1016=
2010100221 - SBKP 022100Z 23005KT 3000 -RA BR BKN025 BKN070 OVC090 20/20 Q1016=
2010100222 - SBKP 022200Z 18004KT 5000 -RA BR SCT025 BKN070 OVC090 20/19 Q1017=
2010100223 - SBKP 022300Z 16005KT 9999 -RA SCT025 OVC090 20/19 Q1017=
2010100200 - SBKP 020000Z 01003KT 5000 BR NSC 20/19 Q1015=
2010100201 - SBKP 020100Z 01003KT 4000 BR NSC 19/19 Q1015=
2010100202 - SBKP 020200Z 36003KT 1800 R15/P2000 R33/P2000 BR NSC 18/18 Q1015=
2010100203 - SBKP 020300Z 13003KT 2300 BR NSC 18/18 Q1015=
2010100204 - SBKP 020400Z 14004KT 3000 BR FEW004 BKN090 18/18 Q1014=
2010100205 - SBKP 020500Z 11003KT 3000 BR FEW004 BKN090 18/17 Q1014=
2010100205 - SBKP 020530Z 10004KT 1200 R15/P2000 R33/1300 BR NSC 18/17 Q1014=
2010100205 - SBKP 020545Z 08003KT 0300 R15/1900 R33/0500 FG SCT002 18/18 Q1014=
2010100206 - SBKP 020600Z 35002KT 0200 R15/0700 R33/0450 FG OVC002 18/18 Q1014=
2010100207 - SBKP 020700Z 35004KT 0100 R15/M0350 R33/M0350 FG VV000 18/18 Q1015=
2010100207 - SBKP 020710Z 36006KT 1500 R15/P2000 R33/P2000 BR SCT001 SCT035 18/18 Q1015=
2010100208 - SBKP 020800Z 02008KT 4000 BR SCT035 18/18 Q1015=
2010100209 - SBKP 020900Z 01006KT 4000 BR OVC040 18/17 Q1015=
2010100210 - SBKP 021000Z 02006KT 4000 -RA BR BKN040 OVC090 19/17 Q1016=
2010100211 - SBKP 021100Z 36004KT 4000 -TSRA BKN040 FEW050CB OVC090 19/18 Q1017=
2010100211 - SBKP 021120Z 26009KT 1000 R15/1500 R33/1500 +TSRA BKN005 SCT040 FEW050CB OVC090 18/17 Q1019=
2010100212 - SBKP 021200Z 21002KT 1000 R15/1500 R33/1800 TSRA SCT005 BKN020 FEW050CB OVC090 18/17 Q1019 RERA=
2010100212 - SBKP 021226Z 06007KT 2500 -RA BR SCT005 BKN020 OVC090 18/18 Q1017 RETSRA=
2010100213 - SBKP 021300Z 05007KT 3000 -RA BR FEW005 BKN020 OVC090 18/18 Q1017 RETSRA=
2010100213 - SBKP 021315Z 04006KT 5000 -RA BR SCT020 OVC090 19/18 Q1017=
2010100214 - SBKP 021400Z 10002KT 9999 SCT030 SCT070 OVC090 ///// Q1017=
2010100215 - SBKP 021500Z 15004KT 8000 -RA BKN030 BKN070 OVC090 21/19 Q1016=
2010100216 - SBKP 021600Z 05004KT 9999 BKN030 BKN070 OVC090 22/19 Q1015=
2010100217 - SBKP 021700Z 32005KT 9999 BKN025 BKN070 OVC090 21/18 Q1015=
2010100218 - SBKP 021800Z 25004KT 9999 BKN025 BKN070 OVC090 22/18 Q1015=
2010100219 - SBKP 021900Z 20004KT 4000 -RA BKN025 SCT070 OVC090 21/19 Q1015=
2010100220 - SBKP 022000Z 22002KT 4000 -RA BR BKN025 BKN070 OVC090 20/19 Q1016=
2010100221 - SBKP 022100Z 23005KT 3000 -RA BR BKN025 BKN070 OVC090 20/20 Q1016=
2010100222 - SBKP 022200Z 18004KT 5000 -RA BR SCT025 BKN070 OVC090 20/19 Q1017=
2010100223 - SBKP 022300Z 16005KT 9999 -RA SCT025 OVC090 20/19 Q1017=
2010100300 - SBKP 030000Z 12003KT 9999 FEW025 OVC090 19/19 Q1018=
2010100401 - SBKP 040100Z 13013KT 9999 FEW015 BKN090 15/12 Q1020=
2010100402 - SBKP 040200Z 11011KT CAVOK 15/12 Q1020=
2010100403 - SBKP 040300Z 12011KT CAVOK 15/12 Q1020=
2010100404 - SBKP 040400Z 13012KT CAVOK 15/12 Q1019=
2010100405 - SBKP 040500Z 12012KT CAVOK 15/12 Q1018=
2010100406 - SBKP 040600Z 11010KT CAVOK 15/12 Q1018=
2010100407 - SBKP 040700Z 12012KT CAVOK 15/13 Q1017=
2010100408 - SBKP 040800Z 13014KT CAVOK 14/13 Q1018=
2010100409 - SBKP 040900Z 12013KT 8000 NSC 14/13 Q1018=
2010100410 - SBKP 041000Z 12013KT 8000 NSC 15/13 Q1019=
2010100411 - SBKP 041100Z 13010KT CAVOK 17/13 Q1020=
2010100412 - SBKP 041200Z 12012KT CAVOK 19/14 Q1020=
2010100413 - SBKP 041300Z 12013KT CAVOK 21/14 Q1020=
2010100414 - SBKP 041400Z 13007KT 9999 SCT040 SCT080 22/15 Q1019=
2010100415 - SBKP 041500Z 14008KT 9999 SCT040 SCT080 23/16 Q1019=
2010100416 - SBKP 041600Z 13007KT 9999 FEW040 SCT080 24/16 Q1018=
2010100417 - SBKP 041700Z 13006KT 9999 FEW040 BKN080 25/16 Q1017=
2010100418 - SBKP 041800Z 15009KT 9999 FEW040 BKN090 24/16 Q1016=
2010100419 - SBKP 041900Z 12009KT 9999 FEW040 24/16 Q1015=
2010100420 - SBKP 042000Z 12011KT 8000 FEW040 SCT080 23/16 Q1016=
2010100421 - SBKP 042100Z 12013KT 6000 NSC 21/15 Q1016=
2010100422 - SBKP 042200Z 12012KT CAVOK 19/15 Q1016=
2010100423 - SBKP 042300Z 11015KT 9999 FEW040 18/15 Q1016=
2010100500 - SBKP 050000Z 11012KT CAVOK 18/15 Q1017=
2010100501 - SBKP 050100Z 10008KT CAVOK 17/15 Q1017=
2010100502 - SBKP 050200Z 12006KT CAVOK 17/15 Q1017=
2010100503 - SBKP 050300Z 11008KT CAVOK 17/15 Q1016=
2010100504 - SBKP 050400Z 10007KT CAVOK 17/15 Q1015=
2010100505 - SBKP 050500Z 13005KT CAVOK 17/15 Q1015=
2010100506 - SBKP 050600Z 14004KT CAVOK 16/15 Q1015=
2010100507 - SBKP 050700Z 17002KT 9999 BKN048 BKN100 17/16 Q1015=
2010100508 - SBKP 050800Z 19002KT 8000 SCT048 SCT100 16/15 Q1015=
2010100509 - SBKP 050900Z 18003KT 4000 BR SCT048 SCT100 16/16 Q1016=
2010100510 - SBKP 051000Z 07003KT 4000 BR SCT048 SCT100 18/16 Q1017=
2010100511 - SBKP 051100Z 03002KT 4000 BR SCT025 SCT100 20/17 Q1017=
2010100512 - SBKP 051200Z 02002KT 4000 HZ NSC 23/18 Q1017=
2010100513 - SBKP 051300Z 29005KT 4000 HZ NSC 25/18 Q1017=
2010100514 - SBKP 051400Z 29005KT 4000 HZ FEW045 26/18 Q1017=
2010100515 - SBKP 051500Z 30007KT 250V010 5000 HZ SCT030 28/19 Q1016=
2010100516 - SBKP 051600Z 26008KT 7000 SCT040 FEW045TCU 27/17 Q1015=
2010100517 - SBKP 051700Z 24008KT 9000 BKN040 FEW045TCU 27/17 Q1014=
2010100518 - SBKP 051800Z 21009KT 9000 SCT040 29/17 Q1013=
2010100519 - SBKP 051900Z 21009KT 9999 FEW040 SCT080 28/16 Q1013=
2010100520 - SBKP 052000Z 17011KT CAVOK 25/18 Q1013=
2010100521 - SBKP 052100Z 12014KT CAVOK 21/16 Q1014=
2010100522 - SBKP 052200Z 12012KT CAVOK 19/15 Q1015=
2010100523 - SBKP 052300Z 12018KT CAVOK 18/15 Q1015=
2010100600 - SBKP 060000Z 12016KT CAVOK 18/15 Q1016 WS R15=
2010100601 - SBKP 060100Z 11016KT CAVOK 17/15 Q1017=
2010100602 - SBKP 060200Z 11018KT CAVOK 17/14 Q1017=
2010100603 - SBKP 060300Z 11017G28KT CAVOK 16/14 Q1016=
2010100604 - SBKP 060400Z 11014KT CAVOK 16/14 Q1016=
2010100605 - SBKP 060500Z 12013KT CAVOK 16/13 Q1016=
2010100606 - SBKP 060600Z 12013KT CAVOK 15/13 Q1015=
2010100607 - SBKP 060700Z 12014KT CAVOK 15/13 Q1015=
2010100608 - SBKP 060800Z 12012KT CAVOK 15/13 Q1015=
2010100609 - SBKP 060900Z 10010KT 8000 FEW040 15/13 Q1016=
2010100610 - SBKP 061000Z 11013KT 6000 NSC 16/14 Q1016=
2010100611 - SBKP 061100Z 10009KT 7000 NSC 19/14 Q1017=
2010100612 - SBKP 061200Z 11008KT 8000 NSC 22/15 Q1017=
2010100613 - SBKP 061300Z 12005KT 9000 NSC 25/15 Q1017=
2010100614 - SBKP 061400Z 32003KT 9000 NSC 27/16 Q1016=
2010100615 - SBKP 061500Z 35003KT 9999 FEW030 29/16 Q1015=
2010100616 - SBKP 061600Z 33003KT 9999 FEW030 30/16 Q1014=
2010100617 - SBKP 061700Z 32008KT 9999 SCT030 31/17 Q1013=
2010100618 - SBKP 061800Z 26008KT 9999 SCT035 32/15 Q1013=
2010100619 - SBKP 061900Z 26010KT 9999 SCT035 31/14 Q1012=
2010100620 - SBKP 062000Z 25008KT 9999 FEW040 30/14 Q1012=
2010100621 - SBKP 062100Z 18006KT CAVOK 28/15 Q1012=
2010100622 - SBKP 062200Z 16006KT CAVOK 27/15 Q1012=
2010100623 - SBKP 062300Z 12010KT CAVOK 22/17 Q1013=
2010100700 - SBKP 070000Z 12014KT CAVOK 21/17 Q1014=
2010100701 - SBKP 070100Z 12011KT CAVOK 20/17 Q1015=
2010100702 - SBKP 070200Z 12012KT CAVOK 19/16 Q1014=
2010100703 - SBKP 070300Z 11011KT CAVOK 19/16 Q1014=
2010100704 - SBKP 070400Z 09007KT CAVOK 18/16 Q1013=
2010100705 - SBKP 070500Z 09009KT CAVOK 18/17 Q1013=
2010100706 - SBKP 070600Z 05002KT CAVOK 18/17 Q1014=
2010100707 - SBKP 070700Z 00000KT 9000 NSC 18/17 Q1014=
2010100708 - SBKP 070800Z 14003KT 9000 NSC 18/17 Q1013=
2010100709 - SBKP 070900Z 10005KT 5000 BR NSC 18/17 Q1013=
2010100710 - SBKP 071000Z 04008KT 5000 BR NSC 20/17 Q1014=
2010100711 - SBKP 071100Z 05004KT 5000 HZ NSC 22/17 Q1014=
2010100711 - SBKP 071133Z 01014G24KT 5000 HZ NSC 25/17 Q1014=
2010100712 - SBKP 071200Z 35020G32KT 5000 HZ NSC 24/16 Q1014=
2010100713 - SBKP 071300Z 36023G34KT 6000 FEW040 SCT100 24/17 Q1014 WS R33=
2010100714 - SBKP 071400Z 01019G29KT 7000 -RA FEW040 BKN100 23/16 Q1014=
2010100715 - SBKP 071500Z 01016G26KT 9000 FEW030 BKN090 23/17 Q1013=
2010100715 - SBKP 071541Z 29007KT 4000 -TSRA FEW045CB OVC090 21/18 Q1011=
2010100716 - SBKP 071600Z 28008KT 3500 -TSRA BR FEW045CB OVC090 19/18 Q1014 RETS=
2010100716 - SBKP 071617Z 06007KT 7000 -RA FEW030 OVC090 20/19 Q1012 RETS=
2010100717 - SBKP 071700Z 04008KT 7000 FEW040 SCT050 BKN090 21/19 Q1011 RETS=
2010100718 - SBKP 071800Z 01012KT 7000 FEW040 SCT050 OVC090 23/18 Q1011=
2010100719 - SBKP 071900Z 34010KT 7000 -RA SCT045 FEW050TCU BKN100 22/19 Q1011=
2010100719 - SBKP 071918Z 35009KT 2000 RA BR SCT045 FEW050TCU BKN100 22/19 Q1011=
2010100719 - SBKP 071935Z 35011KT 5000 -RA BR SCT045 FEW050TCU BKN100 22/19 Q1011 RERA=
2010100720 - SBKP 072000Z 36017G28KT 9000 SCT045 FEW050TCU BKN100 22/18 Q1012 RERA WS R33=
2010100720 - SBKP 072030Z 31014G29KT 1500 R15/P2000 R33/P2000 TSRA BR SCT045 SCT050CB OVC100 20/18 Q1014=
2010100720 - SBKP 072043Z 28015KT 3000 +TSRA BR SCT045 SCT050CB OVC100 18/18 Q1014=
2010100721 - SBKP 072100Z 26011KT 5000 -TSRA SCT040 FEW050CB OVC080 18/18 Q1013 RERA=
2010100721 - SBKP 072120Z 25008KT 5000 TSRA BR SCT040 FEW050CB OVC080 18/17 Q1013=
2010100721 - SBKP 072140Z 29004KT 5000 -RA BR SCT040 OVC070 18/17 Q1014 RETSRA=
2010100722 - SBKP 072200Z 32003KT 8000 -RA BKN006 SCT040 OVC070 18/17 Q1014 RETSRA=
2010100722 - SBKP 072220Z 36003KT 8000 SCT006 OVC070 18/18 Q1013=
2010100723 - SBKP 072300Z 01007KT 8000 SCT008 OVC070 18/18 Q1014=
2010100800 - SBKP 080000Z 01011KT 6000 -RA SCT006 OVC070 18/18 Q1014=
2010100801 - SBKP 080100Z 03014KT 9999 FEW006 OVC100 18/17 Q1012=
2010100802 - SBKP 080200Z 36009KT CAVOK 18/18 Q1014=
2010100803 - SBKP 080300Z 35010KT CAVOK 18/17 Q1014=
2010100804 - SBKP 080400Z 34007KT 9999 FEW040 BKN070 18/17 Q1013=
2010100805 - SBKP 080500Z 31007KT 9999 FEW008 BKN012 BKN070 18/17 Q1013=
2010100805 - SBKP 080540Z 30009KT 9999 FEW012 SCT040 BKN070 18/16 Q1013=
2010100806 - SBKP 080600Z 29010KT 9999 FEW012 BKN040 BKN070 18/16 Q1013=
2010100807 - SBKP 080700Z 30006KT 9999 BKN045 BKN090 17/16 Q1013=
2010100808 - SBKP 080800Z 32008KT 9999 FEW010 BKN045 BKN100 17/16 Q1013=
2010100809 - SBKP 080900Z 30008KT 9999 FEW010 SCT035 BKN100 16/16 Q1013=
2010100810 - SBKP 081000Z 30008KT 9999 SCT010 BKN030 BKN100 17/16 Q1014=
2010100811 - SBKP 081100Z 30010KT 9999 FEW010 BKN030 17/16 Q1015=
2010100812 - SBKP 081200Z 30014KT 9999 FEW013 BKN035 19/16 Q1016=
2010100813 - SBKP 081300Z 30012KT 9999 BKN035 22/15 Q1016=
2010100814 - SBKP 081400Z 28010KT 9999 BKN030 21/14 Q1016=
2010100815 - SBKP 081500Z 28020KT 9999 BKN035 23/13 Q1016=
2010100816 - SBKP 081600Z 29014KT 9999 BKN045 23/12 Q1016=
2010100817 - SBKP 081700Z 30016G26KT 9999 FEW045 24/09 Q1015=
2010100818 - SBKP 081800Z 29018KT 9999 FEW045 25/07 Q1014=
2010100819 - SBKP 081900Z 30014G24KT 9999 FEW045 25/09 Q1014=
2010100820 - SBKP 082000Z 29012KT CAVOK 24/09 Q1015=
2010100821 - SBKP 082100Z 29007KT CAVOK 22/09 Q1016=
2010100822 - SBKP 082200Z 29004KT CAVOK 19/09 Q1017=
2010100823 - SBKP 082300Z 27002KT CAVOK 20/08 Q1017=
2010100900 - SBKP 090000Z 19005KT CAVOK 18/09 Q1018=
2010100901 - SBKP 090100Z 17008KT CAVOK 17/10 Q1019=
2010100902 - SBKP 090200Z 11006KT CAVOK 14/10 Q1019=
2010100903 - SBKP 090300Z 12009KT CAVOK 15/11 Q1019=
2010100904 - SBKP 090400Z 12009KT CAVOK 15/11 Q1019=
2010100905 - SBKP 090500Z 17005KT CAVOK 14/10 Q1020=
2010100906 - SBKP 090600Z 18008KT CAVOK 14/11 Q1020=
2010100907 - SBKP 090700Z 15005KT CAVOK 13/11 Q1019=
2010100908 - SBKP 090800Z 16005KT CAVOK 13/11 Q1020=
2010100909 - SBKP 090900Z 12006KT 9999 FEW012 13/11 Q1020=
2010100910 - SBKP 091000Z 18004KT 9999 FEW013 15/12 Q1021=
2010100911 - SBKP 091100Z 17007KT 9999 SCT023 18/12 Q1022=
2010100912 - SBKP 091200Z 14011KT 9999 SCT030 20/12 Q1022=
2010100913 - SBKP 091300Z 13013KT 9999 BKN035 19/11 Q1023=
2010100914 - SBKP 091400Z 14011KT 9999 BKN035 19/12 Q1023=
2010100915 - SBKP 091500Z 13015KT 9999 FEW020 BKN040 21/12 Q1022=
2010100916 - SBKP 091600Z 13016KT 9999 BKN038 21/12 Q1021=
2010100917 - SBKP 091700Z 12016KT 9999 SCT045 22/11 Q1021=
2010100918 - SBKP 091800Z 13020KT 9999 SCT045 SCT070 20/12 Q1021=
2010100919 - SBKP 091900Z 14016KT 9999 SCT045 SCT070 20/11 Q1021=
2010100920 - SBKP 092000Z 13017KT 9999 SCT030 SCT060 18/12 Q1021=
2010100921 - SBKP 092100Z 15019KT 9999 FEW030 BKN060 16/11 Q1022=
2010100922 - SBKP 092200Z 14013KT 9999 FEW030 BKN060 15/11 Q1022=
2010100923 - SBKP 092300Z 14014KT 9999 SCT025 BKN060 15/11 Q1022=
2010101000 - SBKP 100000Z 14013KT 9999 FEW025 SCT060 14/10 Q1023=
2010101001 - SBKP 100100Z 14014KT 9999 SCT025 14/10 Q1023=
2010101002 - SBKP 100200Z 14013KT 9999 SCT020 14/11 Q1023=
2010101003 - SBKP 100300Z 15013KT 9999 SCT020 14/11 Q1023=
2010101004 - SBKP 100400Z 15009KT CAVOK 13/11 Q1022=
2010101005 - SBKP 100500Z 15011KT CAVOK 13/10 Q1022=
2010101006 - SBKP 100600Z 14012KT CAVOK 13/09 Q1021=
2010101007 - SBKP 100700Z 14009KT CAVOK 13/09 Q1021=
2010101008 - SBKP 100800Z 14010KT CAVOK 12/10 Q1021=
2010101009 - SBKP 100900Z 13013KT CAVOK 13/09 Q1022=
2010101010 - SBKP 101000Z 13013KT CAVOK 14/10 Q1023=
2010101011 - SBKP 101100Z 13017KT 9999 FEW020 16/09 Q1023=
2010101012 - SBKP 101200Z 12016KT 9999 FEW020 18/09 Q1024=
2010101013 - SBKP 101300Z 13018KT 9999 FEW025 20/10 Q1024=
2010101014 - SBKP 101400Z 13014KT 9999 FEW030 SCT058 21/10 Q1023=
2010101015 - SBKP 101500Z 13013KT 9999 FEW035 22/10 Q1022=
2010101016 - SBKP 101600Z 14013KT 9999 FEW040 22/11 Q1021=
2010101017 - SBKP 101700Z 12009KT 9999 SCT045 23/11 Q1020=
2010101018 - SBKP 101800Z 13010KT 9999 FEW045 23/11 Q1019=
2010101019 - SBKP 101900Z 15012KT 9999 FEW045 SCT060 22/11 Q1020=
2010101020 - SBKP 102000Z 14018KT CAVOK 19/11 Q1020=
2010101021 - SBKP 102100Z 12013KT CAVOK 16/10 Q1021=
2010101022 - SBKP 102200Z 13017KT CAVOK 15/10 Q1021=
2010101023 - SBKP 102300Z 12018KT CAVOK 14/09 Q1021=
2010101100 - SBKP 110000Z 14016KT CAVOK 14/10 Q1022=
2010101101 - SBKP 110100Z 14017KT 9999 SCT020 SCT050 14/10 Q1022=
2010101102 - SBKP 110200Z 14017KT 9999 FEW020 SCT050 14/09 Q1022=
2010101103 - SBKP 110300Z 14014KT CAVOK 13/09 Q1021=
2010101104 - SBKP 110400Z 13011KT 9999 FEW045 13/09 Q1021=
2010101105 - SBKP 110500Z 13013KT 9999 FEW020 13/09 Q1020=
2010101106 - SBKP 110600Z 14010KT CAVOK 12/09 Q1019=
2010101107 - SBKP 110700Z 16008KT CAVOK 12/09 Q1019=
2010101108 - SBKP 110800Z 15009KT CAVOK 12/09 Q1019=
2010101109 - SBKP 110900Z 15010KT 9999 FEW025 SCT045 BKN090 13/10 Q1020=
2010101110 - SBKP 111000Z 13015KT 9999 FEW025 BKN040 BKN090 14/10 Q1021=
2010101111 - SBKP 111100Z 13016KT 9999 FEW015 BKN040 BKN090 15/10 Q1022=
2010101112 - SBKP 111200Z 14018KT 9999 FEW015 BKN038 BKN090 17/10 Q1022=
2010101113 - SBKP 111300Z 14014KT 9999 BKN038 BKN090 18/10 Q1022=
2010101114 - SBKP 111400Z 14015KT 9999 BKN035 BKN090 18/10 Q1022=
2010101115 - SBKP 111500Z 13013KT 9999 SCT035 BKN090 20/11 Q1021=
2010101116 - SBKP 111600Z 12012KT 9999 BKN035 SCT090 21/12 Q1020=
2010101117 - SBKP 111700Z 12012KT 9999 SCT035 22/12 Q1020=
2010101118 - SBKP 111800Z 13013KT 9999 SCT035 SCT080 21/11 Q1019=
2010101119 - SBKP 111900Z 13018KT 9999 SCT035 SCT080 20/11 Q1019=
2010101120 - SBKP 112000Z 12015KT 9999 FEW035 18/11 Q1020=
2010101121 - SBKP 112100Z 12019KT 9999 SCT035 15/10 Q1020=
2010101122 - SBKP 112200Z 13018KT 9999 FEW035 14/10 Q1021=
2010101123 - SBKP 112300Z 14017KT 9999 FEW035 14/09 Q1021=
2010101200 - SBKP 120000Z 15012KT 9999 FEW035 13/08 Q1022=
2010101201 - SBKP 120100Z 15011KT 9999 FEW035 13/08 Q1022=
2010101202 - SBKP 120200Z 14011KT 9999 FEW035 12/09 Q1022=
2010101203 - SBKP 120300Z 14009KT CAVOK 12/09 Q1022=
2010101204 - SBKP 120400Z 15009KT CAVOK 12/08 Q1022=
2010101205 - SBKP 120500Z 14007KT CAVOK 10/08 Q1021=
2010101206 - SBKP 120600Z 15010KT CAVOK 11/08 Q1020=
2010101207 - SBKP 120700Z 15006KT CAVOK 10/08 Q1021=
2010101208 - SBKP 120800Z 14009KT CAVOK 10/07 Q1021=
2010101209 - SBKP 120900Z 13010KT CAVOK 10/08 Q1021=
2010101210 - SBKP 121000Z 14012KT 9999 FEW045 SCT080 12/08 Q1022=
2010101211 - SBKP 121100Z 14018KT 9999 FEW020 15/07 Q1022=
2010101212 - SBKP 121200Z 14021KT 9999 FEW025 17/07 Q1022=
2010101212 - SBKP 121224Z 14021G31KT 9999 FEW025 18/07 Q1023=
2010101213 - SBKP 121300Z 13019KT 9999 FEW025 18/07 Q1023=
2010101214 - SBKP 121400Z 13016KT 9999 FEW030 20/08 Q1022=
2010101215 - SBKP 121500Z 13015KT 9999 FEW030 22/06 Q1021=
2010101216 - SBKP 121600Z 13014KT CAVOK 22/05 Q1020=
2010101217 - SBKP 121700Z 13013KT CAVOK 23/06 Q1020=
2010101218 - SBKP 121800Z 14017KT CAVOK 23/07 Q1019=
2010101219 - SBKP 121900Z 14020KT CAVOK 21/06 Q1019=
2010101220 - SBKP 122000Z 14017KT CAVOK 20/06 Q1019=
2010101221 - SBKP 122100Z 15020KT CAVOK 17/07 Q1019=
2010101222 - SBKP 122200Z 14020KT CAVOK 15/07 Q1020=
2010101223 - SBKP 122300Z 13019KT CAVOK 14/07 Q1020=
2010101300 - SBKP 130000Z 13016KT CAVOK 13/07 Q1020=
2010101301 - SBKP 130100Z 12015KT CAVOK 12/07 Q1020=
2010101302 - SBKP 130200Z 12019KT CAVOK 12/07 Q1020=
2010101303 - SBKP 130300Z 12015KT CAVOK 12/07 Q1020=
2010101304 - SBKP 130400Z 12018KT CAVOK 11/07 Q1019=
2010101305 - SBKP 130500Z 11017KT CAVOK 11/07 Q1018=
2010101306 - SBKP 130600Z 11016KT CAVOK 11/07 Q1018=
2010101307 - SBKP 130700Z 12016KT CAVOK 11/07 Q1018=
2010101308 - SBKP 130800Z 11016KT CAVOK 11/07 Q1018=
2010101309 - SBKP 130900Z 11014KT CAVOK 10/08 Q1019=
2010101310 - SBKP 131000Z 11016KT CAVOK 12/08 Q1020=
2010101311 - SBKP 131100Z 11016KT CAVOK 16/09 Q1020=
2010101312 - SBKP 131200Z 11013KT CAVOK 19/10 Q1021=
2010101313 - SBKP 131300Z 12011KT CAVOK 21/10 Q1020=
2010101314 - SBKP 131400Z 11007KT CAVOK 23/10 Q1020=
2010101315 - SBKP 131500Z 09007KT CAVOK 24/10 Q1019=
2010101316 - SBKP 131600Z 07006KT CAVOK 25/11 Q1018=
2010101317 - SBKP 131700Z 14006KT 9999 FEW030 26/12 Q1017=
2010101318 - SBKP 131800Z 12008KT 9999 FEW030 27/12 Q1016=
2010101319 - SBKP 131900Z 13010KT CAVOK 26/12 Q1015=
2010101320 - SBKP 132000Z 14011KT CAVOK 25/12 Q1015=
2010101321 - SBKP 132100Z 13015KT CAVOK 22/12 Q1016=
2010101322 - SBKP 132200Z 12019KT CAVOK 18/12 Q1016=
2010101323 - SBKP 132300Z 12016G27KT CAVOK 18/12 Q1016=
2010101400 - SBKP 140000Z 12020KT CAVOK 16/12 Q1017=
2010101401 - SBKP 140100Z 12019KT CAVOK 15/12 Q1017=
2010101402 - SBKP 140200Z 11020KT CAVOK 15/11 Q1018 WS R15=
2010101403 - SBKP 140300Z 11018KT CAVOK 14/11 Q1017=
2010101404 - SBKP 140400Z 12018KT CAVOK 14/11 Q1017=
2010101405 - SBKP 140500Z 12015KT CAVOK 14/11 Q1016=
2010101406 - SBKP 140600Z 11015KT CAVOK 13/11 Q1016=
2010101407 - SBKP 140700Z 11014KT 9000 NSC 13/12 Q1017=
2010101408 - SBKP 140800Z 11012KT 9000 NSC 14/12 Q1017=
2010101409 - SBKP 140900Z 11012KT 5000 BR NSC 14/12 Q1017=
2010101410 - SBKP 141000Z 12011KT 4000 BR NSC 16/13 Q1018=
2010101411 - SBKP 141100Z 11008KT 5000 HZ NSC 18/13 Q1018=
2010101412 - SBKP 141200Z 04004KT 7000 NSC 22/14 Q1019=
2010101413 - SBKP 141300Z 02006KT CAVOK 24/14 Q1018=
2010101414 - SBKP 141400Z 01007KT CAVOK 26/15 Q1018=
2010101415 - SBKP 141500Z 02004KT CAVOK 28/16 Q1017=
2010101416 - SBKP 141600Z 28007KT CAVOK 30/17 Q1016=
2010101417 - SBKP 141700Z 22003KT CAVOK 31/16 Q1015=
2010101418 - SBKP 141800Z 26008KT 9999 FEW040 SCT100 31/15 Q1015=
2010101419 - SBKP 141900Z 19006KT 9999 FEW040 SCT100 30/16 Q1015=
2010101420 - SBKP 142000Z 18010KT 9999 FEW040 SCT100 29/17 Q1015=
2010101421 - SBKP 142100Z 17009KT CAVOK 27/17 Q1015=
2010101422 - SBKP 142200Z 13009KT CAVOK 25/17 Q1015=
2010101423 - SBKP 142300Z 13013KT CAVOK 23/16 Q1016=
2010101500 - SBKP 150000Z 14010KT CAVOK 21/16 Q1018=
2010101501 - SBKP 150100Z 17010KT CAVOK 20/15 Q1019=
2010101502 - SBKP 150200Z 13014KT 9999 VCTS FEW030CB SCT090 19/14 Q1019=
2010101503 - SBKP 150300Z 11018KT 9999 -TSRA FEW010 SCT020 FEW040CB OVC070 18/14 Q1018=
2010101503 - SBKP 150327Z 13015KT 9999 VCTS FEW020 FEW040CB BKN070 17/15 Q1018 RETS=
2010101504 - SBKP 150400Z 16016KT 9999 FEW040 BKN060 18/15 Q1018 RETS=
2010101505 - SBKP 150500Z 13012KT 9999 FEW040 17/15 Q1017=
2010101506 - SBKP 150600Z 10010KT 9999 FEW040 17/15 Q1016=
2010101507 - SBKP 150700Z 09007KT 8000 FEW040 17/15 Q1016=
2010101508 - SBKP 150800Z 10006KT 8000 NSC 18/15 Q1016=
2010101509 - SBKP 150900Z 35006KT 6000 SCT040 19/16 Q1018=
2010101510 - SBKP 151000Z 36004KT 5000 BR FEW040 19/16 Q1019=
2010101511 - SBKP 151100Z 36004KT 5000 HZ FEW040 BKN100 20/16 Q1020=
2010101512 - SBKP 151200Z 04007KT 6000 FEW040 BKN100 21/17 Q1019=
2010101513 - SBKP 151300Z 01009KT 7000 FEW040 BKN100 22/18 Q1019=
2010101514 - SBKP 151400Z 35010KT 9999 FEW020 BKN090 24/18 Q1018=
2010101515 - SBKP 151500Z 36010KT 9999 FEW025 BKN090 25/18 Q1018=
2010101516 - SBKP 151600Z 36008KT 9999 FEW025 BKN090 27/17 Q1017=
2010101517 - SBKP 151700Z 34005KT 9999 FEW030 BKN090 27/17 Q1016=
2010101518 - SBKP 151800Z 03008KT 9999 FEW030 BKN090 27/18 Q1015=
2010101519 - SBKP 151900Z 02005KT 9999 FEW030 BKN090 26/17 Q1015=
2010101520 - SBKP 152000Z 11003KT 9999 FEW030 BKN090 25/17 Q1015=
2010101521 - SBKP 152100Z 14008KT CAVOK 25/17 Q1015=
2010101522 - SBKP 152200Z 16008KT CAVOK 24/17 Q1016=
2010101523 - SBKP 152300Z 11008KT 9999 FEW045 BKN090 23/18 Q1016=
2010101600 - SBKP 160000Z 11013KT 9999 SCT045 BKN090 22/18 Q1017=
2010101601 - SBKP 160100Z 12016KT 9999 VCTS SCT045 FEW050CB BKN090 21/17 Q1018=
2010101601 - SBKP 160110Z 12015KT 9999 TS SCT045 FEW050CB BKN090 21/17 Q1018=
2010101601 - SBKP 160128Z 20011KT 3500 +TSRA BR SCT035 FEW050CB BKN090 20/18 Q1019=
2010101602 - SBKP 160200Z 20009KT 4000 -TSRA BR SCT020 FEW050CB BKN090 19/18 Q1019 RERA=
2010101602 - SBKP 160217Z 20008KT 4000 TSRA BR SCT020 SCT040CB OVC090 19/18 Q1019=
2010101603 - SBKP 160300Z 18010KT 4000 -TSRA BR FEW002 SCT040CB OVC090 19/18 Q1019 RERA=
2010101604 - SBKP 160400Z 10005KT 5000 -TSRA BR FEW010 SCT040CB OVC090 18/18 Q1018=
2010101604 - SBKP 160436Z 04020G32KT 9999 -RA FEW010 FEW040TCU OVC090 19/18 Q1013 RETS=
2010101605 - SBKP 160500Z 17016KT 9999 FEW010 FEW040TCU OVC090 20/17 Q1016 RETS=
2010101606 - SBKP 160600Z 16005KT 150V250 9999 SCT020 BKN090 19/18 Q1016=
2010101607 - SBKP 160700Z 22006KT 9000 SCT005 19/18 Q1016=
2010101608 - SBKP 160800Z 00000KT 8000 SCT005 18/17 Q1016=
2010101608 - SBKP 160840Z 00000KT 5000 2100NW PRFG BR BKN007 18/18 Q1017=
2010101609 - SBKP 160900Z 00000KT 5000 2100NW PRFG BR BKN007 18/18 Q1017=
2010101609 - SBKP 160915Z 00000KT 4000 1900NW R15/P2000 R33/P2000 PRFG BR SCT007 18/18 Q1017=
2010101610 - SBKP 161000Z 08004KT 2500 BR SCT007 19/18 Q1017=
2010101611 - SBKP 161100Z 08005KT 2800 BR SCT007 21/20 Q1018=
2010101611 - SBKP 161130Z 05005KT 4000 BR SCT007 SCT100 21/19 Q1018=
2010101612 - SBKP 161200Z 04007KT 5000 BR SCT007 SCT100 22/19 Q1018=
2010101613 - SBKP 161300Z 04004KT 7000 FEW007 SCT100 25/19 Q1018=
2010101614 - SBKP 161400Z 25002KT CAVOK 26/19 Q1017=
2010101615 - SBKP 161500Z 29002KT 9999 FEW020 28/18 Q1017=
2010101616 - SBKP 161600Z 31005KT 9999 FEW020 29/17 Q1015=
2010101617 - SBKP 161700Z 29007KT 9999 FEW020 29/17 Q1015=
2010101618 - SBKP 161800Z 26005KT 9999 FEW025 29/15 Q1014=
2010101619 - SBKP 161900Z 23008KT 9999 FEW030 SCT100 28/16 Q1014=
2010101620 - SBKP 162000Z 23009KT CAVOK 28/17 Q1014=
2010101621 - SBKP 162100Z 24006KT CAVOK 26/17 Q1015=
2010101622 - SBKP 162200Z 20005KT CAVOK 24/18 Q1015=
2010101623 - SBKP 162300Z 22006KT CAVOK 24/18 Q1016=
2010101700 - SBKP 170000Z 21006KT CAVOK 23/18 Q1016=
2010101701 - SBKP 170100Z 14005KT CAVOK 21/18 Q1016=
2010101702 - SBKP 170200Z 11006KT CAVOK 21/18 Q1016=
2010101703 - SBKP 170300Z 14007KT CAVOK 21/18 Q1016=
2010101704 - SBKP 170400Z 11007KT CAVOK 21/18 Q1016=
2010101705 - SBKP 170500Z 11011KT CAVOK 20/18 Q1015=
2010101706 - SBKP 170600Z 12010KT 9000 NSC 20/18 Q1015=
2010101707 - SBKP 170700Z 15005KT 9000 NSC 20/17 Q1015=
2010101708 - SBKP 170800Z 19003KT 9000 NSC 20/18 Q1015=
2010101709 - SBKP 170900Z 15004KT 4500 BR NSC 19/17 Q1016=
2010101710 - SBKP 171000Z 13006KT 4500 BR NSC 21/18 Q1016=
2010101711 - SBKP 171100Z 12011KT 7000 NSC 23/17 Q1016=
2010101712 - SBKP 171200Z 12010KT 9000 NSC 25/17 Q1016=
2010101713 - SBKP 171300Z 06005KT 9000 NSC 27/18 Q1015=
2010101714 - SBKP 171400Z 02003KT 9000 FEW020 29/18 Q1015=
2010101715 - SBKP 171500Z 36005KT 9999 SCT020 30/18 Q1014=
2010101716 - SBKP 171600Z 26003KT 9999 SCT020 30/18 Q1013=
2010101717 - SBKP 171700Z 26009KT 9999 SCT025 30/18 Q1012=
2010101718 - SBKP 171800Z 23010KT 9999 FEW025 30/16 Q1011=
2010101719 - SBKP 171900Z 24010KT 9999 FEW025 30/17 Q1011=
2010101720 - SBKP 172000Z 18017KT 9999 FEW025 FEW050TCU 27/19 Q1011=
2010101721 - SBKP 172100Z 12014KT 9999 FEW040 SCT100 22/18 Q1012=
2010101722 - SBKP 172200Z 11013KT 9999 FEW045 BKN080 21/17 Q1013=
2010101723 - SBKP 172300Z 11011KT 9999 FEW045 BKN060 21/17 Q1014=
2010101800 - SBKP 180000Z 13013KT 9999 FEW045 BKN080 20/17 Q1014=
2010101801 - SBKP 180100Z 13011KT CAVOK 19/16 Q1014=
2010101802 - SBKP 180200Z 09007KT CAVOK 18/16 Q1014=
2010101803 - SBKP 180300Z 10009KT CAVOK 18/16 Q1014=
2010101804 - SBKP 180400Z 14009KT 9999 FEW025 BKN080 18/16 Q1013=
2010101805 - SBKP 180500Z 15006KT CAVOK 19/16 Q1013=
2010101806 - SBKP 180600Z 12004KT CAVOK 18/16 Q1012=
2010101807 - SBKP 180700Z 15004KT 9999 FEW020 BKN070 18/16 Q1013=
2010101808 - SBKP 180800Z 20007KT 9999 SCT022 BKN070 18/16 Q1014=
2010101809 - SBKP 180900Z 17007KT 9000 -RA SCT022 BKN070 17/16 Q1014=
2010101810 - SBKP 181000Z 22008KT 6000 -RA SCT030 BKN070 18/17 Q1015=
2010101811 - SBKP 181100Z 20007KT 6000 -RA FEW008 BKN030 BKN070 18/17 Q1016=
2010101812 - SBKP 181200Z 17004KT 8000 SCT010 SCT030 BKN070 18/17 Q1016=
2010101813 - SBKP 181300Z 13002KT 9999 SCT015 BKN030 BKN070 19/17 Q1016=
2010101814 - SBKP 181400Z 21003KT 9999 BKN020 BKN070 20/17 Q1015=
2010101815 - SBKP 181500Z 20005KT 9999 BKN020 BKN070 22/17 Q1015=
2010101816 - SBKP 181600Z 17010KT 9999 BKN025 SCT070 24/16 Q1014=
2010101817 - SBKP 181700Z 11005KT 9999 BKN030 25/17 Q1013=
2010101818 - SBKP 181800Z 19005KT 9999 BKN030 25/16 Q1013=
2010101819 - SBKP 181900Z 20007KT 9999 BKN030 FEW040TCU 24/15 Q1013=
2010101819 - SBKP 181935Z 13018KT 9999 BKN030 FEW040TCU 21/15 Q1013=
2010101820 - SBKP 182000Z 13018KT 9999 SCT030 FEW040TCU 21/15 Q1014=
2010101821 - SBKP 182100Z 13012KT 9999 SCT040 SCT070 19/14 Q1015=
2010101822 - SBKP 182200Z 12012KT 9999 SCT030 SCT070 17/13 Q1015=
2010101823 - SBKP 182300Z 14016KT CAVOK 16/12 Q1016=
2010101900 - SBKP 190000Z 12014KT CAVOK 15/12 Q1016=
2010101901 - SBKP 190100Z 11014KT CAVOK 15/12 Q1017=
2010101902 - SBKP 190200Z 12014KT 9999 FEW020 15/12 Q1017=
2010101903 - SBKP 190300Z 12011KT 9999 BKN017 15/13 Q1017=
2010101904 - SBKP 190400Z 12014KT 9999 BKN019 15/12 Q1016=
2010101905 - SBKP 190500Z 12010KT 9999 SCT020 14/12 Q1016=
2010101906 - SBKP 190600Z 12008KT 9999 FEW020 14/12 Q1015=
2010101907 - SBKP 190700Z 14010KT 9999 FEW020 14/12 Q1015=
2010101908 - SBKP 190800Z 13011KT 9999 FEW020 13/11 Q1016=
2010101909 - SBKP 190900Z 13011KT 9999 FEW020 13/12 Q1017=
2010101910 - SBKP 191000Z 13016KT CAVOK 16/12 Q1017=
2010101911 - SBKP 191100Z 14017KT CAVOK 17/12 Q1018=
2010101912 - SBKP 191200Z 12013KT CAVOK 20/11 Q1018=
2010101913 - SBKP 191300Z 11011KT CAVOK 21/12 Q1018=
2010101914 - SBKP 191400Z 14008KT CAVOK 22/11 Q1018=
2010101915 - SBKP 191500Z 15007KT 9999 FEW020 23/11 Q1017=
2010101916 - SBKP 191600Z 14007KT 9999 FEW020 25/12 Q1016=
2010101917 - SBKP 191700Z 19007KT 9999 FEW040 25/10 Q1016=
2010101918 - SBKP 191800Z 21008KT CAVOK 25/09 Q1015=
2010101919 - SBKP 191900Z 21008KT CAVOK 25/09 Q1015=
2010101920 - SBKP 192000Z 18009KT CAVOK 25/10 Q1015=
2010101921 - SBKP 192100Z 16010KT CAVOK 23/09 Q1016=
2010101922 - SBKP 192200Z 13015KT CAVOK 19/11 Q1016=
2010101923 - SBKP 192300Z 12016KT CAVOK 17/11 Q1017=
2010101923 - SBKP 192320Z 12016G27KT CAVOK 16/10 Q1017=
2010102000 - SBKP 200000Z 12017KT CAVOK 15/10 Q1018=
2010102001 - SBKP 200100Z 13016KT CAVOK 15/10 Q1019=
2010102002 - SBKP 200200Z 10011KT CAVOK 14/10 Q1018=
2010102003 - SBKP 200300Z 12012KT CAVOK 13/10 Q1018=
2010102004 - SBKP 200400Z 13012KT CAVOK 12/10 Q1018=
2010102005 - SBKP 200500Z 12007KT CAVOK 12/10 Q1017=
2010102006 - SBKP 200600Z 12005KT CAVOK 11/09 Q1017=
2010102007 - SBKP 200700Z 13007KT CAVOK 11/09 Q1016=
2010102008 - SBKP 200800Z 13007KT CAVOK 11/09 Q1016=
2010102009 - SBKP 200900Z 14008KT 8000 NSC 11/10 Q1017=
2010102010 - SBKP 201000Z 13005KT CAVOK 13/10 Q1018=
2010102011 - SBKP 201100Z 11009KT CAVOK 16/10 Q1018=
2010102012 - SBKP 201200Z 12012KT CAVOK 19/09 Q1018=
2010102013 - SBKP 201300Z 13008KT CAVOK 22/09 Q1018=
2010102014 - SBKP 201400Z 13006KT CAVOK 24/10 Q1017=
2010102015 - SBKP 201500Z 15005KT CAVOK 24/10 Q1017=
2010102016 - SBKP 201600Z 14006KT CAVOK 25/08 Q1016=
2010102017 - SBKP 201700Z 16007KT CAVOK 26/06 Q1015=
2010102018 - SBKP 201800Z 10007KT CAVOK 27/03 Q1014=
2010102019 - SBKP 201900Z 13006KT 080V180 CAVOK 28/06 Q1014=
2010102020 - SBKP 202000Z 16006KT CAVOK 27/05 Q1014=
2010102021 - SBKP 202100Z 11006KT CAVOK 23/07 Q1014=
2010102022 - SBKP 202200Z 16009KT CAVOK 22/10 Q1014=
2010102023 - SBKP 202300Z 12011KT CAVOK 18/12 Q1015=
2010102100 - SBKP 210000Z 12013KT CAVOK 17/11 Q1016=
2010102101 - SBKP 210100Z 11016KT CAVOK 16/11 Q1016=
2010102102 - SBKP 210200Z 11014KT CAVOK 14/11 Q1016=
2010102103 - SBKP 210300Z 12017KT CAVOK 14/11 Q1016=
2010102104 - SBKP 210400Z 13012KT CAVOK 13/11 Q1016=
2010102105 - SBKP 210500Z 13014KT CAVOK 12/11 Q1015=
2010102106 - SBKP 210600Z 12016KT CAVOK 12/10 Q1014=
2010102107 - SBKP 210700Z 10011KT CAVOK 12/10 Q1015=
2010102108 - SBKP 210800Z 11012KT CAVOK 12/10 Q1015=
2010102109 - SBKP 210900Z 11009KT 6000 NSC 12/10 Q1016=
2010102110 - SBKP 211000Z 12008KT CAVOK 15/11 Q1017=
2010102111 - SBKP 211100Z 10006KT CAVOK 18/12 Q1017=
2010102112 - SBKP 211200Z 10003KT CAVOK 22/13 Q1017=
2010102113 - SBKP 211300Z 01004KT CAVOK 24/13 Q1017=
2010102114 - SBKP 211400Z 33004KT CAVOK 26/13 Q1017=
2010102115 - SBKP 211500Z 24005KT CAVOK 28/13 Q1016=
2010102116 - SBKP 211600Z 31005KT CAVOK 30/13 Q1015=
2010102117 - SBKP 211700Z 27004KT CAVOK 29/11 Q1014=
2010102118 - SBKP 211800Z 25005KT CAVOK 30/11 Q1013=
2010102119 - SBKP 211900Z 24005KT CAVOK 30/09 Q1013=
2010102120 - SBKP 212000Z 21006KT CAVOK 29/09 Q1013=
2010102121 - SBKP 212100Z 18008KT CAVOK 27/08 Q1013=
2010102122 - SBKP 212200Z 14011KT CAVOK 22/12 Q1014=
2010102123 - SBKP 212300Z 11013KT CAVOK 20/14 Q1014=
2010102200 - SBKP 220000Z 11015KT CAVOK 19/14 Q1015=
2010102201 - SBKP 220100Z 12015KT CAVOK 17/13 Q1015=
2010102202 - SBKP 220200Z 12016KT CAVOK 16/13 Q1015=
2010102203 - SBKP 220300Z 12015KT CAVOK 16/13 Q1014=
2010102204 - SBKP 220400Z 12016KT CAVOK 15/13 Q1014=
2010102205 - SBKP 220500Z 13014KT CAVOK 15/13 Q1013=
2010102206 - SBKP 220600Z 12011KT CAVOK 15/13 Q1013=
2010102207 - SBKP 220700Z 10007KT CAVOK 15/13 Q1013=
2010102208 - SBKP 220800Z 12011KT CAVOK 14/13 Q1013=
2010102209 - SBKP 220900Z 11013KT 5000 BR NSC 15/13 Q1014=
2010102210 - SBKP 221000Z 12012KT 6000 NSC 16/14 Q1015=
2010102211 - SBKP 221100Z 12010KT 8000 NSC 20/15 Q1015=
2010102212 - SBKP 221200Z 10009KT CAVOK 24/16 Q1015=
2010102213 - SBKP 221300Z 11004KT CAVOK 27/17 Q1015=
2010102214 - SBKP 221400Z 03003KT CAVOK 29/16 Q1014=
2010102215 - SBKP 221500Z 36008KT 9999 FEW030 30/15 Q1013=
2010102216 - SBKP 221600Z 06006KT 9999 FEW030 32/14 Q1012=
2010102217 - SBKP 221700Z 29006KT 9999 FEW030 33/13 Q1011=
2010102218 - SBKP 221800Z 31006KT 9999 FEW030 34/13 Q1010=
2010102219 - SBKP 221900Z 30008KT 9000 NSC 33/10 Q1010=
2010102220 - SBKP 222000Z 22008KT 8000 FEW040 32/11 Q1010=
2010102221 - SBKP 222100Z 20006KT 6000 FEW040 29/12 Q1010=
2010102222 - SBKP 222200Z 14010KT 6000 NSC 24/16 Q1010=
2010102223 - SBKP 222300Z 12016KT 6000 NSC 21/16 Q1011=
2010102300 - SBKP 230000Z 11018KT 6000 2500NW NSC 19/16 Q1012=
2010102301 - SBKP 230100Z 12017KT 5000 BR NSC 19/16 Q1012=
2010102302 - SBKP 230200Z 13013KT 5000 BR NSC 19/16 Q1012=
2010102303 - SBKP 230300Z 10010KT 5000 BR NSC 19/16 Q1011=
2010102304 - SBKP 230400Z 12011KT 5000 BR NSC 19/16 Q1011=
2010102305 - SBKP 230500Z 11009KT 6000 NSC 18/16 Q1010=
2010102306 - SBKP 230600Z 18006KT CAVOK 19/16 Q1012=
2010102307 - SBKP 230700Z 22010KT 9000 NSC 18/16 Q1012=
2010102308 - SBKP 230800Z 17003KT 9000 NSC 17/16 Q1012=
2010102309 - SBKP 230900Z 06002KT 5000 BR NSC 17/16 Q1013=
2010102310 - SBKP 231000Z 01006KT 4000 -RA BR FEW030 BKN080 18/16 Q1014=
2010102311 - SBKP 231100Z 02006KT 4000 HZ FEW030 21/17 Q1014=
2010102312 - SBKP 231200Z 02007KT 5000 HZ FEW030 22/17 Q1014=
2010102313 - SBKP 231300Z 02011KT 6000 FEW030 24/17 Q1013=
2010102314 - SBKP 231400Z 34012KT 9999 SCT030 26/18 Q1013=
2010102315 - SBKP 231500Z 33010KT 9999 SCT030 SCT100 26/18 Q1012=
2010102316 - SBKP 231600Z 29012KT 9999 SCT030 BKN100 25/17 Q1012=
2010102317 - SBKP 231700Z 29011KT 9999 SCT040 BKN100 25/17 Q1011=
2010102318 - SBKP 231800Z 27008KT 9999 FEW030 SCT040 BKN100 23/18 Q1011=
2010102319 - SBKP 231900Z 30009KT 8000 -RA SCT040 BKN100 23/18 Q1011=
2010102320 - SBKP 232000Z 32007KT 9999 FEW035 BKN100 21/18 Q1011=
2010102321 - SBKP 232100Z 33004KT 9999 FEW035 BKN100 21/18 Q1012=
2010102322 - SBKP 232200Z 01005KT CAVOK 21/18 Q1012=
2010102323 - SBKP 232300Z 03003KT CAVOK 21/18 Q1013=
2010102400 - SBKP 240000Z 04002KT CAVOK 20/18 Q1013=
2010102401 - SBKP 240100Z 09005KT CAVOK 18/18 Q1013=
2010102402 - SBKP 240200Z 08003KT CAVOK 19/18 Q1013=
2010102403 - SBKP 240300Z 09003KT CAVOK 18/18 Q1012=
2010102404 - SBKP 240400Z 06002KT CAVOK 18/18 Q1012=
2010102405 - SBKP 240500Z 13003KT 9999 SCT035 BKN080 19/18 Q1012=
2010102406 - SBKP 240600Z 12004KT 9999 FEW025 SCT035 BKN080 19/18 Q1012=
2010102407 - SBKP 240700Z 11005KT 9999 FEW020 SCT035 BKN080 18/18 Q1012=
2010102408 - SBKP 240800Z 11005KT 9999 FEW020 SCT035 BKN080 19/18 Q1012=
2010102409 - SBKP 240900Z 10005KT 4000 BR FEW014 BKN100 19/18 Q1013=
2010102410 - SBKP 241000Z 13009KT 9999 FEW010 BKN020 19/17 Q1014=
2010102411 - SBKP 241100Z 13010KT 9999 FEW010 BKN040 20/18 Q1015=
2010102412 - SBKP 241200Z 08009KT 9999 FEW020 22/18 Q1015=
2010102413 - SBKP 241300Z 15006KT 9999 SCT027 26/19 Q1015=
2010102414 - SBKP 241400Z 14005KT 9999 BKN030 26/19 Q1014=
2010102415 - SBKP 241500Z 18005KT 9999 BKN030 26/18 Q1014=
2010102416 - SBKP 241600Z 15006KT 9999 SCT035 27/18 Q1013=
2010102417 - SBKP 241700Z 19007KT 9999 SCT035 28/17 Q1013=
2010102418 - SBKP 241800Z 17010KT 9999 SCT035 28/18 Q1012=
2010102419 - SBKP 241900Z 12013KT 9999 SCT035 25/17 Q1011=
2010102420 - SBKP 242000Z 17014KT 9999 FEW035 25/17 Q1012=
2010102421 - SBKP 242100Z 14014KT 9999 FEW040 23/16 Q1012=
2010102422 - SBKP 242200Z 13015KT CAVOK 20/16 Q1013=
2010102423 - SBKP 242300Z 12015KT CAVOK 19/15 Q1013=
2010102500 - SBKP 250000Z 11014KT CAVOK 19/15 Q1014=
2010102501 - SBKP 250100Z 12013KT CAVOK 18/15 Q1014=
2010102502 - SBKP 250200Z 13012KT CAVOK 18/15 Q1014=
2010102503 - SBKP 250300Z 12009KT CAVOK 18/15 Q1014=
2010102504 - SBKP 250400Z 11005KT CAVOK 17/15 Q1014=
2010102505 - SBKP 250500Z 18008KT CAVOK 16/14 Q1014=
2010102506 - SBKP 250600Z 15006KT CAVOK 16/14 Q1013=
2010102507 - SBKP 250700Z 12007KT CAVOK 16/14 Q1013=
2010102508 - SBKP 250800Z 10010KT CAVOK 16/15 Q1013=
2010102509 - SBKP 250900Z 10008KT 5000 BR NSC 16/15 Q1013=
2010102510 - SBKP 251000Z 11008KT 6000 NSC 19/15 Q1013=
2010102511 - SBKP 251100Z 13005KT 8000 NSC 22/16 Q1014=
2010102512 - SBKP 251200Z 02006KT CAVOK 25/17 Q1014=
2010102513 - SBKP 251300Z 05002KT 9999 FEW040 26/16 Q1014=
2010102514 - SBKP 251400Z 04004KT 9999 FEW045 28/16 Q1013=
2010102515 - SBKP 251500Z 25002KT 9999 FEW045 30/12 Q1013=
2010102516 - SBKP 251600Z 26005KT 9999 FEW045 30/14 Q1012=
2010102517 - SBKP 251700Z 20011KT 9999 FEW045 31/13 Q1011=
2010102518 - Mensagem METAR de 'SBKP' para 25/10/2010 as 18(UTC) no localizada na base de dados da REDEMET
2010102519 - SBKP 251900Z 23004KT 9999 FEW045 SCT070 31/13 Q1009=
2010102520 - SBKP 252000Z 00000KT 9999 FEW045 SCT070 30/13 Q1008=
2010102521 - SBKP 252100Z 27004KT 9999 FEW045 FEW045TCU SCT070 29/13 Q1008=
2010102522 - SBKP 252200Z 27004KT 9999 TS FEW045 FEW050CB SCT070 27/14Q1008=
2010102522 - SBKP 252250Z 27016G28KT 9999 TS FEW045 FEW050CB BKN070 24/17Q1010 WS R15=
2010102523 - SBKP 252300Z 21018G28KT 8000 TS FEW045 FEW050CB BKN070 24/17Q1010 WS R15=
2010102600 - SBKP 260000Z 13011KT 9999 TS FEW045 FEW050CB BKN070 20/16Q1012=
2010102600 - SBKP 260020Z 22013G29KT 1500 R15/1300 R33/1900 +TSRA SCT004SCT045CB BKN070 19/16 Q1014=
2010102600 - SBKP 260040Z 17018KT 9999 -TSRA FEW004 SCT045CB BKN070 ///// Q1014 RERA=
2010102601 - SBKP 260100Z 15016KT 9999 -TSRA SCT045 FEW050CB BKN070 ///// Q1012 RERA=
2010102601 - SBKP 260133Z 19011KT 5000 TSRA BR SCT045 FEW050CB BKN070 18/17 Q1015=
2010102602 - SBKP 260200Z 23007KT 5000 -TSRA BR SCT045 FEW050CB BKN070 18/17 Q1015 RERA=
2010102603 - SBKP 260300Z 09012KT 9999 -RA FEW045 BKN070 17/17 Q1012 RETS=
2010102604 - SBKP 260400Z 13010KT 9999 FEW045 BKN070 17/16 Q1010=
2010102605 - SBKP 260500Z 23003KT 9999 FEW045 SCT070 17/16 Q1010=
2010102606 - SBKP 260600Z 29005KT 9999 FEW045 SCT070 17/16 Q1011=
2010102607 - SBKP 260700Z 20003KT 9999 FEW045 17/16 Q1011=
2010102608 - SBKP 260800Z 19009KT 5000 BR FEW003 BKN080 16/16 Q1012=
2010102609 - SBKP 260900Z 10002KT 5000 BR FEW005 SCT040 16/16 Q1012=
2010102610 - SBKP 261000Z 11002KT 7000 FEW005 BKN070 18/16 Q1013=
2010102611 - SBKP 261100Z 15005KT 7000 SCT010 BKN070 19/17 Q1013=
2010102612 - SBKP 261200Z 13009KT 7000 SCT015 BKN070 20/16 Q1013=
2010102613 - SBKP 261300Z 13010KT 9000 SCT020 SCT080 22/16 Q1013=
2010102614 - SBKP 261400Z 13007KT 9000 FEW020 SCT033 BKN070 25/16 Q1012=
2010102615 - SBKP 261500Z 18004KT 9999 BKN035 SCT100 24/16 Q1012=
2010102616 - SBKP 261600Z 18003KT 9999 BKN035 26/14 Q1011=
2010102617 - SBKP 261700Z 19007KT 9999 BKN040 25/15 Q1010=
2010102618 - SBKP 261800Z 18010KT 9999 BKN040 SCT070 26/15 Q1009=
2010102619 - SBKP 261900Z 19014KT 9999 BKN045 SCT070 25/16 Q1009=
2010102620 - SBKP 262000Z 16019KT 9999 FEW030 SCT045 22/15 Q1010=
2010102621 - SBKP 262100Z 17014G24KT 9999 FEW030 SCT045 19/14 Q1011=
2010102622 - SBKP 262200Z 12015KT 9999 FEW030 16/13 Q1011=
2010102623 - SBKP 262300Z 12013KT 9999 FEW030 16/13 Q1012=
2010102700 - SBKP 270000Z 13009KT 9999 FEW030 15/13 Q1013=
2010102701 - SBKP 270100Z 13014KT 9999 FEW020 SCT080 16/13 Q1013=
2010102702 - SBKP 270200Z 12008KT 9999 FEW020 SCT080 16/13 Q1013=
2010102703 - SBKP 270300Z 12009KT 9999 FEW020 SCT080 15/12 Q1012=
2010102704 - SBKP 270400Z 13010KT 9999 FEW030 SCT070 15/13 Q1012=
2010102705 - SBKP 270500Z 13008KT CAVOK 14/13 Q1011=
2010102706 - SBKP 270600Z 13009KT CAVOK 14/12 Q1011=
2010102707 - SBKP 270700Z 13010KT CAVOK 14/12 Q1011=
2010102708 - SBKP 270800Z 14009KT CAVOK 14/12 Q1012=
2010102709 - SBKP 270900Z 15006KT 7000 NSC 14/12 Q1012=
2010102710 - SBKP 271000Z 13010KT 9000 NSC 16/12 Q1012=
2010102711 - SBKP 271100Z 12011KT 9000 NSC 19/11 Q1013=
2010102712 - SBKP 271200Z 11010KT CAVOK 20/11 Q1013=
2010102713 - SBKP 271300Z 10009KT 9999 FEW025 22/11 Q1012=
2010102714 - SBKP 271400Z 10007KT 050V150 9999 SCT025 24/11 Q1012=
2010102715 - SBKP 271500Z 22005KT 9999 SCT030 24/10 Q1012=
2010102716 - SBKP 271600Z 23005KT 9999 SCT035 26/09 Q1011=
2010102717 - SBKP 271700Z 26005KT 9999 SCT035 24/08 Q1011=
2010102718 - SBKP 271800Z 27006KT 9999 SCT040 25/09 Q1010=
2010102719 - SBKP 271900Z 20007KT 9999 FEW040 26/08 Q1010=
2010102720 - SBKP 272000Z 23010KT 9999 FEW040 25/08 Q1010=
2010102721 - SBKP 272100Z 22008KT 9999 FEW040 24/09 Q1010=
2010102722 - SBKP 272200Z 12015KT CAVOK 19/12 Q1011=
2010102723 - SBKP 272300Z 12016KT CAVOK 17/12 Q1012=
2010102700 - SBKP 270000Z 13009KT 9999 FEW030 15/13 Q1013=
2010102701 - SBKP 270100Z 13014KT 9999 FEW020 SCT080 16/13 Q1013=
2010102702 - SBKP 270200Z 12008KT 9999 FEW020 SCT080 16/13 Q1013=
2010102703 - SBKP 270300Z 12009KT 9999 FEW020 SCT080 15/12 Q1012=
2010102704 - SBKP 270400Z 13010KT 9999 FEW030 SCT070 15/13 Q1012=
2010102705 - SBKP 270500Z 13008KT CAVOK 14/13 Q1011=
2010102706 - SBKP 270600Z 13009KT CAVOK 14/12 Q1011=
2010102707 - SBKP 270700Z 13010KT CAVOK 14/12 Q1011=
2010102708 - SBKP 270800Z 14009KT CAVOK 14/12 Q1012=
2010102709 - SBKP 270900Z 15006KT 7000 NSC 14/12 Q1012=
2010102710 - SBKP 271000Z 13010KT 9000 NSC 16/12 Q1012=
2010102711 - SBKP 271100Z 12011KT 9000 NSC 19/11 Q1013=
2010102712 - SBKP 271200Z 11010KT CAVOK 20/11 Q1013=
2010102713 - SBKP 271300Z 10009KT 9999 FEW025 22/11 Q1012=
2010102714 - SBKP 271400Z 10007KT 050V150 9999 SCT025 24/11 Q1012=
2010102715 - SBKP 271500Z 22005KT 9999 SCT030 24/10 Q1012=
2010102716 - SBKP 271600Z 23005KT 9999 SCT035 26/09 Q1011=
2010102717 - SBKP 271700Z 26005KT 9999 SCT035 24/08 Q1011=
2010102718 - SBKP 271800Z 27006KT 9999 SCT040 25/09 Q1010=
2010102719 - SBKP 271900Z 20007KT 9999 FEW040 26/08 Q1010=
2010102720 - SBKP 272000Z 23010KT 9999 FEW040 25/08 Q1010=
2010102721 - SBKP 272100Z 22008KT 9999 FEW040 24/09 Q1010=
2010102722 - SBKP 272200Z 12015KT CAVOK 19/12 Q1011=
2010102723 - SBKP 272300Z 12016KT CAVOK 17/12 Q1012=
2010102800 - SBKP 280000Z 11015KT CAVOK 16/12 Q1012=
2010102901 - SBKP 290100Z 11011KT CAVOK 19/14 Q1012=
2010102902 - SBKP 290200Z 12014KT CAVOK 19/14 Q1012=
2010102903 - SBKP 290300Z 12014KT CAVOK 18/13 Q1012=
2010102904 - SBKP 290400Z 12014KT CAVOK 17/13 Q1012=
2010102905 - SBKP 290500Z 12011KT CAVOK 17/13 Q1011=
2010102906 - SBKP 290600Z 11009KT CAVOK 16/13 Q1011=
2010102907 - SBKP 290700Z 10009KT CAVOK 16/12 Q1011=
2010102908 - SBKP 290800Z 10008KT 9000 NSC 15/12 Q1012=
2010102909 - SBKP 290900Z 09007KT 6000 NSC 16/13 Q1012=
2010102910 - SBKP 291000Z 11006KT 8000 NSC 19/13 Q1013=
2010102911 - SBKP 291100Z 08004KT 8000 NSC 22/14 Q1014=
2010102912 - SBKP 291200Z 04004KT 9000 NSC 25/13 Q1014=
2010102913 - SBKP 291300Z 03004KT 9000 NSC 29/11 Q1014=
2010102914 - SBKP 291400Z 01004KT CAVOK 30/10 Q1013=
2010102915 - SBKP 291500Z 35008KT CAVOK 31/08 Q1012=
2010102916 - SBKP 291600Z 31009KT CAVOK 32/09 Q1011=
2010102917 - SBKP 291700Z 28009KT CAVOK 33/09 Q1010=
2010102918 - SBKP 291800Z 31007KT CAVOK 33/09 Q1009=
2010102919 - SBKP 291900Z 29007KT CAVOK 33/08 Q1009=
2010102920 - SBKP 292000Z 25007KT CAVOK 33/08 Q1008=
2010102921 - SBKP 292100Z 24005KT CAVOK 31/09 Q1009=
2010102922 - SBKP 292200Z 20004KT CAVOK 28/09 Q1009=
2010102923 - SBKP 292300Z 13004KT CAVOK 24/10 Q1010=
2010103000 - SBKP 300000Z 11011KT CAVOK 22/15 Q1010=
2010103001 - SBKP 300100Z 11012KT CAVOK 21/16 Q1011=
2010103002 - SBKP 300200Z 11012KT CAVOK 20/16 Q1010=
2010103003 - SBKP 300300Z 11010KT CAVOK 20/15 Q1010=
2010103004 - SBKP 300400Z 11007KT CAVOK 19/15 Q1009=
2010103005 - SBKP 300500Z 10007KT CAVOK 18/15 Q1009=
2010103006 - SBKP 300600Z 10007KT CAVOK 18/14 Q1009=
2010103007 - SBKP 300700Z 10007KT 9000 NSC 17/14 Q1008=
2010103008 - SBKP 300800Z 10007KT 9000 4000SE NSC 17/14 Q1009=
2010103009 - SBKP 300900Z 09005KT 6000 NSC 18/14 Q1009=
2010103010 - SBKP 301000Z 02004KT 6000 NSC 23/13 Q1010=
2010103011 - SBKP 301100Z 33008KT 8000 FEW045TCU BKN070 23/13 Q1011=
2010103012 - SBKP 301200Z 03005KT 9000 FEW045TCU BKN080 23/14 Q1011=
2010103012 - SBKP 301220Z 26015G25KT 6000 -TSRA BKN030 FEW040CB BKN100 23/15 Q1013=
2010103012 - SBKP 301235Z 23025G39KT 1900 R15/P2000 R33/P2000 +TSRA BR BKN010 SCT040CB BKN100 18/15 Q1014 WS R33=
2010103013 - SBKP 301300Z 22017KT 2000 TSRA BR FEW010 BKN030 SCT040CB BKN100 17/16 Q1015 WS R33 RERA=
2010103013 - SBKP 301325Z 19010KT 4000 -RA BR BKN030 FEW040TCU OVC100 17/17 Q1015 RETSRA=
2010103014 - SBKP 301400Z 18005KT 4000 -RA BR SCT010 BKN030 OVC100 17/17 Q1014 RETSRA=
2010103015 - SBKP 301500Z 22003KT 5000 -RA BR BKN020 OVC100 18/17 Q1013=
2010103016 - SBKP 301600Z 17004KT 6000 -RA SCT020 OVC100 20/17 Q1012=
2010103017 - SBKP 301700Z 03006KT 8000 BKN020 BKN080 OVC100 22/18 Q1011=
2010103017 - SBKP 301710Z 23012KT 8000 BKN020 FEW030TCU OVC100 21/19 Q1013=
2010103018 - SBKP 301800Z 23017G27KT 9000 BKN020 FEW030TCU OVC100 20/17 Q1014=
2010103019 - SBKP 301900Z 23011KT 9999 SCT015 BKN080 20/16 Q1013=
2010103020 - SBKP 302000Z 23008KT 9999 SCT015 BKN080 20/17 Q1013=
2010103021 - SBKP 302100Z 24005KT 9999 FEW015 BKN100 20/15 Q1014=
2010103022 - SBKP 302200Z 34004KT 9999 FEW020 BKN100 19/16 Q1014=
2010103023 - SBKP 302300Z 35007KT 9999 FEW020 BKN100 19/16 Q1014=
2010103023 - SBKP 302340Z 01018KT CAVOK 19/16 Q1011=
2010103100 - SBKP 310000Z 02007KT CAVOK 19/15 Q1013=
2010103101 - SBKP 310100Z 01005KT CAVOK 19/16 Q1013=
2010103102 - SBKP 310200Z 35006KT CAVOK 19/16 Q1013=
2010103103 - SBKP 310300Z 35004KT CAVOK 18/16 Q1013=
2010103104 - SBKP 310400Z 05002KT CAVOK 17/16 Q1014=
2010103105 - SBKP 310500Z 35002KT CAVOK 17/16 Q1013=
2010103106 - SBKP 310600Z 17005KT CAVOK 17/16 Q1013=
2010103107 - SBKP 310700Z 11003KT 9000 4000SE NSC 16/16 Q1013=
2010103108 - SBKP 310800Z 10004KT 7000 NSC 16/16 Q1013=
2010103109 - SBKP 310900Z 08004KT 7000 FEW038 16/16 Q1013=
2010103110 - SBKP 311000Z 34005KT 9999 SCT040 20/16 Q1015=
2010103111 - SBKP 311100Z 32005KT 9999 SCT045 22/17 Q1015=
2010103112 - SBKP 311200Z 27004KT 9999 SCT045 23/18 Q1016=
2010103113 - SBKP 311300Z 22002KT 9999 SCT030 SCT045 BKN100 24/18 Q1016=
2010103114 - SBKP 311400Z 30005KT 9999 BKN040 BKN090 25/17 Q1017=
2010103115 - SBKP 311500Z 30007KT 9999 BKN040 BKN090 27/17 Q1016=
2010103116 - SBKP 311600Z 25007KT 9999 BKN040 BKN070 26/17 Q1016=
2010103117 - SBKP 311700Z 28006KT 9999 BKN040 BKN070 26/17 Q1015=
2010103118 - SBKP 311800Z 31005KT 9999 BKN040 BKN080 27/17 Q1014=
2010103119 - SBKP 311900Z 29005KT 9999 SCT040 BKN090 26/17 Q1014=
2010103120 - SBKP 312000Z 25005KT 9999 SCT040 BKN090 27/17 Q1014=
2010103121 - SBKP 312100Z 25005KT 9999 FEW040 SCT100 25/18 Q1014=
2010103122 - SBKP 312200Z 25003KT 9999 FEW040 BKN100 24/18 Q1014=
2010103123 - SBKP 312300Z 24004KT CAVOK 23/18 Q1015=
2010110100 - SBKP 010000Z 23003KT 9999 FEW040 BKN100 24/18 Q1016=
2010110101 - SBKP 010100Z 10005KT 9999 FEW040 SCT100 21/19 Q1016=
2010110102 - SBKP 010200Z 11007KT 9999 SCT035 BKN100 21/18 Q1016=
2010110103 - SBKP 010300Z 10005KT 9999 SCT035 BKN100 20/18 Q1016=
2010110104 - SBKP 010400Z 13004KT 9999 SCT035 BKN100 20/18 Q1015=
2010110105 - SBKP 010500Z 12004KT 8000 NSC 20/18 Q1015=
2010110106 - SBKP 010600Z 13005KT 8000 FEW035 BKN100 20/18 Q1015=
2010110107 - SBKP 010700Z 10004KT 8000 FEW035 BKN100 19/18 Q1015=
2010110108 - SBKP 010800Z 09004KT 5000 BR FEW040 BKN100 19/18 Q1015=
2010110109 - SBKP 010900Z 11003KT 4500 BR SCT034 BKN100 19/19 Q1016=
2010110110 - SBKP 011000Z 11003KT 4500 BR SCT034 BKN100 21/19 Q1016=
2010110111 - SBKP 011100Z 24002KT 4500 HZ SCT034 BKN100 25/19 Q1017=
2010110112 - SBKP 011200Z 24006KT 4500 HZ FEW015 SCT034 24/19 Q1017=
2010110113 - SBKP 011300Z 23009KT 4500 HZ FEW020 SCT034 25/19 Q1017=
2010110114 - SBKP 011400Z 19008KT 6000 FEW020 SCT034 25/19 Q1017=
2010110115 - SBKP 011500Z 19009KT 7000 SCT035 25/18 Q1016=
2010110116 - SBKP 011600Z 19007KT 9999 SCT030 25/18 Q1015=
2010110117 - SBKP 011700Z 18007KT 9999 SCT030 25/17 Q1014=
2010110118 - SBKP 011800Z 18006KT 9999 SCT035 BKN100 26/17 Q1014=
2010110119 - SBKP 011900Z 18006KT 9999 SCT035 BKN100 26/17 Q1013=
2010110120 - SBKP 012000Z 11008KT 9999 BKN035 BKN100 25/17 Q1013=
2010110121 - SBKP 012100Z 12012KT 9999 SCT035 BKN100 23/16 Q1014=
2010110122 - SBKP 012200Z 11010KT 9999 SCT040 BKN100 21/15 Q1014=
2010110123 - SBKP 012300Z 11012KT 9999 FEW045 BKN100 20/14 Q1015=
2010110200 - SBKP 020000Z 11012KT CAVOK 19/14 Q1015=
2010110201 - SBKP 020100Z 12013KT CAVOK 18/14 Q1015=
2010110202 - SBKP 020200Z 11011KT CAVOK 18/14 Q1015=
2010110203 - SBKP 020300Z 11011KT CAVOK 17/14 Q1015=
2010110204 - SBKP 020400Z 11012KT CAVOK 16/14 Q1015=
2010110205 - SBKP 020500Z 12010KT CAVOK 16/14 Q1014=
2010110206 - SBKP 020600Z 12011KT CAVOK 16/14 Q1013=
2010110207 - SBKP 020700Z 12011KT CAVOK 16/14 Q1014=
2010110208 - SBKP 020800Z 12008KT CAVOK 15/14 Q1014=
2010110209 - SBKP 020900Z 12007KT 8000 NSC 16/14 Q1015=
2010110210 - SBKP 021000Z 12008KT 7000 NSC 17/14 Q1016=
2010110211 - SBKP 021100Z 10007KT 8000 NSC 18/14 Q1016=
2010110212 - SBKP 021200Z 11008KT 9000 NSC 21/14 Q1016=
2010110213 - SBKP 021300Z 11009KT CAVOK 23/11 Q1016=
2010110214 - SBKP 021400Z 12009KT CAVOK 24/10 Q1016=
2010110215 - SBKP 021500Z 12007KT CAVOK 25/09 Q1015=
2010110216 - SBKP 021600Z 12006KT CAVOK 26/10 Q1014=
2010110217 - SBKP 021700Z 19004KT CAVOK 25/09 Q1013=
2010110218 - SBKP 021800Z 00000KT 9999 FEW040 27/10 Q1013=
2010110219 - SBKP 021900Z VRB02KT 9999 FEW040 27/10 Q1012=
2010110220 - SBKP 022000Z 25006KT 9999 FEW040 27/07 Q1012=
2010110221 - SBKP 022100Z 25006KT 190V320 9999 FEW040 26/07 Q1012=
2010110222 - SBKP 022200Z 25004KT CAVOK 24/07 Q1012=
2010110223 - SBKP 022300Z 00000KT CAVOK 23/07 Q1013=
2010110223 - SBKP 022320Z 12014KT CAVOK 19/14 Q1013=
2010110300 - SBKP 030000Z 12015KT CAVOK 18/15 Q1014=
2010110301 - SBKP 030100Z 12012KT CAVOK 17/14 Q1014=
2010110302 - SBKP 030200Z 11014KT CAVOK 17/14 Q1014=
2010110303 - SBKP 030300Z 11014KT CAVOK 16/14 Q1014=
2010110304 - SBKP 030400Z 11013KT CAVOK 16/14 Q1013=
2010110305 - SBKP 030500Z 12014KT CAVOK 16/14 Q1012=
2010110306 - SBKP 030600Z 12015KT CAVOK 15/14 Q1012=
2010110307 - SBKP 030700Z 11012KT CAVOK 15/13 Q1013=
2010110308 - SBKP 030800Z 12012KT CAVOK 15/13 Q1013=
2010110309 - SBKP 030900Z 11011KT 6000 NSC 15/14 Q1013=
2010110310 - SBKP 031000Z 11011KT 8000 NSC 18/14 Q1014=
2010110311 - SBKP 031100Z 11012KT 9000 NSC 20/14 Q1015=
2010110312 - SBKP 031200Z 11009KT CAVOK 22/15 Q1015=
2010110313 - SBKP 031300Z 07007KT 9999 FEW030 25/13 Q1015=
2010110314 - SBKP 031400Z 10003KT 9999 FEW030 27/10 Q1014=
2010110315 - SBKP 031500Z 36001KT 9999 FEW030 28/08 Q1014=
2010110316 - SBKP 031600Z 24005KT 9999 FEW030 29/08 Q1013=
2010110317 - SBKP 031700Z 01002KT 9999 FEW030 29/08 Q1012=
2010110318 - SBKP 031800Z 28005KT 9999 FEW040 30/08 Q1011=
2010110319 - SBKP 031900Z VRB02KT 9999 FEW040 29/08 Q1011=
2010110320 - SBKP 032000Z 27005KT 210V330 9999 FEW040 29/08 Q1011=
2010110321 - SBKP 032100Z 22005KT 9999 FEW040 28/08 Q1012=
2010110322 - SBKP 032200Z 12014KT CAVOK 22/15 Q1012=
2010110323 - SBKP 032300Z 12014KT CAVOK 20/15 Q1013=
2010110400 - SBKP 040000Z 12015KT CAVOK 19/15 Q1013=
2010110401 - SBKP 040100Z 11014KT CAVOK 18/15 Q1014=
2010110402 - SBKP 040200Z 12015KT CAVOK 18/15 Q1014=
2010110403 - SBKP 040300Z 12015KT CAVOK 17/14 Q1014=
2010110404 - SBKP 040400Z 11014KT CAVOK 17/14 Q1013=
2010110405 - SBKP 040500Z 12013KT CAVOK 16/14 Q1013=
2010110406 - SBKP 040600Z 11014KT CAVOK 16/14 Q1013=
2010110407 - SBKP 040700Z 11010KT CAVOK 17/14 Q1013=
2010110408 - SBKP 040800Z 11009KT CAVOK 16/14 Q1014=
2010110409 - SBKP 040900Z 11008KT CAVOK 17/14 Q1015=
2010110410 - SBKP 041000Z 11009KT CAVOK 19/14 Q1016=
2010110411 - SBKP 041100Z 10007KT CAVOK 22/16 Q1016=
2010110412 - SBKP 041200Z 06009KT CAVOK 25/16 Q1016=
2010110413 - SBKP 041300Z 02008KT CAVOK 27/16 Q1016=
2010110414 - SBKP 041400Z 36008KT 9999 SCT040 28/16 Q1016=
2010110415 - SBKP 041500Z 35005KT 9999 SCT045 29/16 Q1015=
2010110416 - SBKP 041600Z 31005KT 9999 SCT048 30/14 Q1014=
2010110417 - SBKP 041700Z 35007KT 9999 SCT048 FEW050TCU 32/13 Q1013=
2010110418 - SBKP 041800Z 33003KT 9999 SCT045 31/11 Q1012=
2010110419 - SBKP 041900Z 23010KT 9999 SCT045 29/15 Q1012=
2010110420 - SBKP 042000Z 20008KT 9999 SCT045 SCT090 29/16 Q1012=
2010110421 - SBKP 042100Z 20006KT 9999 FEW045 28/15 Q1012=
2010110422 - SBKP 042200Z 12011KT CAVOK 24/16 Q1013=
2010110423 - SBKP 042300Z 12013KT CAVOK 23/16 Q1013=
2010110500 - SBKP 050000Z 11013KT CAVOK 23/16 Q1013=
2010110501 - SBKP 050100Z 11012KT CAVOK 23/15 Q1014=
2010110502 - SBKP 050200Z 11011KT CAVOK 22/15 Q1014=
2010110503 - SBKP 050300Z 11008KT CAVOK 21/15 Q1014=
2010110504 - SBKP 050400Z 12009KT CAVOK 21/16 Q1014=
2010110505 - SBKP 050500Z 10008KT CAVOK 20/16 Q1013=
2010110506 - SBKP 050600Z 10005KT CAVOK 19/15 Q1013=
2010110507 - SBKP 050700Z 07006KT CAVOK 19/15 Q1013=
2010110508 - SBKP 050800Z 10005KT CAVOK 18/15 Q1013=
2010110509 - SBKP 050900Z 10004KT CAVOK 19/15 Q1014=
2010110510 - SBKP 051000Z 10004KT CAVOK 23/16 Q1015=
2010110511 - SBKP 051100Z 01010KT CAVOK 25/16 Q1015=
2010110512 - SBKP 051200Z 36010KT 9999 FEW040 27/16 Q1015=
2010110513 - SBKP 051300Z 36011KT 9999 FEW040 28/16 Q1015=
2010110514 - SBKP 051400Z 35011KT 9999 SCT045 29/16 Q1015=
2010110515 - SBKP 051500Z 36011KT 9999 BKN040 30/15 Q1014=
2010110516 - SBKP 051600Z 36011KT 9999 BKN040 31/14 Q1012=
2010110517 - SBKP 051700Z 34011KT 9999 BKN045 32/13 Q1011=
2010110518 - SBKP 051800Z 35009KT 9999 VCSH SCT040 FEW045TCU 30/14 Q1009=
2010110519 - SBKP 051900Z 36015KT 9999 VCSH FEW040 FEW045TCU 30/15 Q1008=
2010110520 - SBKP 052000Z 36011KT 9999 VCSH FEW040 SCT045TCU 29/15 Q1009=
2010110521 - SBKP 052100Z 29011KT 9999 VCSH SCT035 FEW040TCU SCT075 24/16 Q1010=
2010110522 - SBKP 052200Z 03006KT 9999 VCTS SCT035 FEW040CB SCT090 24/15 Q1010=
2010110523 - SBKP 052300Z 35005KT 9999 VCTS SCT035 FEW040CB SCT090 24/15 Q1010=
2010110600 - SBKP 060000Z 34005KT 9999 VCTS SCT035 FEW040CB BKN070 23/16 Q1011=
2010110600 - SBKP 060010Z 33012G36KT 1500 R33/1500 R15/1600 +TSRA BR SCT005 SCT035 SCT040CB BKN070 19/17 Q1013=
2010110600 - SBKP 060030Z 28015G25KT 2500 TSRA BR BKN005 BKN035 SCT040CB OVC070 19/17 Q1013 RERA=
2010110601 - SBKP 060100Z 24007G19KT 9999 -RA SCT005 BKN040 OVC070 18/18 Q1013 RETSRA=
2010110602 - SBKP 060200Z 11004KT 9999 SCT015 SCT040 18/18 Q1011=
2010110603 - SBKP 060300Z 05004KT 9999 BKN017 OVC100 18/18 Q1011=
2010110604 - SBKP 060400Z 36009KT 9999 BKN011 OVC100 18/18 Q1010=
2010110605 - SBKP 060500Z 36008KT 9999 BKN008 SCT030 OVC100 19/18 Q1009=
2010110606 - SBKP 060600Z 33008KT 7000 BKN008 BKN020 OVC080 19/18 Q1009=
2010110607 - SBKP 060700Z 34010KT 6000 BKN006 SCT020 OVC080 19/18 Q1009=
2010110607 - SBKP 060730Z 32006KT 6000 SCT006 SCT030 OVC080 19/18 Q1009=
2010110608 - SBKP 060800Z 34005KT 6000 SCT006 SCT040 OVC080 19/18 Q1009=
2010110608 - SBKP 060815Z 34007KT 4000 BR BKN009 OVC070 19/18 Q1009=
2010110609 - SBKP 060900Z 35006KT 4000 BR BKN009 OVC080 19/18 Q1010=
2010110610 - SBKP 061000Z 34006KT 4500 BR BKN010 OVC080 19/19 Q1010=
2010110611 - SBKP 061100Z 33007KT 4000 BR BKN010 BKN015 OVC080 20/19 Q1010=
2010110612 - SBKP 061200Z 30007KT 4500 BR SCT010 BKN015 OVC080 19/19 Q1011=
2010110613 - SBKP 061300Z 29008KT 4500 -RA BR FEW010 BKN025 OVC080 19/19 Q1011=
2010110614 - SBKP 061400Z 27005KT 6000 BKN012 BKN025 OVC080 20/19 Q1011=
2010110615 - SBKP 061500Z 26006KT 5000 BR BKN010 BKN025 OVC080 21/19 Q1011=
2010110616 - SBKP 061600Z 29007KT 9999 4000N -RA SCT008 BKN025 BKN080 21/19 Q1011=
2010110617 - SBKP 061700Z 34006KT 9999 FEW015 SCT040 BKN080 23/18 Q1010=
2010110618 - SBKP 061800Z 30006KT 9999 BKN030 25/18 Q1009=
2010110619 - SBKP 061900Z 29007KT 9999 BKN033 25/18 Q1009=
2010110620 - SBKP 062000Z 18008KT 9999 VCSH BKN033 FEW035TCU 23/18 Q1008=
2010110621 - SBKP 062100Z 19003KT 9999 SCT040 SCT070 23/18 Q1009=
2010110622 - SBKP 062200Z 12011KT 9999 BKN030 SCT070 20/17 Q1010=
2010110623 - SBKP 062300Z 12011KT 9999 FEW040 BKN070 19/16 Q1011=
2010110700 - SBKP 070000Z 12012KT CAVOK 18/16 Q1011=
2010110701 - SBKP 070100Z 11011KT CAVOK 17/15 Q1012=
2010110702 - SBKP 070200Z 11010KT CAVOK 17/15 Q1012=
2010110703 - SBKP 070300Z 11010KT CAVOK 17/15 Q1012=
2010110704 - SBKP 070400Z 11010KT CAVOK 16/15 Q1012=
2010110705 - SBKP 070500Z 11007KT CAVOK 15/15 Q1012=
2010110706 - SBKP 070600Z 11007KT CAVOK 15/14 Q1012=
2010110707 - SBKP 070700Z 10008KT CAVOK 15/14 Q1012=
2010110708 - SBKP 070800Z 11008KT CAVOK 15/14 Q1012=
2010110709 - SBKP 070900Z 10006KT 5000 BR NSC 15/14 Q1013=
2010110710 - SBKP 071000Z 09005KT CAVOK 18/15 Q1013=
2010110711 - SBKP 071100Z 06004KT CAVOK 21/16 Q1014=
2010110712 - SBKP 071200Z 04006KT 9999 FEW025 24/15 Q1014=
2010110713 - SBKP 071300Z 03004KT 9999 SCT030 25/12 Q1014=
2010110714 - SBKP 071400Z 13005KT 360V160 9999 BKN030 27/14 Q1014=
2010110715 - SBKP 071500Z 00000KT 9999 BKN040 28/13 Q1014=
2010110716 - SBKP 071600Z 03004KT 9999 BKN045 27/12 Q1013=
2010110717 - SBKP 071700Z VRB01KT 9999 SCT045 27/12 Q1013=
2010110718 - SBKP 071800Z 27004KT 9999 SCT045 30/11 Q1012=
2010110719 - SBKP 071900Z 26002KT 9999 SCT048 28/12 Q1012=
2010110720 - SBKP 072000Z 14004KT 9999 FEW048 28/12 Q1012=
2010110721 - SBKP 072100Z 19005KT CAVOK 27/11 Q1012=
2010110722 - SBKP 072200Z 20004KT CAVOK 25/13 Q1013=
2010110723 - SBKP 072300Z 12012KT CAVOK 21/16 Q1013=
2010110800 - SBKP 080000Z 11012KT CAVOK 20/16 Q1014=
2010110801 - SBKP 080100Z 12014KT CAVOK 19/16 Q1015=
2010110802 - SBKP 080200Z 11005KT CAVOK 18/16 Q1015=
2010110803 - Mensagem METAR de 'SBKP' para 08/11/2010 as 03(UTC) no localizada na base de dados da REDEMET
2010110804 - SBKP 080400Z 11015KT CAVOK 17/15 Q1014=
2010110805 - Mensagem METAR de 'SBKP' para 08/11/2010 as 05(UTC) no localizada na base de dados da REDEMET
2010110806 - SBKP 080600Z 11009KT CAVOK 16/15 Q1013=
2010110807 - SBKP 080700Z 11007KT CAVOK 16/15 Q1014=
2010110808 - SBKP 080800Z 11006KT CAVOK 16/15 Q1015=
2010110809 - SBKP 080900Z 11007KT 8000 NSC 17/15 Q1015=
2010110810 - SBKP 081000Z 11007KT CAVOK 20/16 Q1016=
2010110811 - SBKP 081100Z 07006KT CAVOK 24/17 Q1016=
2010110812 - SBKP 081200Z 02010KT CAVOK 26/17 Q1017=
2010110813 - SBKP 081300Z 35010KT 9999 FEW020 28/16 Q1017=
2010110814 - SBKP 081400Z 01010KT 9999 SCT033 29/16 Q1016=
2010110815 - SBKP 081500Z 36007KT 9999 SCT040 30/16 Q1016=
2010110816 - SBKP 081600Z 01007KT 9999 BKN040 31/16 Q1015=
2010110817 - SBKP 081700Z 35007KT 9999 BKN040 32/15 Q1014=
2010110818 - SBKP 081800Z 34005KT 9999 BKN040 31/15 Q1013=
2010110819 - SBKP 081900Z 08004KT 9999 VCSH SCT040 FEW045TCU 29/17 Q1012=
2010110820 - SBKP 082000Z 07006KT 9999 SCT040 FEW045TCU 28/16 Q1012=
2010110821 - SBKP 082100Z 15004KT 9999 SCT040 FEW050TCU 27/17 Q1013=
2010110822 - SBKP 082200Z 15008KT 9999 VCTS SCT040 FEW050CB 26/16 Q1013=
2010110823 - SBKP 082300Z 11009KT 9999 TS SCT040 FEW045CB SCT090 23/16 Q1014=
2010110900 - SBKP 090000Z 09008KT 9999 SCT045 SCT090 24/18 Q1015 RETS=
2010110901 - SBKP 090100Z 09008KT 9999 SCT045 SCT090 23/18 Q1015=
2010110902 - SBKP 090200Z 12012KT 9999 FEW045 SCT100 22/17 Q1015=
2010110902 - SBKP 090240Z 09010KT 9999 TS VCSH FEW045 FEW050CB SCT080 22/17 Q1015=
2010110903 - SBKP 090300Z 08006KT 9999 TS VCSH SCT040 FEW045CB BKN080 22/17 Q1015=
2010110904 - SBKP 090400Z 08010KT 9999 TS VCSH FEW040 FEW045CB BKN100 22/18 Q1015=
2010110905 - SBKP 090500Z 03009KT 9999 TS VCSH SCT040 FEW045CB BKN100 22/18 Q1015=
2010110906 - SBKP 090600Z 03010KT 9999 TS SCT040 FEW045CB 22/18 Q1014=
2010110907 - SBKP 090700Z 03007KT 9999 VCTS FEW040 FEW045CB 21/17 Q1014 RETS=
2010110908 - SBKP 090800Z 35004KT 9999 FEW040 20/17 Q1015=
2010110909 - SBKP 090900Z 02010KT 9999 FEW040 20/17 Q1016=
2010110910 - SBKP 091000Z 02008KT 9999 FEW040 23/16 Q1016=
2010110911 - SBKP 091100Z 36009KT CAVOK 24/15 Q1016=
2010110912 - SBKP 091200Z 02010KT CAVOK 26/15 Q1016=
2010110913 - SBKP 091300Z 33009KT CAVOK 28/17 Q1016=
2010110914 - SBKP 091400Z 35007KT 9999 FEW030 28/18 Q1015=
2010110915 - SBKP 091500Z 32004KT 9999 SCT040 29/17 Q1014=
2010110916 - SBKP 091600Z 35006KT 9999 BKN040 31/18 Q1013=
2010110917 - SBKP 091700Z 29006KT 9999 SCT040 FEW045TCU 32/17 Q1012=
2010110918 - SBKP 091800Z 32011KT 9999 SCT040 FEW050TCU 30/16 Q1010=
2010110919 - SBKP 091900Z 33008KT 9999 VCSH SCT040 FEW050TCU SCT080 31/17 Q1010=
2010110920 - SBKP 092000Z 33006KT 9999 VCSH SCT040 FEW050TCU 29/15 Q1009=
2010110921 - SBKP 092100Z 33007KT 9999 VCSH FEW045TCU BKN100 27/18 Q1009=
2010110922 - SBKP 092200Z 36005KT 9999 VCSH FEW040TCU BKN100 26/18 Q1010=
2010110923 - SBKP 092300Z 36005KT 9999 VCTS FEW045CB BKN100 25/18 Q1012=
2010111000 - SBKP 100000Z 16004KT 9999 VCTS FEW045CB BKN080 25/18 Q1012=
2010111001 - SBKP 100100Z 22008G22KT 9999 TS SCT030 FEW045CB BKN080 24/17 Q1015=
2010111002 - SBKP 100200Z 08007KT 9999 VCTS FEW030 FEW045CB SCT080 21/17 Q1014 RETS=
2010111003 - SBKP 100300Z 35007KT 9999 VCTS SCT030 FEW045CB BKN070 21/16 Q1014=
2010111004 - SBKP 100400Z 26006KT 9999 VCSH FEW030 SCT045 BKN070 21/17Q1015=
2010111005 - SBKP 100500Z 15004KT 9999 -RA FEW025 SCT035 OVC080 19/18 Q1014=
2010111005 - SBKP 100525Z 09003KT 9000 RA FEW025 SCT035 OVC080 19/18 Q1014=
2010111006 - SBKP 100600Z 09005KT 9000 -RA FEW025 SCT035 OVC080 19/18 Q1014RERA=
2010111007 - SBKP 100700Z 06006KT 9999 -RA SCT040 OVC080 19/18 Q1014=
2010111008 - SBKP 100800Z 05008KT 9999 FEW040 OVC100 19/18 Q1013=
2010111009 - SBKP 100900Z 03002KT CAVOK 19/17 Q1014=
2010111010 - SBKP 101000Z 12004KT CAVOK 20/18 Q1014=
2010111011 - SBKP 101100Z 12003KT CAVOK 23/18 Q1014=
2010111012 - SBKP 101200Z 01003KT CAVOK 25/18 Q1015=
2010111013 - SBKP 101300Z 02002KT 9999 FEW030 BKN100 26/17 Q1015=
2010111014 - SBKP 101400Z 27005KT 9999 SCT030 SCT100 27/18 Q1015=
2010111015 - SBKP 101500Z 21009KT 9999 SCT030 SCT100 27/19 Q1014=
2010111016 - SBKP 101600Z 19007KT 9999 SCT030 FEW035TCU 28/18 Q1014=
2010111017 - SBKP 101700Z 17009KT 9999 SCT030 FEW035TCU 29/16 Q1013=
2010111018 - SBKP 101800Z 13015KT 9999 SCT040 FEW045TCU 27/18 Q1013=
2010111019 - SBKP 101900Z 13015KT 9999 SCT040 FEW045TCU 24/17 Q1014=
2010111020 - SBKP 102000Z 13017KT 9999 SCT030 SCT070 23/16 Q1014=
2010111021 - SBKP 102100Z 14015KT 9999 SCT035 21/15 Q1015=
2010111022 - SBKP 102200Z 13016KT 9999 FEW035 19/15 Q1016=
2010111023 - SBKP 102300Z 13021KT 9999 FEW045 18/14 Q1016=
2010111100 - SBKP 110000Z 13019G29KT 9999 FEW045 18/14 Q1017=
2010111101 - SBKP 110100Z 13018KT 9999 FEW020 BKN070 18/14 Q1018=
2010111102 - SBKP 110200Z 13019KT 9999 FEW020 BKN100 18/14 Q1018=
2010111103 - SBKP 110300Z 13017KT 9999 SCT020 BKN100 17/13 Q1018 =
2010111104 - SBKP 110400Z 14021KT 9999 FEW010 SCT020 BKN080 17/13 Q1017=
2010111105 - SBKP 110500Z 14018KT 9999 FEW010 SCT020 BKN080 17/13 Q1017=
2010111106 - SBKP 110600Z 14015KT 9999 BKN020 BKN080 17/13 Q1017=
2010111107 - SBKP 110700Z 13018KT 9999 BKN020 BKN080 16/13 Q1017=
2010111108 - SBKP 110800Z 13018KT 9999 FEW045 SCT100 16/13 Q1017=
2010111109 - SBKP 110900Z 12015KT 9999 FEW025 SCT100 16/12 Q1018=
2010111110 - SBKP 111000Z 13022KT 9999 SCT020 SCT070 18/12 Q1019=
2010111110 - SBKP 111005Z 13021G32KT 9999 SCT020 SCT070 18/12 Q1019=
2010111111 - SBKP 111100Z 13020KT 9999 SCT020 SCT070 18/13 Q1019=
2010111112 - SBKP 111200Z 12020G31KT 9999 SCT020 SCT070 21/13 Q1020=
2010111113 - SBKP 111300Z 13020KT 9999 SCT020 SCT070 20/13 Q1020=
2010111114 - SBKP 111400Z 14021KT 9999 SCT025 BKN055 22/14 Q1020=
2010111115 - SBKP 111500Z 13021KT 9999 SCT025 SCT055 22/13 Q1019=
2010111116 - SBKP 111600Z 13021KT 9999 FEW025 23/14 Q1019=
2010111117 - SBKP 111700Z 13021KT 9999 FEW030 22/14 Q1019=
2010111118 - SBKP 111800Z 12020KT 9999 FEW035 SCT080 20/13 Q1018=
2010111119 - SBKP 111900Z 14019KT 9999 FEW035 BKN070 20/12 Q1018=
2010111120 - SBKP 112000Z 13017KT 9999 FEW035 19/12 Q1018=
2010111121 - SBKP 112100Z 14019KT CAVOK 18/12 Q1018=
2010111122 - SBKP 112200Z 14019KT CAVOK 17/12 Q1019=
2010111123 - SBKP 112300Z 12018KT 9999 FEW030 16/12 Q1019=
2010111200 - SBKP 120000Z 12017KT 9999 SCT019 16/12 Q1020=
2010111201 - SBKP 120100Z 12018KT 9999 FEW019 16/12 Q1020=
2010111202 - SBKP 120200Z 12016KT 9999 FEW025 15/12 Q1020=
2010111203 - SBKP 120300Z 12015KT CAVOK 15/12 Q1020=
2010111204 - SBKP 120400Z 12014KT CAVOK 15/12 Q1019=
2010111205 - SBKP 120500Z 12014KT 9999 FEW045 BKN060 15/12 Q1019=
2010111206 - SBKP 120600Z 12011KT 9999 BKN038 16/12 Q1019=
2010111207 - SBKP 120700Z 13014KT 9999 SCT038 15/12 Q1019=
2010111208 - SBKP 120800Z 12014KT 9999 FEW035 BKN080 15/12 Q1019=
2010111209 - SBKP 120900Z 11015KT CAVOK 15/13 Q1019=
2010111210 - SBKP 121000Z 10012KT 9999 FEW010 17/13 Q1019=
2010111211 - SBKP 121100Z 11014KT 9999 FEW010 20/14 Q1019=
2010111212 - SBKP 121200Z 13014KT 9999 FEW015 21/14 Q1020=
2010111213 - SBKP 121300Z 14012KT 9999 SCT025 SCT070 22/14 Q1020=
2010111214 - SBKP 121400Z 13014KT 9999 FEW025 SCT055 23/14 Q1020=
2010111215 - SBKP 121500Z 11013KT 9999 SCT025 SCT070 24/15 Q1019=
2010111216 - SBKP 121600Z 12015KT 9999 SCT030 SCT100 22/14 Q1019=
2010111217 - SBKP 121700Z 12016KT 9999 FEW030 FEW040TCU SCT100 ///// Q1018=
2010111218 - SBKP 121800Z 13017KT 9999 FEW030 SCT100 ///// Q1018=
2010111219 - SBKP 121900Z 12016KT 9999 FEW030 ///// Q1017=
2010111220 - SBKP 122000Z 13019KT 9999 FEW030 BKN075 20/14 Q1017=
2010111221 - SBKP 122100Z 11019KT 9999 FEW030 SCT080 19/13 Q1017=
2010111222 - SBKP 122200Z 12015G27KT 9999 FEW030 SCT080 17/13 Q1018=
2010111223 - SBKP 122300Z 12020G30KT 9999 FEW020 SCT090 17/13 Q1018=
2010111300 - SBKP 130000Z 12018KT 9999 FEW020 16/13 Q1018=
2010111301 - SBKP 130100Z 13018KT 9999 FEW020 BKN085 16/13 Q1019=
2010111302 - SBKP 130200Z 14019KT 9999 SCT020 BKN085 16/13 Q1019=
2010111303 - SBKP 130300Z 13015KT 9999 FEW007 SCT020 BKN080 16/13 Q1019=
2010111304 - SBKP 130400Z 13017KT 9999 FEW007 BKN030 BKN080 16/13 Q1019=
2010111305 - SBKP 130500Z 12018KT 9999 FEW007 BKN030 BKN080 15/13 Q1018=
2010111306 - SBKP 130600Z 12015KT 9999 FEW007 BKN030 BKN080 15/13 Q1017=
2010111307 - SBKP 130700Z 12015KT 9999 SCT007 BKN030 BKN080 15/13 Q1018=
2010111308 - SBKP 130800Z 12018KT 9999 FEW006 BKN030 16/13 Q1018=
2010111309 - SBKP 130900Z 12016KT 9999 FEW010 BKN030 BKN080 16/13 Q1018=
2010111310 - SBKP 131000Z 11015KT 9999 BKN030 BKN080 16/13 Q1019=
2010111311 - SBKP 131100Z 11015KT 9999 BKN035 BKN100 17/13 Q1019=
2010111312 - SBKP 131200Z 11015KT 9999 BKN035 BKN090 19/14 Q1019=
2010111313 - SBKP 131300Z 11011KT 9999 BKN035 BKN090 20/14 Q1019=
2010111314 - SBKP 131400Z 13015KT 9999 BKN035 BKN090 21/14 Q1019=
2010111315 - SBKP 131500Z 13016KT 9999 BKN033 BKN090 22/14 Q1019=
2010111316 - SBKP 131600Z 13016KT 9999 BKN039 BKN090 22/14 Q1018=
2010111317 - SBKP 131700Z 12013KT 9999 BKN035 BKN090 21/14 Q1018=
2010111318 - SBKP 131800Z 13017KT 9999 FEW035 BKN100 22/14 Q1017=
2010111319 - SBKP 131900Z 15020KT 9999 FEW035 BKN100 21/14 Q1017=
2010111320 - SBKP 132000Z 14017G29KT 9999 FEW035 BKN100 19/14 Q1016=
2010111321 - SBKP 132100Z 13023KT 9999 BKN020 18/13 Q1016=
2010111322 - SBKP 132200Z 13018KT 9999 FEW015 BKN020 17/13 Q1016=
2010111323 - SBKP 132300Z 12016KT 9999 FEW015 BKN020 17/13 Q1017=
2010111400 - SBKP 140000Z 13012KT 9999 FEW015 BKN020 17/13 Q1018=
2010111401 - SBKP 140100Z 13010KT 9999 FEW015 BKN025 17/13 Q1018=
2010111402 - SBKP 140200Z 13014KT 9999 SCT025 16/13 Q1017=
2010111403 - SBKP 140300Z 12012KT 9999 FEW025 16/12 Q1016=
2010111404 - SBKP 140400Z 11011KT 9999 FEW025 15/12 Q1015=
2010111405 - SBKP 140500Z 11010KT 9999 FEW006 15/12 Q1014=
2010111406 - SBKP 140600Z 11009KT 9999 FEW006 SCT040 15/12 Q1014=
2010111407 - SBKP 140700Z 12012KT 9999 SCT040 15/12 Q1014=
2010111408 - SBKP 140800Z 12011KT 9999 SCT040 15/12 Q1015=
2010111409 - SBKP 140900Z 12012KT 9999 FEW040 SCT100 16/13 Q1016=
2010111410 - SBKP 141000Z 12013KT 9999 SCT040 SCT100 16/13 Q1017=
2010111411 - SBKP 141100Z 12014KT 9999 FEW040 BKN100 18/13 Q1017=
2010111412 - SBKP 141200Z 10010KT 9999 SCT040 SCT100 22/14 Q1017=
2010111413 - SBKP 141300Z 10007KT 9999 SCT030 BKN090 22/14 Q1017=
2010111414 - SBKP 141400Z 10006KT 9999 SCT034 BKN090 24/15 Q1017=
2010111415 - SBKP 141500Z 11007KT 9999 SCT035 BKN090 25/15 Q1016=
2010111416 - SBKP 141600Z 13005KT 9999 BKN035 BKN090 24/15 Q1016=
2010111417 - SBKP 141700Z 15007KT 9999 SCT038 FEW045TCU BKN090 24/14 Q1015=
2010111418 - SBKP 141800Z 14010KT 9999 SCT040 FEW045TCU BKN090 24/14 Q1014=
2010111419 - SBKP 141900Z 15009KT 9999 SCT040 FEW045TCU BKN090 24/14 Q1014=
2010111420 - SBKP 142000Z 12012KT 9999 FEW035 SCT080 23/14 Q1014=
2010111421 - SBKP 142100Z 12014KT CAVOK 21/14 Q1014=
2010111422 - SBKP 142200Z 13012KT CAVOK 20/14 Q1015=
2010111423 - SBKP 142300Z 13012KT CAVOK 18/14 Q1015=
2010111500 - SBKP 150000Z 13015KT CAVOK 18/14 Q1016=
2010111501 - SBKP 150100Z 12009KT CAVOK 17/14 Q1016=
2010111502 - SBKP 150200Z 12009KT CAVOK 16/14 Q1017=
2010111503 - SBKP 150300Z 13010KT CAVOK 16/14 Q1016=
2010111504 - SBKP 150400Z 09005KT CAVOK 16/14 Q1016=
2010111505 - SBKP 150500Z 14010KT CAVOK 15/14 Q1015=
2010111506 - SBKP 150600Z 12008KT 9999 FEW008 15/14 Q1015=
2010111507 - SBKP 150700Z 12008KT 9999 FEW008 15/13 Q1015=
2010111508 - SBKP 150800Z 13010KT 9000 FEW020 14/13 Q1016=
2010111509 - SBKP 150900Z 11009KT CAVOK 15/14 Q1016=
2010111510 - SBKP 151000Z 11011KT CAVOK 18/14 Q1017=
2010111511 - SBKP 151100Z 10007KT 9999 SCT040 21/14 Q1017=
2010111512 - SBKP 151200Z 09004KT 9999 SCT030 SCT070 22/15 Q1017=
2010111513 - SBKP 151300Z 04001KT 9999 BKN035 25/15 Q1017=
2010111514 - SBKP 151400Z 14004KT 9999 SCT035 26/15 Q1016=
2010111515 - SBKP 151500Z 16005KT 9999 SCT035 27/11 Q1015=
2010111516 - SBKP 151600Z 20005KT 9999 SCT035 28/09 Q1014=
2010111517 - SBKP 151700Z 15002KT 9999 SCT035 29/10 Q1013=
2010111518 - SBKP 151800Z 12005KT 9999 SCT035 29/09 Q1012=
2010111519 - SBKP 151900Z 16011KT 9999 FEW035 27/11 Q1012=
2010111520 - SBKP 152000Z 14012KT 9999 FEW035 27/11 Q1012=
2010111521 - SBKP 152100Z 13021KT 9999 FEW035 23/14 Q1012=
2010111522 - SBKP 152200Z 13022KT 9999 FEW035 20/14 Q1013=
2010111523 - SBKP 152300Z 13017KT CAVOK 19/14 Q1014=
2010111600 - SBKP 160000Z 12019KT CAVOK 19/13 Q1015=
2010111601 - SBKP 160100Z 12015KT CAVOK 18/14 Q1015=
2010111602 - SBKP 160200Z 10015KT CAVOK 18/14 Q1015=
2010111603 - SBKP 160300Z 11015KT CAVOK 18/14 Q1014=
2010111604 - SBKP 160400Z 11013KT 9999 FEW045 OVC100 18/14 Q1014=
2010111605 - SBKP 160500Z 10008KT 9999 FEW045 OVC100 18/14 Q1013=
2010111606 - SBKP 160600Z 05002KT 9000 -RA FEW035 OVC090 17/15 Q1014=
2010111607 - SBKP 160700Z 11004KT 9000 -RA FEW035 OVC090 16/16 Q1013=
2010111608 - SBKP 160800Z 12005KT 9000 FEW040 OVC090 17/16 Q1013=
2010111609 - SBKP 160900Z 07005KT 5000 -RA BR FEW010 SCT040 OVC090 17/16 Q1014=
2010111610 - SBKP 161000Z 10005KT 5000 -RA BR FEW010 SCT040 OVC090 17/17 Q1014=
2010111610 - SBKP 161010Z 08005KT 4000 -RA BR FEW010 SCT020 OVC090 17/17 Q1014=
2010111610 - SBKP 161045Z 06007KT 6000 -RA FEW010 SCT030 OVC090 18/17 Q1014=
2010111611 - SBKP 161100Z 06008KT 8000 -RA FEW010 SCT030 OVC090 18/17 Q1014=
2010111612 - SBKP 161200Z 07005KT 9999 FEW010 SCT040 BKN080 18/17 Q1015=
2010111613 - SBKP 161300Z 02005KT 5000 -RA BR FEW010 BKN030 OVC080 19/17 Q1015=
2010111614 - SBKP 161400Z 02006KT 5000 -RA BR SCT007 BKN010 BKN025 19/17 Q1015=
2010111615 - SBKP 161500Z 36003KT 9000 -RA SCT010 SCT020 BKN040 19/17 Q1014=
2010111615 - SBKP 161510Z 30003KT 5000 -RA BR BKN010 BKN025 OVC090 18/17 Q1014=
2010111616 - SBKP 161600Z 10002KT 4000 -RA BR SCT010 BKN025 19/17 Q1014=
2010111616 - SBKP 161620Z 23003KT 3500 RA BR SCT010 BKN020 18/17 Q1014=
2010111616 - SBKP 161635Z 14002KT 6000 -RA BKN009 BKN020 OVC100 18/17 Q1013 RERA=
2010111617 - SBKP 161700Z 13003KT 6000 BKN009 BKN020 OVC100 19/18 Q1013 RERA=
2010111618 - SBKP 161800Z 11003KT 9999 BKN010 BKN020 BKN100 20/18 Q1012=
2010111619 - SBKP 161900Z 19001KT 9999 BKN015 BKN035 BKN100 21/18 Q1012=
2010111620 - SBKP 162000Z 20003KT 9999 SCT015 BKN035 BKN100 22/18 Q1011=
2010111621 - SBKP 162100Z 33003KT 9999 SCT018 SCT040 BKN100 22/18 Q1012=
2010111622 - SBKP 162200Z 23003KT 9999 SCT018 SCT040 BKN100 20/17 Q1012=
2010111623 - SBKP 162300Z 12004KT 9999 FEW040 BKN100 19/18 Q1012=
2010111700 - SBKP 170000Z 10005KT CAVOK 18/17 Q1013=
2010111701 - SBKP 170100Z 12008KT CAVOK 18/17 Q1014=
2010111702 - SBKP 170200Z 11006KT CAVOK 17/17 Q1013=
2010111703 - SBKP 170300Z 14007KT CAVOK 17/16 Q1013=
2010111704 - SBKP 170400Z 13006KT CAVOK 17/16 Q1012=
2010111705 - SBKP 170500Z 11006KT 9999 FEW010 16/16 Q1012=
2010111706 - SBKP 170600Z 09005KT 9999 FEW010 16/16 Q1012=
2010111707 - SBKP 170700Z 10004KT 9999 FEW010 16/15 Q1011=
2010111708 - SBKP 170800Z 13002KT 4000 0900W R15/P2000 R33/P2000 BCFG BR FEW001 BKN014 16/16 Q1012=
2010111709 - SBKP 170900Z 17004KT 3000 BR BKN016 16/16 Q1012=
2010111710 - SBKP 171000Z 34001KT 4000 BR BKN014 17/17 Q1013=
2010111711 - SBKP 171100Z 19003KT 4000 BR SCT008 BKN014 19/17 Q1013=
2010111712 - SBKP 171200Z 22004KT 4000 BR SCT009 BKN014 21/18 Q1014=
2010111713 - SBKP 171300Z 24006KT 5000 BR BKN013 22/18 Q1014=
2010111714 - SBKP 171400Z 28006KT 7000 BKN018 24/17 Q1013=
2010111715 - SBKP 171500Z 26008KT 9999 BKN022 25/17 Q1012=
2010111716 - SBKP 171600Z 26007KT 9999 SCT030 26/16 Q1011=
2010111717 - SBKP 171700Z 30007KT 9999 SCT035 ///// Q1010=
2010111718 - SBKP 171800Z 29008KT 9999 SCT040 ///// Q1009=
2010111719 - SBKP 171900Z 25008KT 9999 SCT040 ///// Q1008=
2010111720 - SBKP 172000Z 27006KT 230V340 9999 SCT040 ///// Q1008=
2010111721 - SBKP 172100Z 26004KT 210V020 9999 SCT040 ///// Q1009=
2010111722 - SBKP 172200Z 27003KT 9999 FEW040 24/14 Q1009=
2010111723 - SBKP 172300Z 02005KT 9999 FEW040 22/16 Q1010=
2010111800 - SBKP 180000Z 17008KT 9999 VCTS FEW040 FEW045CB 22/16 Q1010=
2010111801 - SBKP 180100Z 10008KT 9999 FEW040 FEW045TCU 19/18 Q1011=
2010111802 - SBKP 180200Z 08007KT 9999 SCT040 19/18 Q1011=
2010111802 - SBKP 180245Z 21007KT 8000 TS FEW010 FEW035CB BKN040 19/19 Q1011=
2010111803 - SBKP 180300Z 11007KT 9999 TS FEW035CB SCT040 19/19 Q1010=
2010111804 - SBKP 180400Z 15008KT 9999 TS FEW030 FEW040CB SCT070 17/16 Q1009=
2010111804 - SBKP 180440Z 20012KT 2000 +TSRA BR SCT004 SCT030 SCT035CB BKN100 17/15 Q1010=
2010111805 - SBKP 180500Z 14009KT 4000 TSRA BR FEW004 SCT030 FEW035CB BKN100 16/15 Q1009 RERA=
2010111805 - SBKP 180510Z 12008KT 9999 TS FEW004 FEW035CB BKN100 16/15 Q1009 RERA=
2010111806 - SBKP 180600Z 07003KT 9999 FEW025 BKN090 16/15 Q1009 RETSRA=
2010111807 - SBKP 180700Z 26004KT 9999 VCTS FEW025 FEW035CB BKN090 16/16 Q1009=
2010111808 - SBKP 180800Z 07003KT 9999 FEW030 BKN090 16/16 Q1009=
2010111809 - SBKP 180900Z 03004KT 8000 NSC 16/16 Q1010=
2010111809 - SBKP 180920Z 03002KT 4000 BR NSC 18/17 Q1010=
2010111810 - SBKP 181000Z 36004KT 4000 BR FEW010 19/17 Q1011=
2010111810 - SBKP 181010Z 36004KT 5000 BR FEW010 19/17 Q1011=
2010111811 - SBKP 181100Z 32006KT 7000 FEW012 21/16 Q1011=
2010111812 - SBKP 181200Z 31008KT 7000 FEW012 SCT020 ///// Q1011=
2010111813 - SBKP 181300Z 28010KT 9000 SCT030 ///// Q1011=
2010111814 - SBKP 181400Z 26013KT 9999 FEW035 ///// Q1010=
2010111815 - SBKP 181500Z 27012KT 9999 SCT035 ///// Q1011=
2010111816 - SBKP 181600Z 27014KT 9999 SCT035 ///// Q1010=
2010111817 - SBKP 181700Z 29017KT 9999 SCT035 ///// Q1009=
2010111818 - SBKP 181800Z 29018KT 9999 SCT040 ///// Q1008=
2010111819 - SBKP 181900Z 26011KT 9999 SCT040 ///// Q1008=
2010111820 - SBKP 182000Z 26012KT 9999 FEW040 ///// Q1008=
2010111821 - SBKP 182100Z 26009KT 9999 FEW040 27/09 Q1008=
2010111822 - SBKP 182200Z 26006KT CAVOK 24/09 Q1009=
2010111823 - SBKP 182300Z 25005KT CAVOK 24/08 Q1009=
2010111900 - SBKP 190000Z 25004KT CAVOK 23/08 Q1009=
2010111901 - SBKP 190100Z 20003KT CAVOK 21/08 Q1010=
2010111902 - SBKP 190200Z 12009KT CAVOK 17/14 Q1010=
2010111903 - SBKP 190300Z 11009KT CAVOK 16/14 Q1010=
2010111904 - SBKP 190400Z 11009KT CAVOK 16/14 Q1009=
2010111905 - SBKP 190500Z 12010KT CAVOK 16/13 Q1009=
2010111906 - SBKP 190600Z 10008KT CAVOK 15/13 Q1009=
2010111907 - SBKP 190700Z 10008KT CAVOK 15/13 Q1009=
2010111908 - SBKP 190800Z 09008KT CAVOK 14/13 Q1010=
2010111909 - SBKP 190900Z 11005KT CAVOK 15/14 Q1011=
2010111910 - SBKP 191000Z 05004KT CAVOK 19/14 Q1012=
2010111911 - SBKP 191100Z 05006KT CAVOK 22/12 Q1012=
2010111912 - SBKP 191200Z 36006KT CAVOK 24/10 Q1013=
2010111913 - SBKP 191300Z 36004KT CAVOK 26/11 Q1013=
2010111914 - SBKP 191400Z 29008KT CAVOK 28/11 Q1013=
2010111915 - SBKP 191500Z 30008KT CAVOK 29/09 Q1013=
2010111916 - SBKP 191600Z 31009KT CAVOK 30/10 Q1012=
2010111917 - SBKP 191700Z 29004KT CAVOK 31/10 Q1011=
2010111918 - SBKP 191800Z 30009KT CAVOK 31/08 Q1010=
2010111919 - SBKP 191900Z 30008KT CAVOK 32/06 Q1010=
2010111920 - SBKP 192000Z 29008KT CAVOK 31/08 Q1010=
2010111921 - SBKP 192100Z 29008KT CAVOK 29/07 Q1010=
2010111922 - SBKP 192200Z 27004KT CAVOK 27/08 Q1010=
2010111923 - SBKP 192300Z 34003KT CAVOK 26/07 Q1011=
2010112000 - SBKP 200000Z 35003KT CAVOK 22/10 Q1011=
2010112001 - SBKP 200100Z 10004KT CAVOK 19/11 Q1012=
2010112002 - SBKP 200200Z 09005KT CAVOK 18/11 Q1013=
2010112003 - SBKP 200300Z 12006KT CAVOK 18/11 Q1013=
2010112004 - SBKP 200400Z 10007KT CAVOK 18/13 Q1013=
2010112005 - SBKP 200500Z 12008KT CAVOK 17/13 Q1013=
2010112006 - SBKP 200600Z 10009KT CAVOK 17/14 Q1013=
2010112007 - SBKP 200700Z 10008KT CAVOK 16/14 Q1012=
2010112008 - SBKP 200800Z 10007KT CAVOK 16/13 Q1013=
2010112009 - SBKP 200900Z 10008KT CAVOK 17/13 Q1013=
2010112010 - SBKP 201000Z 11007KT CAVOK 21/13 Q1013=
2010112011 - SBKP 201100Z 16003KT CAVOK 24/13 Q1015=
2010112012 - SBKP 201200Z 07002KT CAVOK 28/14 Q1015=
2010112013 - SBKP 201300Z 32005KT CAVOK 30/12 Q1014=
2010112014 - SBKP 201400Z 33006KT 9999 FEW040 31/12 Q1014=
2010112015 - SBKP 201500Z 32005KT 9999 FEW040 30/12 Q1014=
2010112016 - SBKP 201600Z 27006KT CAVOK 31/12 Q1013=
2010112017 - SBKP 201700Z 24009KT CAVOK 31/12 Q1013=
2010112018 - SBKP 201800Z 23007KT CAVOK 31/11 Q1012=
2010112018 - SBKP 201840Z 27022KT 5000 BLDU NSC 29/12 Q1012=
2010112019 - SBKP 201900Z 26022KT 9999 FEW040 SCT100 27/14 Q1012 WS R33=
2010112020 - SBKP 202000Z 21009KT CAVOK 26/13 Q1012=
2010112021 - SBKP 202100Z 22005KT CAVOK 25/14 Q1012=
2010112022 - SBKP 202200Z 20004KT CAVOK 24/14 Q1013=
2010112023 - SBKP 202300Z 27003KT CAVOK 23/14 Q1013=
2010112100 - SBKP 210000Z 21002KT CAVOK 22/14 Q1014=
2010112101 - SBKP 210100Z 01005KT CAVOK 22/15 Q1015=
2010112102 - SBKP 210200Z 06002KT CAVOK 22/15 Q1015=
2010112103 - SBKP 210300Z 10005KT CAVOK 20/15 Q1014=
2010112104 - SBKP 210400Z 09004KT CAVOK 20/15 Q1013=
2010112105 - SBKP 210500Z 12004KT 9999 FEW040 BKN080 19/16 Q1013=
2010112106 - SBKP 210600Z 11004KT 9999 FEW040 BKN080 19/15 Q1012=
2010112107 - SBKP 210700Z 07005KT 9999 FEW040 BKN080 19/15 Q1012=
2010112108 - SBKP 210800Z 08002KT 9999 FEW040 BKN080 19/15 Q1013=
2010112109 - SBKP 210900Z 10003KT 8000 FEW040 SCT080 18/16 Q1013=
2010112110 - SBKP 211000Z 12004KT CAVOK 22/16 Q1014=
2010112111 - SBKP 211100Z 06003KT CAVOK 24/16 Q1015=
2010112112 - SBKP 211200Z 01003KT CAVOK 26/16 Q1015=
2010112113 - SBKP 211300Z 34004KT CAVOK 28/15 Q1015=
2010112114 - SBKP 211400Z 36004KT CAVOK 30/15 Q1014=
2010112115 - SBKP 211500Z 31003KT 9999 FEW035 31/15 Q1013=
2010112116 - SBKP 211600Z 33005KT 9999 SCT045 31/15 Q1012=
2010112117 - SBKP 211700Z 31007KT 9999 SCT045 FEW048TCU 32/16 Q1011=
2010112118 - SBKP 211800Z 31006KT 9999 SCT045 33/16 Q1010=
2010112119 - SBKP 211900Z 22002KT 9999 FEW045 33/15 Q1009=
2010112120 - SBKP 212000Z 19008KT 9999 FEW048 SCT100 31/15 Q1009=
2010112121 - SBKP 212100Z 20005KT CAVOK 30/16 Q1009=
2010112122 - SBKP 212200Z 16006KT CAVOK 28/16 Q1010=
2010112123 - SBKP 212300Z 11009KT CAVOK 26/16 Q1011=
2010112100 - SBKP 210000Z 21002KT CAVOK 22/14 Q1014=
2010112101 - SBKP 210100Z 01005KT CAVOK 22/15 Q1015=
2010112102 - SBKP 210200Z 06002KT CAVOK 22/15 Q1015=
2010112103 - SBKP 210300Z 10005KT CAVOK 20/15 Q1014=
2010112104 - SBKP 210400Z 09004KT CAVOK 20/15 Q1013=
2010112105 - SBKP 210500Z 12004KT 9999 FEW040 BKN080 19/16 Q1013=
2010112106 - SBKP 210600Z 11004KT 9999 FEW040 BKN080 19/15 Q1012=
2010112107 - SBKP 210700Z 07005KT 9999 FEW040 BKN080 19/15 Q1012=
2010112108 - SBKP 210800Z 08002KT 9999 FEW040 BKN080 19/15 Q1013=
2010112109 - SBKP 210900Z 10003KT 8000 FEW040 SCT080 18/16 Q1013=
2010112110 - SBKP 211000Z 12004KT CAVOK 22/16 Q1014=
2010112111 - SBKP 211100Z 06003KT CAVOK 24/16 Q1015=
2010112112 - SBKP 211200Z 01003KT CAVOK 26/16 Q1015=
2010112113 - SBKP 211300Z 34004KT CAVOK 28/15 Q1015=
2010112114 - SBKP 211400Z 36004KT CAVOK 30/15 Q1014=
2010112115 - SBKP 211500Z 31003KT 9999 FEW035 31/15 Q1013=
2010112116 - SBKP 211600Z 33005KT 9999 SCT045 31/15 Q1012=
2010112117 - SBKP 211700Z 31007KT 9999 SCT045 FEW048TCU 32/16 Q1011=
2010112118 - SBKP 211800Z 31006KT 9999 SCT045 33/16 Q1010=
2010112119 - SBKP 211900Z 22002KT 9999 FEW045 33/15 Q1009=
2010112120 - SBKP 212000Z 19008KT 9999 FEW048 SCT100 31/15 Q1009=
2010112121 - SBKP 212100Z 20005KT CAVOK 30/16 Q1009=
2010112122 - SBKP 212200Z 16006KT CAVOK 28/16 Q1010=
2010112123 - SBKP 212300Z 11009KT CAVOK 26/16 Q1011=
2010112200 - SBKP 220000Z 07008KT CAVOK 25/17 Q1011=
2010112301 - SBKP 230100Z /////KT CAVOK ///// Q1009=
2010112302 - SBKP 230200Z /////KT 9999 FEW020 BKN100 ///// Q1009=
2010112303 - SBKP 230300Z 10003KT 9999 FEW020 18/18 Q1008=
2010112304 - SBKP 230400Z 12005KT 9999 FEW020 ///// Q1008=
2010112305 - SBKP 230500Z 13005KT 9999 FEW020 BKN095 18/18 Q1008=
2010112306 - SBKP 230600Z 12005KT 9999 FEW020 BKN092 19/18 Q1007=
2010112307 - SBKP 230700Z 15006KT 9999 FEW016 SCT048 BKN092 ///// Q1007=
2010112308 - SBKP 230800Z 10004KT 9999 FEW015 SCT048 BKN092 ///// Q1007=
2010112309 - SBKP 230900Z 09004KT 6000 FEW015 BKN050 BKN090 19/18 Q1008=
2010112310 - SBKP 231000Z 12003KT 6000 2900SE FEW015 BKN070 20/19 Q1009=
2010112311 - SBKP 231100Z 32004KT 5000 2400N BR SCT007 BKN020 BKN070 22/19 Q1009=
2010112312 - SBKP 231200Z 32004KT 6000 2800N FEW015 SCT040TCU 22/19 Q1009=
2010112313 - SBKP 231300Z VRB02KT 9000 SCT020 24/20 Q1009=
2010112314 - SBKP 231400Z 36006KT 9999 BKN030 25/19 Q1009=
2010112315 - SBKP 231500Z 28005KT 9999 BKN030 27/19 Q1009=
2010112316 - SBKP 231600Z VRB07KT 9999 SCT030 27/19 Q1008=
2010112317 - SBKP 231700Z 28007KT 9999 SCT030 28/18 Q1007=
2010112318 - SBKP 231800Z 27005KT 9999 VCSH SCT030 FEW040TCU 29/18 Q1006=
2010112319 - SBKP 231900Z 18008KT 9999 VCSH SCT030 FEW040TCU 28/19 Q1006=
2010112320 - SBKP 232000Z 13014KT 9999 SCT035 25/18 Q1006=
2010112321 - SBKP 232100Z 12013KT 9999 FEW035 SCT090 23/18 Q1006=
2010112322 - SBKP 232200Z 12012KT 9999 FEW035 SCT090 21/17 Q1007=
2010112323 - SBKP 232300Z 12014KT CAVOK 20/17 Q1008=
2010112400 - SBKP 240000Z 13011KT 9999 FEW020 20/17 Q1009=
2010112401 - SBKP 240100Z 14012KT 9999 FEW020 20/17 Q1010=
2010112402 - SBKP 240200Z 14011KT 9999 FEW020 20/17 Q1010=
2010112403 - SBKP 240300Z 15010KT 9999 FEW020 19/17 Q1010=
2010112404 - SBKP 240400Z 12005KT 9999 FEW020 18/17 Q1009=
2010112405 - SBKP 240500Z 14007KT 9999 SCT020 19/17 Q1009=
2010112406 - SBKP 240600Z 16006KT 9999 FEW025 19/17 Q1008=
2010112407 - SBKP 240700Z 15005KT 9999 FEW012 SCT090 18/17 Q1009=
2010112408 - SBKP 240800Z 13004KT 9999 BKN030 18/17 Q1009=
2010112408 - SBKP 240824Z 14006KT 5000 BR SCT030 BKN100 19/17 Q1009=
2010112409 - SBKP 240900Z 14006KT 5000 BR SCT030 BKN100 19/17 Q1009=
2010112410 - SBKP 241000Z 11006KT 9000 NSC 21/18 Q1010=
2010112411 - SBKP 241100Z 10007KT CAVOK 23/17 Q1010=
2010112412 - SBKP 241200Z 06003KT 9999 FEW020 25/17 Q1010=
2010112413 - SBKP 241300Z VRB01KT 9999 SCT020 26/17 Q1010=
2010112414 - SBKP 241400Z 33004KT 9999 BKN030 27/17 Q1009=
2010112415 - SBKP 241500Z 34003KT 280V080 9999 BKN040 28/18 Q1009=
2010112416 - SBKP 241600Z VRB05KT 9999 BKN040 28/17 Q1008=
2010112417 - SBKP 241700Z 32006KT 9999 SCT040 30/18 Q1008=
2010112418 - SBKP 241800Z 29007KT 9999 SCT040 30/17 Q1007=
2010112419 - SBKP 241900Z 24009KT 9999 FEW040 30/17 Q1006=
2010112420 - SBKP 242000Z 23009KT 9999 FEW040 30/17 Q1006=
2010112421 - SBKP 242100Z 22008KT 150V270 9999 FEW040 29/17 Q1006=
2010112422 - SBKP 242200Z 20004KT 9999 SCT040 SCT090 25/18 Q1007=
2010112422 - SBKP 242210Z 11015KT 8000 SCT040 SCT090 23/18 Q1007=
2010112423 - SBKP 242300Z 11017KT 6000 2700NW NSC 21/18 Q1007=
2010112500 - SBKP 250000Z 11017KT 6000 2800NW NSC 20/17 Q1007=
2010112501 - SBKP 250100Z 11015KT 6000 NSC 20/17 Q1009=
2010112502 - SBKP 250200Z 10010KT 7000 FEW017 20/17 Q1009=
2010112503 - SBKP 250300Z 10010KT 9000 NSC 19/17 Q1009=
2010112504 - SBKP 250400Z 14008KT 9000 NSC 19/17 Q1009=
2010112505 - SBKP 250500Z 10006KT CAVOK 19/17 Q1008=
2010112506 - SBKP 250600Z 12006KT CAVOK 19/18 Q1008=
2010112507 - SBKP 250700Z 13007KT CAVOK 19/18 Q1008=
2010112508 - SBKP 250800Z 11008KT 9000 NSC 19/17 Q1009=
2010112509 - SBKP 250900Z 12008KT 6000 NSC 19/18 Q1009=
2010112510 - SBKP 251000Z 10007KT 6000 NSC 21/18 Q1010=
2010112511 - SBKP 251100Z 05004KT 9000 NSC 24/19 Q1010=
2010112512 - SBKP 251200Z 01005KT CAVOK 26/19 Q1010=
2010112513 - SBKP 251300Z 34007KT 9999 FEW030 28/19 Q1011=
2010112514 - SBKP 251400Z 34006KT 9999 SCT030 29/20 Q1010=
2010112515 - SBKP 251500Z 32008KT 9999 BKN035 30/18 Q1010=
2010112516 - SBKP 251600Z 30010KT 9999 SCT035 31/17 Q1010=
2010112517 - SBKP 251700Z 33012KT 9999 SCT035 FEW040TCU 31/16 Q1009=
2010112518 - SBKP 251800Z 30010KT 9999 SCT035 FEW040TCU 31/16 Q1008=
2010112519 - SBKP 251900Z 26005KT 9999 SCT035 FEW040TCU 30/17 Q1008=
2010112519 - SBKP 251920Z 23025G42KT 5000 BLDU SCT035 FEW040TCU BKN070 27/16 Q1008=
2010112520 - SBKP 252000Z 20018G29KT 6000 TS SCT035 FEW040CB BKN070 20/16 Q1010 WS R15=
2010112521 - SBKP 252100Z 17011KT 9000 -RA SCT035 FEW040TCU BKN070 20/16 Q1011 RETS=
2010112521 - SBKP 252130Z 18009G19KT 4000 RA SCT035 FEW040TCU BKN070 18/17 Q1012=
2010112522 - SBKP 252200Z 16011KT 7000 -RA SCT020 FEW040TCU BKN070 19/18 Q1011=
2010112523 - SBKP 252300Z VRB02KT 5000 TSRA SCT030 FEW040CB BKN070 18/18 Q1012=
2010112523 - SBKP 252315Z 21007KT 8000 -TSRA BKN035 FEW040CB OVC070 19/18 Q1012 RERA=
2010112523 - SBKP 252330Z 14007G17KT 4000 TSRA BR BKN035 FEW040CB OVC070 18/18 Q1012=
2010112600 - SBKP 260000Z 31006KT 9000 -TSRA SCT035 FEW040CB OVC080 19/18 Q1013 RERA=
2010112601 - SBKP 260100Z 05007KT 9000 -RA SCT035 18/18 Q1013 RETS=
2010112602 - SBKP 260200Z 10004KT 9999 FEW030 18/18 Q1012=
2010112603 - SBKP 260300Z 07003KT 9999 FEW030 BKN090 18/18 Q1012=
2010112604 - SBKP 260400Z 13004KT 9999 FEW030 17/17 Q1011=
2010112605 - SBKP 260500Z 11001KT 9999 BKN005 17/17 Q1011=
2010112605 - SBKP 260530Z 09002KT 9999 SCT005 17/17 Q1011=
2010112606 - SBKP 260600Z 12003KT CAVOK 17/17 Q1011=
2010112607 - SBKP 260700Z 20005KT 9000 NSC 17/17 Q1011=
2010112608 - SBKP 260800Z 16005KT 7000 NSC 17/17 Q1011=
2010112609 - SBKP 260900Z 14003KT 4000 BR FEW017 17/17 Q1011=
2010112610 - SBKP 261000Z 17006KT 5000 BR FEW020 20/18 Q1012=
2010112611 - SBKP 261100Z 22003KT 6000 SCT020 21/18 Q1013=
2010112612 - SBKP 261200Z 29002KT 6000 BKN018 23/18 Q1013=
2010112613 - SBKP 261300Z 27005KT 8000 BKN018 23/18 Q1013=
2010112614 - SBKP 261400Z 29005KT 8000 BKN020 24/18 Q1013=
2010112615 - SBKP 261500Z 27006KT 7000 BKN020 24/18 Q1013=
2010112616 - SBKP 261600Z 29005KT 9999 BKN025 26/19 Q1012=
2010112617 - SBKP 261700Z 27008KT 9999 BKN025 26/19 Q1011=
2010112618 - SBKP 261800Z 24007KT 9999 SCT025 27/18 Q1011=
2010112619 - SBKP 261900Z 24007KT 9999 FEW035 28/17 Q1010=
2010112620 - SBKP 262000Z 24006KT 9999 FEW035 28/14 Q1010=
2010112621 - SBKP 262100Z 26004KT 9999 FEW035 27/14 Q1010=
2010112622 - SBKP 262200Z 21003KT 9999 FEW030 25/16 Q1010=
2010112623 - SBKP 262300Z 13015KT CAVOK 21/17 Q1011=
2010112700 - SBKP 270000Z 12014KT CAVOK 21/16 Q1012=
2010112701 - SBKP 270100Z 11014KT CAVOK 19/16 Q1012=
2010112702 - SBKP 270200Z 11013KT CAVOK 19/16 Q1013=
2010112703 - SBKP 270300Z 11014KT CAVOK 19/16 Q1012=
2010112704 - SBKP 270400Z 11013KT CAVOK 18/16 Q1012=
2010112705 - SBKP 270500Z 12013KT 9000 NSC 17/16 Q1012=
2010112706 - SBKP 270600Z 10012KT 9000 NSC 17/15 Q1012=
2010112707 - SBKP 270700Z 11014KT 9000 NSC 17/15 Q1012=
2010112708 - SBKP 270800Z 12005KT 8000 3500SE NSC 16/15 Q1012=
2010112709 - SBKP 270900Z 12005KT 9000 3500E NSC 17/15 Q1013=
2010112710 - SBKP 271000Z 12007KT CAVOK 19/16 Q1014=
2010112711 - SBKP 271100Z 09004KT CAVOK 22/16 Q1014=
2010112712 - SBKP 271200Z 14005KT CAVOK 25/16 Q1014=
2010112713 - SBKP 271300Z 18003KT 9999 FEW030 26/15 Q1014=
2010112714 - SBKP 271400Z 16004KT 9999 FEW030 28/15 Q1013=
2010112715 - SBKP 271500Z 23006KT 9999 SCT030 29/16 Q1013=
2010112716 - SBKP 271600Z 25006KT 9999 SCT040 29/14 Q1012=
2010112717 - SBKP 271700Z 25006KT 9999 SCT040 30/13 Q1012=
2010112718 - SBKP 271800Z 26007KT 9999 FEW040 31/12 Q1011=
2010112719 - SBKP 271900Z 25002KT 9999 FEW040 31/14 Q1010=
2010112720 - SBKP 272000Z 28005KT 9999 FEW040 31/13 Q1010=
2010112721 - SBKP 272100Z 24005KT 9999 FEW040 29/13 Q1010=
2010112722 - SBKP 272200Z 12010KT 9999 FEW040 25/17 Q1011=
2010112723 - SBKP 272300Z 13015KT CAVOK 24/18 Q1012=
2010112800 - SBKP 280000Z 12011KT CAVOK 22/17 Q1012=
2010112801 - SBKP 280100Z 10009KT CAVOK 21/17 Q1013=
2010112802 - SBKP 280200Z 11010KT CAVOK 20/16 Q1013=
2010112803 - SBKP 280300Z 11009KT CAVOK 19/16 Q1013=
2010112804 - SBKP 280400Z 11009KT CAVOK 18/16 Q1012=
2010112805 - SBKP 280500Z 12012KT CAVOK 18/16 Q1012=
2010112806 - SBKP 280600Z 11010KT CAVOK 18/16 Q1012=
2010112807 - SBKP 280700Z 12011KT 9999 4000SE NSC 17/16 Q1012=
2010112808 - SBKP 280800Z 12009KT 9000 4000SE NSC 17/16 Q1013=
2010112809 - SBKP 280900Z 08004KT CAVOK 18/16 Q1013=
2010112810 - SBKP 281000Z 12007KT CAVOK 20/16 Q1013=
2010112811 - SBKP 281100Z 11005KT CAVOK 24/16 Q1014=
2010112812 - SBKP 281200Z 07003KT CAVOK 27/16 Q1014=
2010112813 - SBKP 281300Z 36005KT CAVOK 29/15 Q1014=
2010112814 - SBKP 281400Z 11002KT 9999 FEW030 31/13 Q1013=
2010112815 - SBKP 281500Z 35004KT 9999 FEW030 31/11 Q1013=
2010112816 - SBKP 281600Z 18002KT 9999 FEW030 32/11 Q1012=
2010112817 - SBKP 281700Z 18002KT 9999 FEW030 33/13 Q1011=
2010112818 - SBKP 281800Z 25006KT 9999 FEW030 33/11 Q1011=
2010112819 - SBKP 281900Z 24006KT 9999 FEW030 33/12 Q1010=
2010112820 - SBKP 282000Z 22007KT 9999 FEW030 32/11 Q1009=
2010112821 - SBKP 282100Z 18008KT 9999 FEW030 30/11 Q1010=
2010112822 - SBKP 282200Z 18006KT CAVOK 28/11 Q1010=
2010112823 - SBKP 282300Z 14005KT CAVOK 25/11 Q1011=
2010112900 - SBKP 290000Z 12010KT CAVOK 23/16 Q1011=
2010112901 - SBKP 290100Z 11013KT CAVOK 22/16 Q1012=
2010112902 - SBKP 290200Z 12011KT CAVOK 22/16 Q1011=
2010112903 - SBKP 290300Z 12011KT CAVOK 21/15 Q1011=
2010112904 - SBKP 290400Z 12011KT CAVOK 21/15 Q1011=
2010112905 - SBKP 290500Z 11010KT CAVOK 20/15 Q1010=
2010112906 - SBKP 290600Z 11007KT CAVOK 20/14 Q1010=
2010112907 - SBKP 290700Z 09007KT CAVOK 20/15 Q1010=
2010112908 - SBKP 290800Z 10006KT CAVOK 20/15 Q1010=
2010112909 - SBKP 290900Z 10005KT CAVOK 20/15 Q1011=
2010112910 - SBKP 291000Z 09006KT CAVOK 22/16 Q1012=
2010112911 - SBKP 291100Z 05007KT CAVOK 26/17 Q1012=
2010112912 - SBKP 291200Z 01014KT CAVOK 28/17 Q1013=
2010112913 - SBKP 291300Z 34014KT 9999 FEW030 SCT100 30/18 Q1012=
2010112914 - SBKP 291400Z 33017KT 9999 SCT040 SCT100 31/17 Q1012=
2010112915 - SBKP 291500Z 33014KT 9999 SCT040 SCT100 30/18 Q1011=
2010112916 - SBKP 291600Z 33011KT 9999 SCT040 BKN100 30/17 Q1011=
2010112917 - SBKP 291700Z 32012KT 9999 SCT040 SCT100 31/17 Q1011=
2010112918 - SBKP 291800Z 30012KT 9999 VCSH SCT040 FEW045TCU BKN100 31/18 Q1010=
2010112918 - SBKP 291815Z 30013G24KT 9999 TS VCSH SCT040 FEW045CB BKN100 30/17 Q1009=
2010112919 - SBKP 291900Z 24008KT 9999 TS VCSH SCT040 FEW045CB BKN100 28/18 Q1010=
2010112920 - SBKP 292000Z 36008KT 9999 VCTS FEW015 SCT040 FEW045CB BKN100 26/17 Q1010 RETS=
2010112921 - SBKP 292100Z 10007KT 9999 FEW015 SCT045 FEW050TCU BKN080 22/19 Q1011=
2010112922 - SBKP 292200Z 06011KT 9999 SCT045 SCT055 BKN075 23/18 Q1012=
2010112923 - SBKP 292300Z 02015KT 9999 FEW015 SCT050 BKN075 22/18 Q1013=
2010113000 - SBKP 300000Z 02013KT 9999 FEW015 SCT050 BKN100 21/19 Q1013=
2010113001 - SBKP 300100Z 03010KT 9999 FEW040 BKN100 21/18 Q1013=
2010113002 - SBKP 300200Z 36005KT CAVOK 21/18 Q1013=
2010113003 - SBKP 300300Z 01006KT 9999 FEW020 21/17 Q1013=
2010113004 - SBKP 300400Z 36008KT 9999 FEW030 BKN100 22/17 Q1012=
2010113005 - SBKP 300500Z 36008KT 9999 FEW030 BKN100 22/18 Q1012=
2010113006 - SBKP 300600Z 01009KT 9999 SCT030 OVC080 21/18 Q1012=
2010113007 - SBKP 300700Z 36007KT 9999 SCT030 OVC080 21/18 Q1012=
2010113008 - SBKP 300800Z 01006KT 9999 SCT030 BKN080 21/18 Q1012=
2010113009 - SBKP 300900Z 01006KT 9999 FEW030 SCT100 21/18 Q1013=
2010113010 - SBKP 301000Z 01005KT 9999 FEW030 BKN090 22/19 Q1013=
2010113011 - SBKP 301100Z 01007KT 9999 FEW030 BKN100 23/19 Q1014=
2010113012 - SBKP 301200Z 35007KT 9999 FEW030 SCT100 25/19 Q1014=
2010113013 - SBKP 301300Z 01014KT 9999 FEW035 SCT100 27/18 Q1014=
2010113014 - SBKP 301400Z 36013KT 9999 FEW035 SCT100 27/19 Q1013=
2010113015 - SBKP 301500Z 35012KT 9999 SCT035 SCT100 29/19 Q1012=
2010113016 - SBKP 301600Z 34013KT 9999 VCSH SCT040 FEW050TCU SCT100 30/19 Q1012=
2010113017 - SBKP 301700Z 29010G21KT 2000 +TSRA BKN030 SCT040CB 22/20 Q1013=
2010113017 - SBKP 301725Z 33007KT 3000 -TSRA SCT015 SCT030 FEW040CB OVC100 20/19 Q1013 RERA=
2010113018 - SBKP 301800Z 19011KT 9999 TS SCT002 SCT030 FEW040CB BKN100 19/19 Q1013 RERA=
2010113019 - SBKP 301900Z 14007KT 9999 FEW012 FEW040TCU BKN100 19/19 Q1012 RETS=
2010113020 - SBKP 302000Z 14005KT 9999 FEW015 FEW040TCU SCT100 23/19 Q1012=
2010113021 - SBKP 302100Z 13003KT 9999 FEW015 FEW040TCU SCT100 22/19 Q1012=
2010113022 - SBKP 302200Z 13006KT 9999 FEW030 SCT100 21/19 Q1013=
2010113023 - SBKP 302300Z 10008KT CAVOK 21/19 Q1013=
2010120100 - SBKP 010000Z 11008KT CAVOK 20/19 Q1013=
2010120101 - SBKP 010100Z 10004KT CAVOK 20/18 Q1014=
2010120102 - SBKP 010200Z 12005KT 9999 SCT040 20/19 Q1014=
2010120103 - SBKP 010300Z 11008KT 9999 FEW040 20/18 Q1013=
2010120104 - SBKP 010400Z 12009KT CAVOK 19/18 Q1013=
2010120105 - SBKP 010500Z 12011KT CAVOK 19/18 Q1012=
2010120106 - SBKP 010600Z 11006KT CAVOK 19/18 Q1012=
2010120107 - SBKP 010700Z 12010KT CAVOK 19/18 Q1012=
2010120108 - SBKP 010800Z 12010KT CAVOK 19/18 Q1013=
2010120109 - SBKP 010900Z 11008KT CAVOK 20/18 Q1013=
2010120110 - SBKP 011000Z 11008KT CAVOK 21/19 Q1014=
2010120111 - SBKP 011100Z 10008KT CAVOK 23/19 Q1015=
2010120112 - SBKP 011200Z VRB02KT CAVOK 25/20 Q1015=
2010120113 - SBKP 011300Z 15003KT 9999 SCT030 SCT100 27/20 Q1015=
2010120114 - SBKP 011400Z 30003KT 9999 BKN030 SCT100 27/19 Q1014=
2010120115 - SBKP 011500Z 08005KT 9999 SCT030 28/18 Q1014 WS R15=
2010120116 - SBKP 011600Z 34004KT 9999 BKN045 29/18 Q1013=
2010120117 - SBKP 011700Z 18006KT 9999 SCT045 29/18 Q1012=
2010120118 - SBKP 011800Z 21005KT 9999 SCT045 32/18 Q1011=
2010120119 - SBKP 011900Z 13009KT 9999 SCT045 FEW050TCU 30/17 Q1010=
2010120120 - SBKP 012000Z 12016KT 9999 SCT045 FEW050TCU 27/18 Q1010=
2010120121 - SBKP 012100Z 12014KT 9999 SCT045 FEW050TCU 25/20 Q1010=
2010120122 - SBKP 012200Z 12016KT 9000 SCT045 FEW050TCU SCT080 24/19 Q1012=
2010120123 - SBKP 012300Z 13019KT 8000 NSC 23/19 Q1013=
2010120200 - SBKP 020000Z 12019KT CAVOK 22/19 Q1013=
2010120201 - SBKP 020100Z 11018KT CAVOK 22/18 Q1013 WS R15=
2010120202 - SBKP 020200Z 11012G22KT 9999 FEW030 BKN080 22/18 Q1013=
2010120203 - SBKP 020300Z 12013KT 9999 FEW030 BKN080 21/18 Q1013=
2010120204 - SBKP 020400Z 10010KT 9999 FEW030 BKN080 21/18 Q1012=
2010120205 - SBKP 020500Z 10007KT 9999 FEW030 BKN080 21/18 Q1012=
2010120206 - SBKP 020600Z 13007KT 9999 FEW030 21/19 Q1012=
2010120207 - SBKP 020700Z 09003KT 9999 FEW030 BKN100 21/19 Q1012=
2010120208 - SBKP 020800Z 05005KT 9999 FEW030 21/19 Q1012=
2010120209 - SBKP 020900Z 11002KT 9999 FEW030 BKN100 21/19 Q1013=
2010120210 - SBKP 021000Z 08005KT 9999 FEW035 BKN100 22/20 Q1014=
2010120211 - SBKP 021100Z 08006KT 9999 SCT035 BKN100 25/19 Q1014=
2010120212 - SBKP 021200Z 35007KT 9999 SCT035 SCT100 25/19 Q1014=
2010120213 - SBKP 021300Z 35010KT 9999 BKN030 SCT100 27/19 Q1014=
2010120214 - SBKP 021400Z 33009KT 9999 BKN030 SCT100 28/20 Q1013=
2010120215 - SBKP 021500Z 36012KT 9999 BKN032 SCT100 27/20 Q1013=
2010120216 - SBKP 021600Z 36009KT 9999 BKN035 28/19 Q1012=
2010120217 - SBKP 021700Z 31010KT 9999 SCT035 29/19 Q1011=
2010120218 - SBKP 021800Z 30011KT 9999 FEW040 FEW045TCU 29/19 Q1010=
2010120219 - SBKP 021900Z 31007KT 9999 FEW040 FEW045TCU 30/20 Q1009=
2010120220 - SBKP 022000Z 29007KT 9999 FEW040 FEW045TCU 28/19 Q1009=
2010120221 - SBKP 022100Z 26005KT 9999 FEW020 SCT045TCU 28/19 Q1010=
2010120221 - SBKP 022140Z 02011KT 9999 VCTS SCT020 SCT045CB 23/20 Q1011=
2010120221 - SBKP 022147Z 01012KT 9999 -TSRA SCT020 SCT045CB 23/20 Q1011=
2010120222 - SBKP 022200Z 01010KT 9999 4000N -TSRA SCT020 SCT045CB BKN080 23/20 Q1011=
2010120222 - SBKP 022245Z 03006KT 9999 -RA VCTS SCT030 FEW035CB BKN080 21/20 Q1012 RETS=
2010120223 - SBKP 022300Z 36004KT 9999 -RA VCTS SCT030 FEW035CB BKN080 21/20 Q1012 RETS=
2010120300 - SBKP 030000Z 09004KT 9999 TS FEW030 FEW040CB 21/20 Q1012=
2010120301 - SBKP 030100Z 03003KT 9999 -RA SCT030 BKN100 21/20 Q1014 RETS=
2010120302 - SBKP 030200Z 08005KT 9999 FEW009 SCT030 BKN090 21/20 Q1013=
2010120303 - SBKP 030300Z 07003KT 9999 SCT006 SCT030 BKN080 21/20 Q1013=
2010120304 - SBKP 030400Z 04003KT 9999 FEW008 BKN010 21/20 Q1012=
2010120305 - SBKP 030500Z 08003KT 9999 -RA SCT008 SCT010 21/20 Q1011=
2010120306 - SBKP 030600Z 05004KT 9999 FEW008 SCT012 21/21 Q1011=
2010120307 - SBKP 030700Z 03006KT 9999 FEW008 21/20 Q1011=
2010120308 - SBKP 030800Z 02006KT 9999 FEW008 SCT100 21/20 Q1012=
2010120309 - SBKP 030900Z 02005KT 9999 FEW008 SCT025 21/20 Q1012=
2010120310 - SBKP 031000Z 01006KT 9999 SCT034 SCT090 22/21 Q1013=
2010120311 - SBKP 031100Z 35008KT 9999 BKN034 BKN090 23/21 Q1013=
2010120312 - SBKP 031200Z 34008KT 9999 SCT0130 BKN090 25/21 Q1014=
2010120313 - SBKP 031300Z 33009KT 9999 SCT020 BKN090 27/21 Q1014=
2010120314 - SBKP 031400Z 32008KT 9999 BKN025 BKN090 27/21 Q1013=
2010120315 - SBKP 031500Z 29010KT 9999 BKN030 29/22 Q1012=
2010120316 - SBKP 031600Z 31008KT 9999 BKN030 31/20 Q1012=
2010120317 - SBKP 031700Z 28007KT 9999 BKN030 31/21 Q1010=
2010120318 - SBKP 031800Z 29008KT 9999 BKN040 30/20 Q1010=
2010120319 - SBKP 031900Z 25006KT 9999 SCT040 FEW045TCU 29/21 Q1010=
2010120319 - SBKP 031945Z 28005KT 9999 4000N -TSRA SCT030 SCT045CB 29/21 Q1011=
2010120320 - SBKP 032000Z 33014KT 9999 3000NE -TSRA SCT030 SCT045CB 25/20 Q1011=
2010120320 - SBKP 032044Z 28018G28KT 9999 2000N -TSRA FEW020 BKN040CB 22/19 Q1012=
2010120321 - SBKP 032100Z 27012G22KT 9999 2000E -TSRA FEW020 SCT040CB 21/19 Q1012 WS R33=
2010120322 - SBKP 032200Z 00000KT 9999 VCTS SCT030 FEW040CB 21/20 Q1013 RETS=
2010120323 - SBKP 032300Z 19005KT 9999 -RA BKN030 SCT080 22/20 Q1014=
2010120400 - SBKP 040000Z 19002KT 9999 FEW030 SCT080 OVC100 22/20 Q1014=
2010120401 - SBKP 040100Z 33003KT CAVOK 21/20 Q1014=
2010120402 - SBKP 040200Z 27006KT 9999 SCT040 BKN045 BKN080 22/21 Q1014=
2010120403 - SBKP 040300Z 08003KT 9999 FEW030 SCT045 BKN100 21/20 Q1014=
2010120404 - SBKP 040400Z 08002KT 9999 FEW030 SCT100 21/20 Q1013=
2010120405 - SBKP 040500Z 08003KT CAVOK 20/20 Q1013=
2010120406 - SBKP 040600Z 08003KT CAVOK 21/20 Q1013=
2010120407 - SBKP 040700Z 12004KT CAVOK 21/20 Q1013=
2010120408 - SBKP 040800Z 14005KT CAVOK 21/20 Q1013=
2010120409 - SBKP 040900Z 12005KT 8000 NSC 20/20 Q1013=
2010120410 - SBKP 041000Z 14004KT 9999 FEW030 SCT100 23/20 Q1014=
2010120411 - SBKP 041100Z 06002KT 9999 FEW030 25/20 Q1014=
2010120412 - SBKP 041200Z 01002KT 9999 FEW030 SCT090 26/20 Q1015=
2010120413 - SBKP 041300Z 04003KT 9999 FEW030 BKN090 28/20 Q1014=
2010120414 - SBKP 041400Z 31004KT 9999 SCT030 SCT070 29/19 Q1014=
2010120415 - SBKP 041500Z 31006KT 9999 SCT035 30/21 Q1013=
2010120416 - SBKP 041600Z 32005KT 9999 SCT035 32/19 Q1012=
2010120417 - SBKP 041700Z 25005KT 9999 SCT040 31/19 Q1011=
2010120418 - SBKP 041800Z 29005KT 9999 SCT040 32/19 Q1010=
2010120419 - SBKP 041900Z 25007KT 9999 SCT040 32/20 Q1010=
2010120420 - SBKP 042000Z 26006KT 9999 FEW040 FEW045TCU 31/20 Q1010=
2010120421 - SBKP 042100Z 12014KT 9999 FEW040 FEW045TCU 25/21 Q1011=
2010120422 - SBKP 042200Z 12020KT 7000 FEW040 FEW045TCU 23/20 Q1012=
2010120423 - SBKP 042300Z 14015KT 9999 FEW040 23/19 Q1014=
2010120500 - SBKP 050000Z 13015KT 9000 SCT030 BKN090 22/19 Q1015=
2010120501 - SBKP 050100Z 12014KT 9999 VCTS FEW030 FEW040CB 22/19 Q1015=
2010120502 - SBKP 050200Z 12014KT 9999 FEW030 21/19 Q1014=
2010120503 - SBKP 050300Z 10011KT 9999 FEW030 21/19 Q1012=
2010120504 - SBKP 050400Z 09006KT 9999 FEW030 21/19 Q1012=
2010120505 - SBKP 050500Z 11005KT CAVOK 20/19 Q1012=
2010120506 - SBKP 050600Z 13007KT CAVOK 20/19 Q1012=
2010120507 - SBKP 050700Z 12004KT CAVOK 20/19 Q1012=
2010120508 - SBKP 050800Z 12006KT CAVOK 20/19 Q1012=
2010120509 - SBKP 050900Z 11004KT CAVOK 21/20 Q1012=
2010120510 - SBKP 051000Z 07004KT CAVOK 24/20 Q1013=
2010120511 - SBKP 051100Z 01007KT CAVOK 26/21 Q1013=
2010120512 - SBKP 051200Z 35009KT 9999 FEW030 28/21 Q1013=
2010120513 - SBKP 051300Z 33009KT CAVOK 30/20 Q1013=
2010120514 - SBKP 051400Z 33011KT 9999 FEW030 31/22 Q1012=
2010120515 - SBKP 051500Z 30009KT 9999 SCT035 31/20 Q1012=
2010120516 - SBKP 051600Z 29007KT 9999 SCT038 32/20 Q1010=
2010120517 - SBKP 051700Z 24007KT 9999 SCT040 33/19 Q1009=
2010120518 - SBKP 051800Z 24012KT 9999 SCT040 FEW045TCU 32/19 Q1009=
2010120519 - SBKP 051900Z 19017G27KT 7000 SCT040 FEW045TCU 27/20 Q1009 WS R15=
2010120519 - SBKP 051909Z 21021G37KT 6000 2000NW -TSRA SCT040 FEW045CB 27/20 Q1010 WS R15=
2010120519 - SBKP 051915Z 22022G37KT 2000 +TSRA SCT040 FEW045CB 24/21 Q1011 WS R15=
2010120519 - SBKP 051942Z 17013KT 9000 BKN025 23/21 Q1011 RETSRA=
2010120520 - SBKP 052000Z 15013KT 9000 BKN025 24/21 Q1012 RETSRA=
2010120521 - SBKP 052100Z 12014KT 9999 FEW015 SCT025 23/20 Q1012=
2010120522 - SBKP 052200Z 10011KT 9999 FEW015 SCT070 22/20 Q1013=
2010120523 - SBKP 052300Z 16011KT 9999 SCT010 BKN070 22/20 Q1014=
2010120600 - SBKP 060000Z 18009KT 9999 SCT015 SCT070 22/19 Q1015=
2010120601 - SBKP 060100Z 28003KT 9999 FEW015 BKN100 21/19 Q1016=
2010120602 - SBKP 060200Z 08007KT 9999 FEW030 BKN100 21/19 Q1013=
2010120603 - SBKP 060300Z 15007KT 9999 FEW030 BKN100 21/18 Q1012=
2010120604 - SBKP 060400Z 15008KT 9999 FEW025 BKN100 21/18 Q1013=
2010120605 - SBKP 060500Z 12006KT 9999 FEW025 SCT100 20/18 Q1012=
2010120606 - SBKP 060600Z 16011KT CAVOK 21/18 Q1011=
2010120607 - SBKP 060700Z 16005KT CAVOK 20/17 Q1012=
2010120608 - SBKP 060800Z 14007KT 9000 NSC 20/18 Q1013=
2010120609 - SBKP 060900Z 12007KT 8000 NSC 20/18 Q1014=
2010120610 - SBKP 061000Z 14010KT CAVOK 21/19 Q1014=
2010120611 - SBKP 061100Z 13008KT CAVOK 23/19 Q1014=
2010120612 - SBKP 061200Z 12009KT 9999 FEW025 BKN090 25/19 Q1015=
2010120613 - SBKP 061300Z 14009KT 9999 FEW030 SCT090 26/18 Q1015=
2010120614 - SBKP 061400Z 14006KT 9999 BKN035 27/18 Q1014=
2010120615 - SBKP 061500Z 12002KT 9999 BKN035 28/18 Q1014=
2010120616 - SBKP 061600Z 21007KT 9999 BKN038 28/18 Q1013=
2010120617 - SBKP 061700Z 23010KT 9999 SCT040 FEW045TCU 29/19 Q1012=
2010120618 - SBKP 061800Z 23011KT 9999 SCT040 FEW045TCU 29/19 Q1011=
2010120619 - SBKP 061900Z 20015KT 9999 VCSH SCT040 FEW045TCU 29/20 Q1011=
2010120620 - SBKP 062000Z 20014G24KT 9999 VCSH SCT040 FEW045TCU 28/19 Q1011=
2010120621 - SBKP 062100Z 19016KT 9999 VCSH SCT040 FEW045TCU 26/19 Q1011=
2010120622 - SBKP 062200Z 17012KT 9999 VCSH FEW040 FEW045TCU 23/18 Q1012=
2010120623 - SBKP 062300Z 17009KT 9999 FEW040 22/18 Q1012=
2010120700 - SBKP 070000Z 14012KT 9999 FEW040 22/18 Q1013=
2010120701 - SBKP 070100Z 20006KT 9999 FEW040 21/18 Q1014=
2010120702 - SBKP 070200Z 13007KT 9999 FEW040 20/18 Q1013=
2010120703 - SBKP 070300Z 15008KT CAVOK 20/18 Q1013=
2010120704 - SBKP 070400Z 12005KT CAVOK 20/18 Q1012=
2010120705 - SBKP 070500Z 12006KT CAVOK 19/18 Q1011=
2010120706 - SBKP 070600Z 18006KT CAVOK 19/18 Q1011=
2010120707 - SBKP 070700Z 21006KT CAVOK 19/18 Q1011=
2010120708 - SBKP 070800Z 18006KT CAVOK 19/18 Q1011=
2010120709 - SBKP 070900Z 14003KT 9000 NSC 20/19 Q1011=
2010120710 - SBKP 071000Z 10007KT CAVOK 22/19 Q1011=
2010120711 - SBKP 071100Z 08011KT CAVOK 24/19 Q1011=
2010120712 - SBKP 071200Z 04007KT 9999 FEW030 27/19 Q1012=
2010120713 - SBKP 071300Z 34007KT 9999 SCT030 27/19 Q1012=
2010120714 - SBKP 071400Z 36006KT 9999 SCT030 SCT070 27/20 Q1011=
2010120715 - SBKP 071500Z 30006KT 9999 SCT035 FEW050TCU SCT070 30/20 Q1010=
2010120716 - SBKP 071600Z 31007KT 9999 SCT040 30/19 Q1010=
2010120717 - SBKP 071700Z 29006KT 9999 SCT040 32/18 Q1009=
2010120718 - SBKP 071800Z 27010KT 9999 SCT040 32/17 Q1008=
2010120719 - SBKP 071900Z 25010KT 9999 SCT040 31/17 Q1007=
2010120720 - SBKP 072000Z 24009KT 9999 FEW040 31/16 Q1007=
2010120721 - SBKP 072100Z 25007KT 9999 FEW040 30/18 Q1007=
2010120722 - SBKP 072200Z 12011KT 9999 FEW040 25/20 Q1008=
2010120723 - SBKP 072300Z 13010KT 9999 VCTS FEW040 FEW045CB 24/20 Q1009=
2010120800 - SBKP 080000Z 12010KT 9999 FEW040 BKN100 23/20 Q1010=
2010120801 - SBKP 080100Z 11009KT CAVOK 23/19 Q1011=
2010120802 - SBKP 080200Z 11007KT CAVOK 22/19 Q1011=
2010120803 - SBKP 080300Z 12009KT CAVOK 22/20 Q1010=
2010120804 - SBKP 080400Z 10007KT CAVOK 22/20 Q1010=
2010120805 - SBKP 080500Z 12005KT CAVOK 21/20 Q1009=
2010120806 - SBKP 080600Z 11003KT CAVOK 21/20 Q1009=
2010120807 - SBKP 080700Z 01005KT CAVOK 21/20 Q1008=
2010120808 - SBKP 080800Z 33003KT 9999 FEW035 BKN097 21/20 Q1009=
2010120809 - SBKP 080900Z 36004KT 8000 FEW035 BKN100 22/20 Q1010=
2010120810 - SBKP 081000Z 34004KT 6000 NSC 23/21 Q1010=
2010120811 - SBKP 081100Z 31004KT 6000 NSC 24/21 Q1010=
2010120812 - SBKP 081200Z 31004KT 6000 NSC 26/21 Q1010=
2010120813 - SBKP 081300Z 28007KT 6000 FEW030 29/21 Q1010=
2010120814 - SBKP 081400Z 26014KT 9999 SCT040 29/20 Q1010=
2010120815 - SBKP 081500Z 24009KT 9999 SCT040 30/20 Q1009=
2010120816 - SBKP 081600Z 26012KT 9999 SCT040 32/17 Q1008=
2010120817 - SBKP 081700Z 24014KT 9999 SCT040 FEW045TCU 32/18 Q1007=
2010120818 - SBKP 081800Z 25018KT 9999 SCT040 FEW045TCU 31/17 Q1007 WS R33=
2010120819 - SBKP 081900Z 24016KT 9999 SCT040 31/17 Q1006 WS R33=
2010120820 - SBKP 082000Z 25014KT 9999 SCT040 30/17 Q1006=
2010120821 - SBKP 082100Z 23013KT 9999 FEW040 28/17 Q1007=
2010120822 - SBKP 082200Z 24008KT 9999 FEW035 27/17 Q1007=
2010120823 - SBKP 082300Z 23005KT 9999 FEW035 27/18 Q1008=
2010120900 - SBKP 090000Z 28004KT 9999 FEW035 26/18 Q1008=
2010120901 - SBKP 090100Z 23004KT 9999 FEW035 25/18 Q1009=
2010120902 - SBKP 090200Z 26003KT CAVOK 24/19 Q1008=
2010120903 - SBKP 090300Z 20005KT 9999 VCTS FEW040 FEW045CB SCT100 23/19 Q1008=
2010120904 - SBKP 090400Z 34001KT 9999 FEW045 SCT080 23/19 Q1008=
2010120905 - SBKP 090500Z 12005KT 9999 FEW045 SCT080 22/19 Q1007=
2010120906 - SBKP 090600Z 12004KT CAVOK 21/19 Q1007=
2010120907 - SBKP 090700Z 11005KT CAVOK 20/19 Q1008=
2010120908 - SBKP 090800Z 11005KT CAVOK 20/19 Q1008=
2010120909 - SBKP 090900Z 12005KT CAVOK 21/19 Q1009=
2010120910 - SBKP 091000Z 12008KT 9999 FEW030 23/19 Q1010=
2010120911 - SBKP 091100Z 13013KT 9999 SCT025 25/18 Q1010=
2010120912 - SBKP 091200Z 13012KT 9999 SCT030 26/17 Q1011=
2010120913 - SBKP 091300Z 14010KT 9999 BKN035 26/17 Q1011=
2010120914 - SBKP 091400Z 12012KT 9999 SCT040 27/16 Q1011=
2010120915 - SBKP 091500Z 13012KT 9999 SCT040 28/16 Q1011=
2010120916 - SBKP 091600Z 12010KT 9999 BKN045 29/15 Q1010=
2010120917 - SBKP 091700Z 16011KT 9999 SCT045 30/16 Q1010=
2010120918 - SBKP 091800Z 15012KT 9999 SCT045 SCT070 29/16 Q1009=
2010120919 - SBKP 091900Z 14010KT 9999 SCT045 SCT070 28/17 Q1009=
2010120920 - SBKP 092000Z 13013KT 9999 FEW045 28/17 Q1009=
2010120921 - SBKP 092100Z 13017KT 9999 FEW045 26/17 Q1009=
2010120922 - SBKP 092200Z 13020KT CAVOK 22/17 Q1010=
2010120923 - SBKP 092300Z 12016KT CAVOK 21/17 Q1010=
2010121000 - SBKP 100000Z 11018KT CAVOK 20/16 Q1010=
2010121001 - SBKP 100100Z 12017G27KT CAVOK 20/16 Q1011 WS R15=
2010121002 - SBKP 100200Z 12016G26KT CAVOK 19/16 Q1011=
2010121003 - SBKP 100300Z 11017KT CAVOK 19/16 Q1011=
2010121004 - SBKP 100400Z 11014KT CAVOK 19/16 Q1011=
2010121005 - SBKP 100500Z 12010KT CAVOK 18/16 Q1011=
2010121006 - SBKP 100600Z 13007KT CAVOK 18/16 Q1010=
2010121007 - SBKP 100700Z 14007KT CAVOK 18/16 Q1011=
2010121008 - SBKP 100800Z 13006KT CAVOK 17/16 Q1012=
2010121009 - SBKP 100900Z 13009KT 7000 NSC 18/17 Q1013=
2010121010 - SBKP 101000Z 12013KT CAVOK 21/17 Q1013=
2010121011 - SBKP 101100Z 12011KT CAVOK 23/17 Q1014=
2010121012 - SBKP 101200Z 10008KT CAVOK 26/18 Q1014=
2010121013 - SBKP 101300Z 13007KT CAVOK 27/18 Q1013=
2010121014 - SBKP 101400Z 17005KT 9999 FEW030 29/17 Q1013=
2010121015 - SBKP 101500Z 11004KT 9999 FEW035 30/15 Q1012=
2010121016 - SBKP 101600Z 19008KT 9999 FEW035 31/13 Q1012=
2010121017 - SBKP 101700Z 17005KT 9999 FEW040 32/15 Q1011=
2010121018 - SBKP 101800Z 10007KT 9999 FEW045 31/14 Q1010=
2010121019 - SBKP 101900Z 11009KT 9999 FEW045 31/14 Q1010=
2010121020 - SBKP 102000Z 13010KT 9999 FEW045 30/13 Q1009=
2010121021 - SBKP 102100Z 12012KT 9999 FEW045 29/12 Q1009=
2010121022 - SBKP 102200Z 12009KT 9999 FEW045 26/11 Q1009=
2010121023 - SBKP 102300Z 13016KT CAVOK 24/16 Q1011=
2010121100 - SBKP 110000Z 12015KT CAVOK 22/16 Q1012=
2010121101 - SBKP 110100Z 12012KT CAVOK 21/16 Q1012=
2010121102 - SBKP 110200Z 12014KT CAVOK 20/17 Q1012=
2010121103 - SBKP 110300Z 11015KT CAVOK 20/17 Q1012=
2010121104 - SBKP 110400Z 12012KT CAVOK 20/18 Q1011=
2010121105 - SBKP 110500Z 11010KT CAVOK 20/18 Q1011=
2010121106 - SBKP 110600Z 11009KT 9999 FEW040 20/18 Q1010=
2010121107 - SBKP 110700Z 11007KT CAVOK 20/18 Q1011=
2010121108 - SBKP 110800Z 11007KT CAVOK 20/18 Q1011=
2010121109 - SBKP 110900Z 12004KT 7000 NSC 20/18 Q1012=
2010121110 - SBKP 111000Z 12004KT CAVOK 21/18 Q1012=
2010121111 - SBKP 111100Z 02004KT CAVOK 25/19 Q1013=
2010121112 - SBKP 111200Z 01010KT CAVOK 28/19 Q1013=
2010121113 - SBKP 111300Z 36012KT 9999 FEW030 29/19 Q1012=
2010121114 - SBKP 111400Z 02010KT 9999 SCT035 30/20 Q1012 WS R33=
2010121115 - SBKP 111500Z 34013KT 9999 SCT040 32/19 Q1011=
2010121116 - SBKP 111600Z 01010KT 9999 SCT040 33/19 Q1010=
2010121116 - SBKP 111630Z 31016G30KT 9999 4500N -TSRA SCT040 FEW045CB 29/17 Q1010=
2010121117 - SBKP 111700Z 34019G32KT 4000 -TSRA FEW012 SCT040 FEW045CB 24/17 Q1012=
2010121117 - SBKP 111720Z 19010KT 4000 TSRA FEW012 SCT040 SCT045CB 22/20 Q1011=
2010121118 - SBKP 111800Z 13009KT 9999 TS BKN040 FEW045CB SCT070 23/20 Q1010 RERA=
2010121119 - SBKP 111900Z 25006KT 9999 SCT040 26/20 Q1010 RETS=
2010121120 - SBKP 112000Z 10004KT 9999 FEW040 SCT070 26/21 Q1010=
2010121121 - SBKP 112100Z 02003KT 9999 FEW040 BKN090 25/21 Q1010=
2010121122 - SBKP 112200Z 19015KT 9999 -TSRA FEW040 FEW047CB BKN090 24/21 Q1011=
2010121122 - SBKP 112226Z 21010KT 8000 TSRA FEW040 FEW047CB BKN090 22/21 Q1012=
2010121123 - SBKP 112300Z 04002KT 8000 TSRA FEW040 FEW047CB OVC090 21/21 Q1013=
2010121123 - SBKP 112345Z 10009KT 9999 -TSRA FEW036 FEW047CB OVC090 21/21 Q1012 RERA=
2010121200 - SBKP 120000Z 07006KT 9999 -TSRA FEW036 FEW047CB OVC100 21/21 Q1012 RERA=
2010121200 - SBKP 120020Z 12008KT 9999 FEW036 SCT090 BKN100 22/21 Q1012 RETS=
2010121201 - SBKP 120100Z 10007KT 9999 FEW036 BKN090 22/22 Q1013 RETS=
2010121202 - SBKP 120200Z 08005KT 9999 -RA SCT030 BKN100 22/21 Q1012=
2010121203 - SBKP 120300Z 19005KT 9999 FEW040 BKN100 22/21 Q1012=
2010121204 - SBKP 120400Z 14005KT CAVOK 21/21 Q1011=
2010121205 - SBKP 120500Z 10006KT CAVOK 21/20 Q1010=
2010121206 - SBKP 120600Z 06003KT CAVOK 20/20 Q1010=
2010121207 - SBKP 120700Z 34003KT CAVOK 20/20 Q1010=
2010121208 - SBKP 120800Z 07002KT 5000 BR NSC 20/20 Q1010=
2010121209 - SBKP 120900Z 08002KT 5000 BR NSC 20/20 Q1011=
2010121209 - SBKP 120930Z 32001KT 4000 BR NSC 21/21 Q1011=
2010121210 - SBKP 121000Z 32003KT 2500 0500W R15/P2000 R33/P2000 BCFG BR FEW001 22/21 Q1011=
2010121211 - SBKP 121100Z 02004KT 3000 BR SCT005 24/21 Q1011=
2010121211 - SBKP 121135Z 02006KT 5000 HZ FEW007 26/21 Q1010=
2010121212 - SBKP 121200Z 02007KT 6000 FEW007 27/21 Q1010=
2010121213 - SBKP 121300Z 34007KT 9999 FEW025 29/20 Q1010=
2010121214 - SBKP 121400Z 29010KT 9999 SCT033 30/21 Q1009=
2010121215 - SBKP 121500Z 29007KT 9999 SCT035 30/21 Q1009=
2010121216 - SBKP 121600Z 30008KT 9999 SCT035 32/20 Q1008=
2010121217 - SBKP 121700Z 31011KT 9999 SCT040 33/18 Q1007=
2010121218 - SBKP 121800Z 28008KT 9999 VCSH SCT040 31/20 Q1006=
2010121219 - SBKP 121900Z 26008KT 9999 FEW040 30/22 Q1006=
2010121220 - SBKP 122000Z 23006KT 9999 FEW040 29/21 Q1006=
2010121221 - SBKP 122100Z 23010KT 9999 FEW035 SCT100 27/22 Q1006=
2010121222 - SBKP 122200Z 21007KT 9999 FEW035 SCT100 26/20 Q1005=
2010121223 - SBKP 122300Z 12005KT 9999 FEW035 24/20 Q1007=
2010121300 - SBKP 130000Z 12004KT CAVOK 24/21 Q1008=
2010121301 - SBKP 130100Z 05004KT CAVOK 24/21 Q1008=
2010121302 - SBKP 130200Z 36003KT 9999 VCTS SCT045CB SCT070 25/21 Q1007=
2010121303 - SBKP 130300Z 20011KT 9999 VCTS FEW035 SCT045CB 24/21 Q1007=
2010121303 - SBKP 130317Z 21015KT 9999 -TSRA FEW008 SCT045CB 23/21 Q1007=
2010121303 - SBKP 130328Z 21015KT 3000 +TSRA FEW005 SCT045CB 22/21 Q1008=
2010121304 - SBKP 130400Z 14009KT 9999 -TSRA FEW010 SCT045CB 19/19 Q1007 RERA=
2010121305 - SBKP 130500Z 08007KT 9999 TS FEW010 SCT045CB 20/19 Q1007=
2010121305 - SBKP 130530Z 35011KT 7000 -RA VCTS FEW010 FEW045CB OVC090 20/19 Q1007 RETS=
2010121306 - SBKP 130600Z 07004KT 260V100 7000 -TSRA FEW004 SCT040CB OVC090 20/19 Q1007 RETS=
2010121306 - SBKP 130610Z 02005KT 6000 TSRA SCT004 SCT040CB OVC090 20/19 Q1007=
2010121307 - SBKP 130700Z 03012KT 6000 RA BKN003 SCT040 OVC090 20/20 Q1007 RETS=
2010121307 - SBKP 130720Z 04018KT 5000 RA BR SCT003 BKN040 OVC090 19/19 Q1005=
2010121308 - SBKP 130800Z 06014KT 5000 RA BR SCT003 BKN040 OVC090 19/19 Q1005 WS R15=
2010121308 - SBKP 130820Z VRB02KT 9000 -RA SCT003 BKN040 BKN090 19/19 Q1006 RERA WS R15=
2010121309 - SBKP 130900Z 07007KT 9999 FEW010 SCT040 19/19 Q1006=
2010121310 - SBKP 131000Z 36009KT 9999 SCT010 SCT040 20/19 Q1007=
2010121311 - SBKP 131100Z 36007KT 9999 FEW009 SCT040 BKN100 21/19 Q1007=
2010121312 - SBKP 131200Z 07007KT 9999 FEW030 SCT045 BKN100 22/18 Q1006=
2010121313 - SBKP 131300Z 01011KT 9999 SCT045 BKN090 25/19 Q1005=
2010121314 - SBKP 131400Z 36008KT 9999 SCT045 BKN090 27/18 Q1005=
2010121315 - SBKP 131500Z 36009KT 9999 SCT045 BKN090 27/20 Q1005=
2010121316 - SBKP 131600Z 36008KT 9999 FEW030 SCT050 BKN100 28/21 Q1004=
2010121317 - SBKP 131700Z 33008KT 9999 SCT035 BKN100 29/21 Q1004=
2010121318 - SBKP 131800Z 34007KT 9999 SCT035 BKN100 29/21 Q1003=
2010121318 - SBKP 131820Z 33006KT 9999 TS VCSH SCT035 FEW045CB BKN100 28/20 Q1003=
2010121318 - SBKP 131830Z 33010G20KT 5000 TSRA SCT035 FEW045CB BKN100 26/22Q1003=
2010121318 - SBKP 131842Z 26019KT 3000 +TSRA SCT006 SCT035 FEW045CB BKN100 20/20 Q1003=
2010121319 - SBKP 131900Z 26018KT 4000 TSRA FEW006 SCT035 FEW045CB BKN100 20/20 Q1005 RERA=
2010121319 - SBKP 131922Z 24010KT 5000 -TSRA SCT013 FEW045CB OVC100 20/20 Q1006 RERA=
2010121320 - SBKP 132000Z 21005KT 5000 -TSRA FEW013 FEW045CB OVC100 20/20 Q1007 RERA=
2010121320 - SBKP 132035Z 16006KT 5000 TSRA FEW013 FEW045CB OVC100 19/19 Q1006=
2010121321 - SBKP 132100Z 14007KT 8000 -RA FEW013 OVC100 20/20 Q1005 RETSRA=
2010121322 - SBKP 132200Z 11005KT 9999 FEW013 SCT090 OVC100 20/19 Q1005=
2010121323 - SBKP 132300Z 09005KT 9999 FEW013 SCT090 OVC100 20/19 Q1006=
2010121400 - SBKP 140000Z 05003KT 9999 FEW035 SCT090 20/19 Q1007=
2010121401 - SBKP 140100Z 10004KT 9999 FEW035 SCT090 20/19 Q1007=
2010121402 - SBKP 140200Z 11005KT 9999 FEW035 20/19 Q1007=
2010121403 - SBKP 140300Z 13006KT 9999 FEW020 BKN090 20/19 Q1007=
2010121404 - SBKP 140400Z 15006KT 9999 BKN020 SCT090 20/19 Q1006=
2010121405 - SBKP 140500Z 12005KT 9999 BKN030 BKN100 20/19 Q1006=
2010121406 - SBKP 140600Z 10006KT 9999 BKN030 BKN100 20/19 Q1005=
2010121407 - SBKP 140700Z 12011KT 9999 SCT004 BKN030 OVC100 20/19 Q1005=
2010121407 - SBKP 140730Z 12013KT 9999 -DZ BKN005 BKN026 OVC100 19/17 Q1006=
2010121408 - SBKP 140800Z 12011KT 9999 FEW005 BKN015 OVC100 19/17 Q1006=
2010121409 - SBKP 140900Z 11009KT 9999 -RA FEW010 BKN025 OVC100 18/17 Q1006=
2010121410 - SBKP 141000Z 12008KT 3000 -RA BR SCT010 BKN016 OVC100 18/17 Q1007=
2010121411 - SBKP 141100Z 12012KT 3000 -RA BR FEW010 BKN018 OVC100 18/17 Q1008=
2010121412 - SBKP 141200Z 12013KT 3000 -RA BR FEW010 BKN016 OVC100 18/18 Q1009=
2010121413 - SBKP 141300Z 12011KT 3000 -RA BR FEW010 BKN016 OVC100 19/18 Q1009=
2010121414 - SBKP 141400Z 18007KT 3000 -RA BR SCT007 BKN016 OVC100 18/18 Q1010=
2010121415 - SBKP 141500Z 13011KT 3000 -RA BR SCT008 BKN016 OVC100 19/18 Q1010=
2010121416 - SBKP 141600Z 12009KT 3000 -RA BR FEW004 SCT008 BKN016 19/18 Q1009=
2010121416 - SBKP 141640Z 14008KT 7000 3000SW -RA FEW004 BKN008 BKN016 19/18 Q1009=
2010121417 - SBKP 141700Z 15006KT 7000 3000W -RA FEW004 BKN008 BKN016 19/18 Q1009=
2010121417 - SBKP 141745Z 18007KT 2000 RA FEW004 BKN008 BKN016 19/18 Q1008=
2010121418 - SBKP 141800Z 15007KT 5000 -RA BR FEW005 BKN010 BKN016 19/18 Q1008 RERA=
2010121419 - SBKP 141900Z 12011KT 5000 -RA BR FEW015 BKN035 OVC100 18/17 Q1008=
2010121420 - SBKP 142000Z 13016KT 9999 FEW015 BKN035 OVC100 18/16 Q1008=
2010121421 - SBKP 142100Z 13015KT 9999 SCT015 BKN040 OVC100 18/16 Q1009=
2010121422 - SBKP 142200Z 13017KT 9000 SCT013 BKN040 OVC100 18/16 Q1010=
2010121423 - SBKP 142300Z 15010KT 5000 -RA BR BKN013 BKN040 OVC100 17/16 Q1012=
2010121500 - SBKP 150000Z 14014KT 8000 -RA FEW015 BKN040 OVC090 17/16 Q1012=
2010121501 - SBKP 150100Z 13012KT 9999 FEW015 BKN045 OVC090 17/16 Q1012=
2010121502 - SBKP 150200Z 12014KT 9999 FEW010 BKN045 17/16 Q1012=
2010121503 - SBKP 150300Z 12016KT 9999 FEW010 BKN040 17/16 Q1011=
2010121504 - SBKP 150400Z 12013KT 9999 VCSH FEW010 BKN040 17/16 Q1011=
2010121505 - SBKP 150500Z 12018KT 9999 -RA FEW008 BKN040 17/16 Q1010=
2010121506 - SBKP 150600Z 11017KT 9999 FEW008 BKN040 17/16 Q1010=
2010121507 - SBKP 150700Z 12014KT 9999 FEW008 BKN040 BKN080 18/16 Q1010=
2010121508 - SBKP 150800Z 11016KT 9999 FEW008 BKN040 BKN080 18/16 Q1010=
2010121509 - SBKP 150900Z 12015KT 9999 FEW008 BKN040 BKN080 18/16 Q1011=
2010121510 - SBKP 151000Z 12015KT 9999 FEW010 SCT045 BKN090 18/16 Q1012=
2010121511 - SBKP 151100Z 12016G26KT 9999 FEW010 SCT045 BKN090 19/17 Q1012 WS R15=
2010121512 - SBKP 151200Z 15015G25KT 9999 FEW010 BKN045 BKN090 20/17 Q1013=
2010121513 - SBKP 151300Z 12016KT 9999 SCT020 BKN045 BKN090 22/17 Q1013=
2010121514 - SBKP 151400Z 12016KT 9999 SCT020 BKN045 BKN090 23/18 Q1013=
2010121515 - SBKP 151500Z 12015KT 9999 SCT025 BKN045 BKN090 23/18 Q1013=
2010121516 - SBKP 151600Z 13020KT 9999 FEW025 SCT045 BKN090 22/17 Q1013=
2010121517 - SBKP 151700Z 13019KT 9999 FEW025 SCT045 BKN090 24/17 Q1012=
2010121518 - SBKP 151800Z 14022KT 9999 FEW025 SCT045 BKN090 24/17 Q1012=
2010121519 - SBKP 151900Z 14022KT 9999 FEW025 SCT045 BKN090 24/17 Q1011=
2010121520 - SBKP 152000Z 13022KT 9999 FEW025 BKN045 BKN090 22/17 Q1011=
2010121521 - SBKP 152100Z 14020KT 9999 FEW025 SCT045 BKN090 21/17 Q1012=
2010121522 - SBKP 152200Z 14018KT 9999 FEW025 BKN045 BKN090 21/17 Q1013=
2010121523 - SBKP 152300Z 13016KT 9999 BKN045 BKN090 20/17 Q1014=
2010121600 - SBKP 160000Z 13014KT 9999 FEW025 BKN045 BKN090 20/17 Q1014=
2010121601 - SBKP 160100Z 13014KT 9999 -RA FEW025 BKN045 BKN090 20/17 Q1015=
2010121602 - SBKP 160200Z 13014KT 9999 FEW015 SCT030 BKN070 20/17 Q1015=
2010121603 - SBKP 160300Z 13013KT 9999 FEW015 SCT035 BKN070 20/17 Q1014=
2010121604 - SBKP 160400Z 12012KT 9999 FEW015 SCT035 BKN070 20/17 Q1013=
2010121605 - SBKP 160500Z 12013KT 9999 FEW015 BKN070 19/17 Q1013=
2010121606 - SBKP 160600Z 11011KT 9999 FEW015 BKN070 19/17 Q1013=
2010121607 - SBKP 160700Z 12011KT 9999 FEW015 BKN070 19/17 Q1013=
2010121608 - SBKP 160800Z 12012KT 9999 FEW015 BKN070 20/17 Q1013=
2010121609 - SBKP 160900Z 11012KT 9999 -RA FEW015 SCT035 BKN070 20/17 Q1014=
2010121610 - SBKP 161000Z 11012KT 9999 FEW009 SCT015 BKN070 20/17 Q1015=
2010121611 - SBKP 161100Z 11013KT 9999 -RA FEW009 SCT015 OVC070 20/18 Q1015=
2010121612 - SBKP 161200Z 11013KT 9000 4000NW -RA FEW012 SCT035 OVC080 20/18 Q1016=
2010121612 - SBKP 161245Z 11009KT 3000 -RA FEW012 SCT035 OVC080 20/19 Q1016=
2010121613 - SBKP 161300Z 10010KT 3000 -RA FEW009 SCT035 OVC080 20/19 Q1016=
2010121613 - SBKP 161342Z 11010KT 9999 VCSH FEW009 SCT035 OVC070 21/20 Q1016=
2010121614 - SBKP 161400Z 11009KT 9999 VCSH FEW009 SCT035 OVC070 21/20 Q1015=
2010121615 - SBKP 161500Z 11008KT 9999 FEW035 BKN070 OVC100 24/20 Q1015=
2010121616 - SBKP 161600Z 36007KT 9999 FEW027 BKN070 OVC100 25/19 Q1015=
2010121617 - SBKP 161700Z 36007KT 9999 FEW027 BKN070 OVC100 25/19 Q1013=
2010121618 - SBKP 161800Z 33003KT 9999 FEW025 SCT050 28/19 Q1013=
2010121619 - SBKP 161900Z 23008KT 9999 VCSH BKN025 FEW050TCU 26/20 Q1012=
2010121619 - SBKP 161921Z 27015G34KT 1200 R15/1200 R33/1700 +RA BKN025 FEW050TCU 25/21 Q1012=
2010121619 - SBKP 161936Z 01010G25KT 1500 R15/P2000 R33/P2000 +TSRA BKN025 FEW050CB 19/19 Q1014=
2010121620 - SBKP 162000Z 03008KT 2100 -TSRA BKN025 FEW050CB 19/19 Q1014 RERA=
2010121620 - SBKP 162014Z 34003KT 5000 -RA BR BKN025 19/19 Q1014 RETS=
2010121621 - SBKP 162100Z 12004KT 6000 -RA SCT025 BKN100 20/19 Q1014 RETS=
2010121622 - SBKP 162200Z 15007KT 6000 FEW025 20/20 Q1014=
2010121623 - SBKP 162300Z 13009KT 9999 SCT045 20/20 Q1014=
2010121600 - SBKP 160000Z 13014KT 9999 FEW025 BKN045 BKN090 20/17 Q1014=
2010121601 - SBKP 160100Z 13014KT 9999 -RA FEW025 BKN045 BKN090 20/17 Q1015=
2010121602 - SBKP 160200Z 13014KT 9999 FEW015 SCT030 BKN070 20/17 Q1015=
2010121603 - SBKP 160300Z 13013KT 9999 FEW015 SCT035 BKN070 20/17 Q1014=
2010121604 - SBKP 160400Z 12012KT 9999 FEW015 SCT035 BKN070 20/17 Q1013=
2010121605 - SBKP 160500Z 12013KT 9999 FEW015 BKN070 19/17 Q1013=
2010121606 - SBKP 160600Z 11011KT 9999 FEW015 BKN070 19/17 Q1013=
2010121607 - SBKP 160700Z 12011KT 9999 FEW015 BKN070 19/17 Q1013=
2010121608 - SBKP 160800Z 12012KT 9999 FEW015 BKN070 20/17 Q1013=
2010121609 - SBKP 160900Z 11012KT 9999 -RA FEW015 SCT035 BKN070 20/17 Q1014=
2010121610 - SBKP 161000Z 11012KT 9999 FEW009 SCT015 BKN070 20/17 Q1015=
2010121611 - SBKP 161100Z 11013KT 9999 -RA FEW009 SCT015 OVC070 20/18 Q1015=
2010121612 - SBKP 161200Z 11013KT 9000 4000NW -RA FEW012 SCT035 OVC080 20/18 Q1016=
2010121612 - SBKP 161245Z 11009KT 3000 -RA FEW012 SCT035 OVC080 20/19 Q1016=
2010121613 - SBKP 161300Z 10010KT 3000 -RA FEW009 SCT035 OVC080 20/19 Q1016=
2010121613 - SBKP 161342Z 11010KT 9999 VCSH FEW009 SCT035 OVC070 21/20 Q1016=
2010121614 - SBKP 161400Z 11009KT 9999 VCSH FEW009 SCT035 OVC070 21/20 Q1015=
2010121615 - SBKP 161500Z 11008KT 9999 FEW035 BKN070 OVC100 24/20 Q1015=
2010121616 - SBKP 161600Z 36007KT 9999 FEW027 BKN070 OVC100 25/19 Q1015=
2010121617 - SBKP 161700Z 36007KT 9999 FEW027 BKN070 OVC100 25/19 Q1013=
2010121618 - SBKP 161800Z 33003KT 9999 FEW025 SCT050 28/19 Q1013=
2010121619 - SBKP 161900Z 23008KT 9999 VCSH BKN025 FEW050TCU 26/20 Q1012=
2010121619 - SBKP 161921Z 27015G34KT 1200 R15/1200 R33/1700 +RA BKN025 FEW050TCU 25/21 Q1012=
2010121619 - SBKP 161936Z 01010G25KT 1500 R15/P2000 R33/P2000 +TSRA BKN025 FEW050CB 19/19 Q1014=
2010121620 - SBKP 162000Z 03008KT 2100 -TSRA BKN025 FEW050CB 19/19 Q1014 RERA=
2010121620 - SBKP 162014Z 34003KT 5000 -RA BR BKN025 19/19 Q1014 RETS=
2010121621 - SBKP 162100Z 12004KT 6000 -RA SCT025 BKN100 20/19 Q1014 RETS=
2010121622 - SBKP 162200Z 15007KT 6000 FEW025 20/20 Q1014=
2010121623 - SBKP 162300Z 13009KT 9999 SCT045 20/20 Q1014=
2010121700 - SBKP 170000Z 13007KT 9999 FEW045 BKN100 21/20 Q1015=
2010121801 - SBKP 180100Z 06005KT 9999 VCSH FEW040 SCT060 20/18 Q1015=
2010121802 - SBKP 180200Z 13004KT 9000 -RA FEW020 BKN040 BKN090 20/18 Q1014=
2010121803 - SBKP 180300Z 09003KT 9000 FEW045 OVC100 19/18 Q1014=
2010121804 - SBKP 180400Z 09003KT 9999 FEW045 OVC100 19/19 Q1013=
2010121805 - SBKP 180500Z 04003KT 9999 FEW035 BKN100 19/19 Q1013=
2010121806 - SBKP 180600Z 03002KT 9999 FEW040 BKN100 19/19 Q1013=
2010121807 - SBKP 180700Z 04002KT 9999 FEW040 BKN100 19/19 Q1012=
2010121808 - SBKP 180800Z 10001KT 9999 FEW040 BKN100 19/19 Q1013=
2010121809 - SBKP 180900Z 11003KT 9999 -RA SCT040 BKN080 19/19 Q1013=
2010121810 - SBKP 181000Z 10003KT 9999 -RA SCT040 BKN080 20/19 Q1014=
2010121811 - SBKP 181100Z 04002KT 9999 FEW045 BKN080 20/20 Q1015=
2010121812 - SBKP 181200Z 01004KT 9999 FEW045 SCT080 22/20 Q1015=
2010121813 - SBKP 181300Z 30003KT 9999 FEW021 SCT080 23/18 Q1015=
2010121814 - SBKP 181400Z 30005KT 9999 SCT025 SCT080 23/19 Q1015=
2010121815 - SBKP 181500Z 30004KT 9999 SCT025 SCT080 24/18 Q1014=
2010121815 - SBKP 181545Z 24007KT 7000 3000NW SHRA SCT025 SCT040TCU BKN090 23/19 Q1014=
2010121816 - SBKP 181600Z 24010KT 3000 SHRA SCT025 SCT040TCU BKN090 22/20 Q1014=
2010121816 - SBKP 181640Z 00000KT 9000 4000E -RA SCT025 FEW040TCU BKN090 20/20 Q1014 RESHRA=
2010121817 - SBKP 181700Z 18003KT 9999 SCT025 FEW040TCU SCT090 20/20 Q1013 RESHRA=
2010121818 - SBKP 181800Z 11004KT 9999 FEW020 BKN040 22/20 Q1012=
2010121819 - SBKP 181900Z 20005KT 9999 FEW020 BKN040 24/19 Q1011=
2010121820 - SBKP 182000Z 20002KT 9999 VCSH SCT030 FEW040TCU SCT080 24/20 Q1011=
2010121821 - SBKP 182100Z 17007KT 9999 VCSH SCT030 21/18 Q1012=
2010121822 - SBKP 182200Z 10004KT 9999 FEW030 BKN090 21/18 Q1012=
2010121823 - SBKP 182300Z 12004KT 9999 FEW030 BKN090 21/19 Q1012=
2010121900 - SBKP 190000Z 07001KT 9999 FEW030 BKN085 20/19 Q1013=
2010121901 - SBKP 190100Z 02002KT 9999 FEW030 BKN075 20/19 Q1014=
2010121902 - SBKP 190200Z 05004KT 9999 FEW030 BKN100 20/19 Q1014=
2010121903 - SBKP 190300Z 03002KT 9999 FEW030 BKN100 20/20 Q1014=
2010121904 - SBKP 190400Z 06002KT 9999 FEW030 BKN100 19/19 Q1013=
2010121905 - SBKP 190500Z 07003KT 9999 FEW015 BKN100 19/19 Q1013=
2010121906 - SBKP 190600Z 11004KT CAVOK 19/19 Q1012=
2010121907 - SBKP 190700Z 08003KT CAVOK 19/19 Q1013=
2010121908 - SBKP 190800Z 03003KT CAVOK 20/19 Q1013=
2010121909 - SBKP 190900Z 12001KT CAVOK 19/19 Q1014=
2010121910 - SBKP 191000Z 11002KT 7000 NSC 21/20 Q1014=
2010121911 - SBKP 191100Z 34002KT 9999 FEW045 BKN090 23/19 Q1015=
2010121912 - SBKP 191200Z 29001KT 9999 FEW045 BKN100 24/19 Q1015=
2010121913 - SBKP 191300Z 26002KT 9999 FEW045 BKN100 25/19 Q1015=
2010121914 - SBKP 191400Z 30002KT 9999 FEW045 BKN100 27/19 Q1015=
2010121915 - SBKP 191500Z 09004KT 9999 SCT045 28/18 Q1014=
2010121916 - SBKP 191600Z 36003KT 9999 SCT045 29/16 Q1013=
2010121917 - SBKP 191700Z 30004KT 9999 SCT045 30/16 Q1013=
2010121918 - SBKP 191800Z 29004KT 9999 SCT045 31/16 Q1012=
2010121919 - SBKP 191900Z 26004KT 9999 SCT045 FEW047TCU 31/15 Q1011=
2010121920 - SBKP 192000Z 25004KT 9999 VCSH SCT045 FEW050TCU 31/16 Q1011=
2010121920 - SBKP 192032Z 10016KT 9999 TS VCSH SCT045 SCT050CB 28/18 Q1012=
2010121921 - SBKP 192100Z 08011KT 9999 3000NE +TSRA SCT045 SCT050CB 25/18 Q1012=
2010121921 - SBKP 192113Z 02016KT 9999 3000N -TSRA SCT045 SCT050CB 23/19 Q1012 RERA=
2010121922 - SBKP 192200Z 36006KT 9999 4000NW -TSRA SCT045 FEW050CB 21/19 Q1013 RERA=
2010121923 - SBKP 192300Z 25003KT 9999 VCTS SCT045 FEW050CB 21/20 Q1014 RETS=
2010122000 - SBKP 200000Z 16006KT 9999 FEW045 21/20 Q1014=
2010122001 - SBKP 200100Z 12006KT CAVOK 21/20 Q1014=
2010122002 - SBKP 200200Z 13009KT CAVOK 20/19 Q1015=
2010122003 - SBKP 200300Z 12008KT CAVOK 21/19 Q1015=
2010122004 - SBKP 200400Z 12008KT CAVOK 20/19 Q1015=
2010122005 - SBKP 200500Z 12005KT 9999 FEW025 20/19 Q1015=
2010122006 - SBKP 200600Z 10007KT 9999 FEW025 SCT100 20/19 Q1015=
2010122007 - SBKP 200700Z 09006KT 9999 FEW025 SCT100 20/19 Q1015=
2010122008 - SBKP 200800Z 11006KT 9999 FEW025 SCT100 20/19 Q1015=
2010122009 - SBKP 200900Z 10007KT 8000 NSC 20/19 Q1016=
2010122010 - SBKP 201000Z 11006KT 8000 NSC 22/19 Q1016=
2010122011 - SBKP 201100Z 07004KT 9000 NSC 25/20 Q1016=
2010122012 - SBKP 201200Z 01008KT CAVOK 27/20 Q1017=
2010122013 - SBKP 201300Z 01009KT 9999 FEW035 28/19 Q1017=
2010122014 - SBKP 201400Z 34008KT 9999 SCT035 29/19 Q1017=
2010122015 - SBKP 201500Z 32008KT 9999 SCT040 30/19 Q1016=
2010122016 - SBKP 201600Z 29008KT 9999 SCT045 31/20 Q1016=
2010122017 - SBKP 201700Z 29007KT 9999 SCT045 31/19 Q1015=
2010122018 - SBKP 201800Z 28009KT 9999 SCT040 FEW045TCU 30/18 Q1014=
2010122019 - SBKP 201900Z 24011KT 9999 SCT040 FEW045TCU 29/19 Q1014=
2010122020 - SBKP 202000Z 25008KT 9999 FEW040 31/18 Q1014=
2010122021 - SBKP 202100Z 23006KT 9999 FEW040 30/17 Q1014=
2010122022 - SBKP 202200Z 17004KT 9999 FEW040 27/18 Q1014=
2010122023 - SBKP 202300Z 12006KT CAVOK 25/19 Q1015=
2010122100 - SBKP 210000Z 13005KT CAVOK 25/18 Q1015=
2010122101 - SBKP 210100Z 12007KT CAVOK 23/19 Q1016=
2010122102 - SBKP 210200Z 10006KT CAVOK 22/20 Q1017=
2010122103 - SBKP 210300Z 10007KT CAVOK 22/19 Q1016=
2010122104 - SBKP 210400Z 10008KT CAVOK 22/19 Q1016=
2010122105 - SBKP 210500Z 06002KT CAVOK 21/19 Q1016=
2010122106 - SBKP 210600Z 12005KT CAVOK 20/19 Q1015=
2010122107 - SBKP 210700Z 15005KT CAVOK 21/19 Q1016=
2010122108 - SBKP 210800Z 10006KT CAVOK 20/19 Q1016=
2010122109 - SBKP 210900Z 10006KT 9999 FEW035 21/19 Q1016=
2010122110 - SBKP 211000Z 15005KT 9000 NSC 24/20 Q1017=
2010122111 - SBKP 211100Z 02001KT CAVOK 27/20 Q1017=
2010122112 - SBKP 211200Z 01005KT CAVOK 27/19 Q1017=
2010122113 - SBKP 211300Z 33004KT 9999 FEW045 29/19 Q1017=
2010122114 - SBKP 211400Z 31005KT 9999 SCT045 31/19 Q1017=
2010122115 - SBKP 211500Z 29006KT 9999 SCT045 31/19 Q1016=
2010122116 - SBKP 211600Z 28005KT 9999 SCT045 32/20 Q1015=
2010122117 - SBKP 211700Z 29007KT 9999 SCT045 FEW050TCU 32/19 Q1014=
2010122118 - SBKP 211800Z 28006KT 9999 TS SCT040 FEW045CB 33/18 Q1013=
2010122119 - SBKP 211900Z 29011KT 9999 TS VCSH FEW040 SCT045CB 27/15 Q1014=
2010122120 - SBKP 212000Z 16014KT 9999 VCSH SCT040 BKN090 26/17 Q1014 RETS=
2010122121 - SBKP 212100Z 15016KT 9999 FEW040 BKN090 24/17 Q1013=
2010122122 - SBKP 212200Z 10005KT 9999 FEW040 SCT090 22/18 Q1014=
2010122123 - SBKP 212300Z 11010KT 9999 VCTS FEW040 FEW050CB BKN100 22/17 Q1015=
2010122200 - SBKP 220000Z 22011KT 9999 VCTS FEW040 FEW045CB BKN080 23/18 Q1016=
2010122201 - SBKP 220100Z 20009KT 9999 FEW040 BKN080 22/18 Q1017=
2010122202 - SBKP 220200Z 20012KT 9999 FEW040 BKN080 22/19 Q1018=
2010122203 - SBKP 220300Z 18012KT 9999 FEW040 SCT080 22/19 Q1016=
2010122204 - SBKP 220400Z 17003KT 9999 FEW040 SCT080 21/19 Q1016=
2010122205 - SBKP 220500Z 32005KT 9999 -RA SCT015 BKN080 21/19 Q1017=
2010122206 - SBKP 220600Z 18004KT 9999 -RA SCT015 BKN090 20/19 Q1016=
2010122207 - SBKP 220700Z 24005KT 5000 BR SCT004 SCT015 BKN090 20/19 Q1016=
2010122207 - SBKP 220725Z 27005KT 5000 BR BKN004 BKN090 20/19 Q1017=
2010122208 - SBKP 220800Z 24003KT 6000 BKN005 BKN090 20/19 Q1017=
2010122209 - SBKP 220900Z 12003KT 5000 BR BKN007 OVC090 20/19 Q1017=
2010122210 - SBKP 221000Z 10004KT 3000 BR SCT006 20/20 Q1016=
2010122211 - SBKP 221100Z 03004KT 5000 BR FEW020 23/20 Q1016=
2010122212 - SBKP 221200Z 07004KT 9999 FEW020 24/19 Q1016=
2010122213 - SBKP 221300Z 30003KT 9999 FEW020 25/19 Q1016=
2010122214 - SBKP 221400Z 31004KT 9999 FEW030 26/19 Q1016=
2010122215 - SBKP 221500Z 31005KT 9999 FEW030 27/19 Q1016=
2010122216 - SBKP 221600Z 31005KT 9999 FEW030 29/18 Q1015=
2010122217 - SBKP 221700Z 28009KT 9999 SCT045 29/19 Q1014=
2010122218 - SBKP 221800Z 28006KT 9999 SCT045 30/18 Q1013=
2010122219 - SBKP 221900Z 20008KT 9999 VCSH SCT045 FEW050TCU 28/19 Q1012=
2010122220 - SBKP 222000Z 20006KT 9999 VCSH SCT045 FEW050TCU 28/19 Q1011=
2010122221 - SBKP 222100Z 28004KT 9999 FEW045 FEW050TCU 28/19 Q1011=
2010122222 - SBKP 222200Z 20003KT 9999 FEW045 FEW050TCU BKN100 27/19 Q1012=
2010122223 - SBKP 222300Z 04003KT 9999 VCTS FEW045 FEW050CB BKN100 24/19 Q1012=
2010122300 - SBKP 230000Z 09007KT 9999 FEW045 BKN090 23/19 Q1012=
2010122301 - SBKP 230100Z 10006KT 9999 VCTS FEW045 FEW050CB BKN090 22/19 Q1013=
2010122301 - SBKP 230140Z 21013G30KT 5000 TSRA SCT015 FEW050CB OVC090 19/18 Q1014=
2010122302 - SBKP 230200Z 20011KT 4000 +TSRA FEW005 SCT015 FEW050CB OVC090 19/18 Q1014=
2010122302 - SBKP 230217Z 20010KT 6000 -TSRA FEW005 SCT015 FEW050CB OVC090 18/18 Q1014 RERA=
2010122303 - SBKP 230300Z 18008KT 6000 -TSRA FEW007 SCT015 FEW050CB OVC090 18/18 Q1014 RERA=
2010122303 - SBKP 230318Z 20008KT 5000 TSRA SCT006 SCT015 FEW050CB OVC090 18/18 Q1014=
2010122304 - SBKP 230400Z 15004KT 3000 TSRA SCT006 SCT035 FEW050CB OVC090 18/18 Q1014=
2010122304 - SBKP 230430Z 10006KT 8000 -TSRA FEW006 SCT035 FEW050CB OVC090 18/18 Q1012 RERA=
2010122305 - SBKP 230500Z 05005KT 9999 -TSRA FEW006 SCT035 FEW050CB OVC080 18/18 Q1012 RERA=
2010122306 - SBKP 230600Z 34006KT 9999 -RA FEW010 SCT035 OVC090 19/18 Q1013 RETS=
2010122307 - SBKP 230700Z 03007KT 9999 -RA FEW015 SCT035 OVC100 19/19 Q1012=
2010122308 - SBKP 230800Z 05005KT 9999 BKN027 OVC100 19/19 Q1011=
2010122309 - SBKP 230900Z 08005KT 9999 SCT027 OVC100 19/19 Q1012=
2010122310 - SBKP 231000Z 33002KT 9999 SCT010 BKN025 20/19 Q1012=
2010122311 - SBKP 231100Z 01007KT 9999 SCT007 BKN025 21/19 Q1013=
2010122312 - SBKP 231200Z 35006KT 9999 SCT010 BKN025 22/19 Q1013=
2010122313 - SBKP 231300Z 33005KT 9999 SCT010 BKN025 23/19 Q1013=
2010122314 - SBKP 231400Z 33005KT 9999 BKN017 24/18 Q1013=
2010122315 - SBKP 231500Z 33005KT 9999 BKN018 24/19 Q1013=
2010122316 - SBKP 231600Z 32003KT 9999 BKN040 26/19 Q1012=
2010122317 - SBKP 231700Z 28005KT 9999 SCT030 27/19 Q1011=
2010122318 - SBKP 231800Z 23006KT 9999 BKN030 SCT070 27/19 Q1010=
2010122319 - SBKP 231900Z 26006KT 9999 BKN030 SCT070 27/19 Q1009=
2010122320 - SBKP 232000Z 25004KT 9999 BKN035 SCT080 26/18 Q1009=
2010122321 - SBKP 232100Z 18011KT 9999 SCT035 FEW050TCU BKN080 24/18 Q1010=
2010122322 - SBKP 232200Z 13013KT 9999 BKN035 FEW050TCU BKN080 23/18 Q1011=
2010122323 - SBKP 232300Z 13010KT 9999 SCT030 BKN075 21/19 Q1012=
2010122400 - SBKP 240000Z 12007KT 9999 FEW030 SCT070 21/18 Q1012=
2010122401 - SBKP 240100Z 12008KT 9999 FEW030 SCT070 20/18 Q1013=
2010122402 - SBKP 240200Z 14008KT 9999 FEW030 SCT070 20/18 Q1013=
2010122403 - SBKP 240300Z 10003KT CAVOK 20/18 Q1012=
2010122404 - SBKP 240400Z 14005KT CAVOK 20/18 Q1012=
2010122405 - SBKP 240500Z 15006KT CAVOK 20/18 Q1011=
2010122406 - SBKP 240600Z 13007KT CAVOK 19/18 Q1010=
2010122407 - SBKP 240700Z 11004KT CAVOK 19/18 Q1011=
2010122408 - SBKP 240800Z 10002KT CAVOK 19/18 Q1011=
2010122409 - SBKP 240900Z 11005KT 9000 NSC 20/18 Q1012=
2010122410 - SBKP 241000Z 12005KT CAVOK 20/18 Q1013=
2010122411 - SBKP 241100Z 11009KT 9999 FEW030 22/17 Q1013=
2010122412 - SBKP 241200Z 12006KT 9999 -RA FEW040 22/18 Q1013=
2010122413 - SBKP 241300Z 06004KT 9999 SCT040 25/18 Q1012=
2010122414 - SBKP 241400Z 08001KT 9999 SCT028 26/18 Q1012=
2010122415 - SBKP 241500Z 30005KT 9999 SCT030 27/18 Q1012=
2010122416 - SBKP 241600Z 07005KT 9999 SCT040 27/18 Q1012=
2010122417 - SBKP 241700Z 27004KT 9999 SCT040 29/18 Q1011=
2010122418 - SBKP 241800Z 17007KT 9999 SCT045 SCT075 29/17 Q1010=
2010122419 - SBKP 241900Z 19005KT 9999 SCT048 29/17 Q1009=
2010122420 - SBKP 242000Z 14006KT 9999 SCT048 FEW050TCU SCT080 28/17 Q1009=
2010122421 - SBKP 242100Z 19006KT 9999 VCSH SCT048 FEW050TCU SCT080 27/18 Q1009=
2010122422 - SBKP 242200Z 14013KT 9999 -RA SCT048 FEW050TCU SCT080 25/18 Q1011=
2010122423 - SBKP 242300Z 14013KT 9999 FEW048 SCT080 23/18 Q1011=
2010122500 - SBKP 250000Z 11008KT 9999 VCTS FEW048 FEW050CB SCT080 22/18 Q1012=
2010122501 - SBKP 250100Z 12011KT CAVOK 22/18 Q1012=
2010122502 - SBKP 250200Z 10009KT CAVOK 21/18 Q1012=
2010122503 - SBKP 250300Z 09003KT CAVOK 20/18 Q1012=
2010122504 - SBKP 250400Z 11005KT CAVOK 20/18 Q1012=
2010122505 - SBKP 250500Z 11007KT CAVOK 19/18 Q1011=
2010122506 - SBKP 250600Z 12008KT CAVOK 19/17 Q1011=
2010122507 - SBKP 250700Z 12004KT 9999 BKN015 19/18 Q1011=
2010122508 - SBKP 250800Z 12006KT 9999 BKN015 20/18 Q1011=
2010122509 - SBKP 250900Z 11006KT 9999 BKN015 20/18 Q1011=
2010122509 - SBKP 250935Z 10005KT 9999 BKN010 20/18 Q1011=
2010122510 - SBKP 251000Z 09005KT 9999 BKN010 21/18 Q1011=
2010122511 - SBKP 251100Z 04007KT 9999 SCT012 23/19 Q1012=
2010122512 - SBKP 251200Z 36008KT 9999 BKN018 25/19 Q1012=
2010122513 - SBKP 251300Z 35010KT 9999 BKN018 25/20 Q1012=
2010122514 - SBKP 251400Z 33010KT 9999 BKN018 25/20 Q1013=
2010122515 - SBKP 251500Z 29006KT 9999 BKN020 27/20 Q1012=
2010122516 - SBKP 251600Z 24006KT 9999 SCT025 FEW030TCU 28/20 Q1011=
2010122517 - SBKP 251700Z 27006KT 9999 SCT030 FEW035TCU 30/20 Q1010=
2010122518 - SBKP 251800Z 32012G22KT 9999 VCSH BKN030 FEW035TCU BKN070 26/20 Q1010=
2010122519 - SBKP 251900Z 28012G22KT 9999 BKN030 FEW035TCU SCT070 26/20 Q1010=
2010122520 - SBKP 252000Z 26010KT 9999 FEW035 SCT075 27/19 Q1009=
2010122521 - SBKP 252100Z 26005KT 9999 FEW040 SCT080 26/19 Q1009=
2010122522 - SBKP 252200Z 21005KT 9999 FEW040 25/19 Q1009=
2010122523 - SBKP 252300Z 17002KT 9999 FEW040 24/20 Q1010=
2010122600 - SBKP 260000Z 17003KT 9999 SCT040 BKN080 23/20 Q1011=
2010122601 - SBKP 260100Z 20004KT 9999 SCT040 SCT080 25/20 Q1012=
2010122602 - SBKP 260200Z 12007KT 9999 SCT040 SCT080 22/20 Q1012=
2010122603 - SBKP 260300Z 09005KT CAVOK 22/20 Q1011=
2010122604 - SBKP 260400Z 12003KT CAVOK 22/20 Q1011=
2010122605 - SBKP 260500Z 15003KT CAVOK 22/21 Q1010=
2010122606 - SBKP 260600Z 09004KT CAVOK 21/20 Q1010=
2010122607 - SBKP 260700Z 06003KT CAVOK 21/20 Q1010=
2010122608 - SBKP 260800Z 34002KT 8000 FEW045 20/20 Q1011=
2010122609 - SBKP 260900Z 01004KT 5000 BR FEW045 SCT080 21/20 Q1011=
2010122610 - SBKP 261000Z 01006KT 5000 BR FEW045 SCT100 22/20 Q1012=
2010122610 - SBKP 261040Z 01007KT 5000 BR BKN007 SCT100 23/21 Q1012=
2010122611 - SBKP 261100Z 01007KT 4000 BR BKN008 SCT100 23/21 Q1012=
2010122612 - SBKP 261200Z 36007KT 3500 BR OVC009 23/21 Q1013=
2010122613 - SBKP 261300Z 32005KT 5000 HZ BKN013 25/21 Q1013=
2010122613 - SBKP 261335Z 32005KT 7000 SCT015 BKN030 FEW040TCU 26/21 Q1012=
2010122614 - SBKP 261400Z 35005KT 7000 SCT015 BKN030 FEW040TCU 27/20 Q1012=
2010122614 - SBKP 261425Z 26007KT 1000 R15/1600 R33/P2000 +RA SCT015 BKN030 FEW040TCU 25/21 Q1012=
2010122614 - SBKP 261445Z 17004KT 5000 1800SE R33/1800 R15/P2000 -TSRA BR SCT015 BKN030 FEW040CB 22/21 Q1012 RERA=
2010122615 - SBKP 261500Z 18004KT 5000 -TSRA BR FEW015 BKN030 FEW040CB 22/21 Q1012 RERA=
2010122615 - SBKP 261516Z 28008KT 2000 R15/1200 R33/1200+TSRA BKN002 BKN030 FEW040CB 22/21 Q1012=
2010122615 - SBKP 261536Z 05006KT 3000 R15/1900 R33/1500 TSRA SCT002 BKN030 FEW040CB 20/20 Q1012 RERA=
2010122616 - SBKP 261600Z 32002KT 5000 -TSRA FEW010 BKN030 FEW040CB OVC090 20/19 Q1012 RERA=
2010122617 - SBKP 261700Z 07003KT 9999 FEW005 SCT030 FEW040TCU 21/21 Q1011 RETS=
2010122618 - SBKP 261800Z 08002KT 9999 FEW005 SCT030 22/22 Q1011=
2010122619 - SBKP 261900Z 10004KT 9999 FEW006 SCT015 23/21 Q1010=
2010122620 - SBKP 262000Z 11005KT 9999 -RA FEW006 SCT018 22/21 Q1011=
2010122621 - SBKP 262100Z 11005KT 8000 -RA FEW008 BKN018 22/21 Q1011=
2010122622 - SBKP 262200Z 08003KT 9000 -RA FEW008 BKN018 21/21 Q1011=
2010122623 - SBKP 262300Z 13006KT 9999 FEW010 SCT018 22/20 Q1011=
2010122700 - SBKP 270000Z 11004KT 9999 FEW036 21/20 Q1012=
2010122701 - SBKP 270100Z 11007KT 9999 SCT036 21/20 Q1012=
2010122702 - SBKP 270200Z 11007KT 9999 BKN045 21/20 Q1012=
2010122703 - SBKP 270300Z 13010KT CAVOK 21/20 Q1012=
2010122704 - SBKP 270400Z 16007KT CAVOK 20/19 Q1011=
2010122705 - SBKP 270500Z 12004KT CAVOK 20/19 Q1010=
2010122706 - SBKP 270600Z 09003KT CAVOK 20/19 Q1010=
2010122707 - SBKP 270700Z 14004KT CAVOK 19/19 Q1010=
2010122708 - SBKP 270800Z 13005KT 8000 FEW045 BKN080 20/19 Q1011=
2010122709 - SBKP 270900Z 17003KT 6000 FEW045 BKN055 20/19 Q1012=
2010122710 - SBKP 271000Z 19004KT 7000 FEW005 BKN070 21/19 Q1013=
2010122711 - SBKP 271100Z 21004KT 9000 FEW010 BKN050 22/19 Q1013=
2010122712 - SBKP 271200Z 15007KT 9000 FEW010 SCT050 BKN080 23/19 Q1013=
2010122713 - SBKP 271300Z 11006KT 9999 SCT020 SCT050 BKN080 25/19 Q1013=
2010122714 - SBKP 271400Z 11003KT 9999 SCT028 SCT080 27/21 Q1012=
2010122715 - SBKP 271500Z 01002KT 9999 BKN030 SCT080 27/19 Q1012=
2010122716 - SBKP 271600Z 13003KT 9999 BKN035 SCT080 28/19 Q1011=
2010122717 - SBKP 271700Z 23005KT 9999 BKN035 FEW040TCU 29/20 Q1010=
2010122718 - SBKP 271800Z 19010KT 9999 BKN035 FEW040TCU 29/19 Q1009=
2010122719 - SBKP 271900Z 14010KT 9999 SCT035 FEW040TCU 27/20 Q1009=
2010122720 - SBKP 272000Z 12011KT 9999 SCT035 26/19 Q1009=
2010122721 - SBKP 272100Z 13017KT 9999 SCT035 SCT100 25/19 Q1009=
2010122722 - SBKP 272200Z 13012KT 9999 FEW035 SCT100 23/18 Q1010=
2010122723 - SBKP 272300Z 13012KT 9999 FEW040 22/17 Q1011=
2010122800 - SBKP 280000Z 13011KT CAVOK 21/17 Q1011=
2010122801 - SBKP 280100Z 12010KT 9999 BKN021 21/17 Q1012=
2010122802 - SBKP 280200Z 13012KT 9999 BKN018 20/17 Q1012=
2010122803 - SBKP 280300Z 11004KT 9999 BKN019 20/17 Q1011=
2010122804 - SBKP 280400Z 14007KT CAVOK 19/17 Q1011=
2010122805 - SBKP 280500Z 16005KT CAVOK 19/16 Q1010=
2010122806 - SBKP 280600Z 16006KT CAVOK 18/16 Q1010=
2010122807 - SBKP 280700Z 15007KT CAVOK 18/15 Q1010=
2010122808 - SBKP 280800Z 15006KT CAVOK 17/15 Q1010=
2010122809 - SBKP 280900Z 14008KT CAVOK 17/15 Q1011=
2010122810 - SBKP 281000Z 13009KT CAVOK 18/15 Q1012=
2010122811 - SBKP 281100Z 13011KT CAVOK 21/15 Q1012=
2010122812 - SBKP 281200Z 12010KT 9999 FEW040 22/16 Q1012=
2010122813 - SBKP 281300Z 10005KT 9999 FEW040 25/17 Q1012=
2010122814 - SBKP 281400Z 08004KT 9999 SCT030 SCT070 26/18 Q1011=
2010122815 - SBKP 281500Z 31003KT 9999 BKN030 SCT045 BKN070 28/18 Q1011=
2010122816 - SBKP 281600Z 26005KT 9999 BKN035 BKN070 28/19 Q1011=
2010122817 - SBKP 281700Z 23008KT 9999 BKN035 BKN070 27/18 Q1010=
2010122818 - SBKP 281800Z 25010KT 9999 BKN035 SCT080 29/18 Q1009=
2010122819 - SBKP 281900Z 24006KT 9999 SCT035 29/18 Q1008=
2010122820 - SBKP 282000Z 19009KT 9999 SCT035 27/18 Q1008=
2010122821 - SBKP 282100Z 19008KT 9999 SCT035 27/18 Q1008=
2010122822 - SBKP 282200Z 13010KT 9999 FEW035 24/18 Q1009=
2010122823 - SBKP 282300Z 13010KT 9999 FEW035 24/18 Q1009=
2010122900 - SBKP 290000Z 12011KT CAVOK 20/17 Q1011=
2010122901 - SBKP 290100Z 12010KT CAVOK 19/16 Q1011=
2010122902 - SBKP 290200Z 12014KT CAVOK 18/15 Q1011=
2010122903 - SBKP 290300Z 12010KT CAVOK 17/15 Q1011=
2010122904 - SBKP 290400Z 15010KT CAVOK 18/15 Q1011=
2010122905 - SBKP 290500Z 11005KT CAVOK 15/14 Q1010=
2010122906 - SBKP 290600Z 14007KT CAVOK 16/14 Q1009=
2010122907 - SBKP 290700Z 17006KT CAVOK 16/14 Q1009=
2010122908 - SBKP 290800Z 20005KT 9999 FEW010 15/14 Q1010=
2010122909 - SBKP 290900Z 16005KT 9999 FEW020 15/14 Q1010=
2010122910 - SBKP 291000Z 13008KT CAVOK 17/14 Q1010=
2010122911 - SBKP 291100Z 13013KT CAVOK 19/14 Q1011=
2010122912 - SBKP 291200Z 12011KT CAVOK 22/14 Q1011=
2010122913 - SBKP 291300Z 13007KT CAVOK 23/14 Q1011=
2010122914 - SBKP 291400Z 16004KT 9999 FEW040 25/16 Q1011=
2010122915 - SBKP 291500Z 15003KT 9999 FEW040 26/16 Q1010=
2010122916 - SBKP 291600Z 15006KT 9999 FEW045 27/13 Q1009=
2010122917 - SBKP 291700Z 18007KT 9999 FEW045 28/12 Q1009=
2010122918 - SBKP 291800Z 13004KT 9999 FEW045 29/13 Q1008=
2010122919 - SBKP 291900Z 19005KT 9999 FEW045 29/13 Q1007=
2010122920 - SBKP 292000Z 17011KT 9999 FEW045 29/14 Q1007=
2010122921 - SBKP 292100Z 15017KT 9999 FEW045 27/15 Q1008=
2010122922 - SBKP 292200Z 14019KT CAVOK 23/16 Q1008=
2010122923 - SBKP 292300Z 13017KT CAVOK 21/16 Q1009=
2010123000 - SBKP 300000Z 14012KT CAVOK 20/16 Q1010=
2010123001 - SBKP 300100Z 14015KT CAVOK 20/16 Q1011=
2010123002 - SBKP 300200Z 13013KT CAVOK 20/16 Q1011=
2010123003 - SBKP 300300Z 12014KT 9999 BKN030 20/16 Q1011=
2010123004 - SBKP 300400Z 14012KT CAVOK 19/15 Q1010=
2010123005 - SBKP 300500Z 14009KT CAVOK 18/15 Q1009=
2010123006 - SBKP 300600Z 14010KT 9999 FEW020 17/15 Q1009=
2010123007 - SBKP 300700Z 13010KT 9999 FEW006 17/14 Q1009=
2010123008 - SBKP 300800Z 13011KT 9999 FEW010 17/14 Q1009=
2010123009 - SBKP 300900Z 13010KT 9999 FEW010 17/15 Q1010=
2010123010 - SBKP 301000Z 10015KT 9999 FEW010 20/15 Q1011=
2010123011 - SBKP 301100Z 12017KT 9999 FEW015 22/15 Q1011=
2010123012 - SBKP 301200Z 13015KT 9999 FEW015 23/16 Q1011=
2010123013 - SBKP 301300Z 12015KT 9999 FEW015 25/16 Q1011=
2010123014 - SBKP 301400Z 14012KT 9999 FEW020 26/16 Q1011=
2010123015 - SBKP 301500Z 15009KT 9999 SCT027 27/16 Q1010=
2010123016 - SBKP 301600Z 14011KT 9999 BKN040 28/17 Q1010=
2010123017 - SBKP 301700Z 13010KT 9999 SCT045 28/16 Q1009=
2010123018 - SBKP 301800Z 15012KT 9999 SCT045 29/16 Q1009=
2010123019 - SBKP 301900Z 14017KT 9999 SCT045 26/16 Q1008=
2010123020 - SBKP 302000Z 12017KT 9999 FEW045 25/15 Q1008=
2010123021 - SBKP 302100Z 12019KT CAVOK 24/15 Q1009=
2010123022 - SBKP 302200Z 13018KT CAVOK 21/15 Q1010=
2010123023 - SBKP 302300Z 14019KT CAVOK 21/14 Q1010=
2010123100 - SBKP 310000Z 13014KT CAVOK 19/14 Q1011=
2010123101 - SBKP 310100Z 13014KT CAVOK 19/14 Q1011=
2010123102 - SBKP 310200Z 13011KT CAVOK 18/14 Q1011=
2010123103 - SBKP 310300Z 13009KT CAVOK 17/15 Q1011=
2010123104 - SBKP 310400Z 13010KT CAVOK 17/15 Q1011=
2010123105 - SBKP 310500Z 12012KT CAVOK 17/15 Q1010=
2010123106 - SBKP 310600Z 12011KT CAVOK 17/15 Q1010=
2010123107 - SBKP 310700Z 12010KT CAVOK 17/15 Q1009=
2010123108 - SBKP 310800Z 12011KT CAVOK 16/14 Q1010=
2010123109 - SBKP 310900Z 11012KT CAVOK 17/14 Q1010=
2010123110 - SBKP 311000Z 12016KT CAVOK 19/15 Q1011=
2010123111 - SBKP 311100Z 11012KT CAVOK 21/15 Q1011=
2010123112 - SBKP 311200Z 12012KT CAVOK 24/16 Q1011=
2010123113 - SBKP 311300Z 12012KT 9999 FEW030 26/20 Q1011=
2010123114 - SBKP 311400Z 12011KT 9999 FEW030 SCT080 27/17 Q1011=
2010123115 - SBKP 311500Z 12008KT 9999 BKN045 SCT090 27/17 Q1011=
2010123116 - SBKP 311600Z 13010KT 9999 BKN043 SCT090 27/17 Q1010=
2010123117 - SBKP 311700Z 12012KT 9999 SCT043 SCT090 28/17 Q1010=
2010123118 - SBKP 311800Z 13014KT 9999 SCT045 SCT090 28/16 Q1009=
2010123119 - SBKP 311900Z 13015KT 9999 SCT045 SCT090 27/17 Q1008=
2010123120 - SBKP 312000Z 13018KT 9999 FEW045 26/17 Q1008=
2010123121 - SBKP 312100Z 13017KT 9999 FEW045 25/17 Q1009=
2010123122 - SBKP 312200Z 14018KT CAVOK 23/16 Q1010=
2010123123 - SBKP 312300Z 14019KT CAVOK 22/16 Q1010=